{
  "type": "FeatureCollection",
  "format": "deepecho-ghosttrace/1+geojson",
  "survey_id": "demo-ghosttrace-mannar-repeat",
  "synthetic": true,
  "features": [
    {
      "type": "Feature",
      "geometry": {
        "type": "Point",
        "coordinates": [
          79.05178142,
          9.11940785
        ]
      },
      "properties": {
        "kind": "target",
        "detection_id": "SYNTHETIC_mannar_line02_512_1536_d0",
        "object_class": "net",
        "rank": 1,
        "tier": "routine",
        "score": 0.3162,
        "confidence_pct": 81.3,
        "activity_level": "low",
        "change_status": "moved",
        "propeller_hazard": "low",
        "synthetic": true
      }
    },
    {
      "type": "Feature",
      "geometry": {
        "type": "Point",
        "coordinates": [
          79.05134464,
          9.11988833
        ]
      },
      "properties": {
        "kind": "target",
        "detection_id": "SYNTHETIC_mannar_line02_0_1024_d0",
        "object_class": "net",
        "rank": 2,
        "tier": "routine",
        "score": 0.3032,
        "confidence_pct": 80.1,
        "activity_level": "low",
        "change_status": "new",
        "propeller_hazard": "moderate",
        "synthetic": true
      }
    },
    {
      "type": "Feature",
      "geometry": {
        "type": "LineString",
        "coordinates": [
          [
            78.7858616,
            9.2275892
          ],
          [
            79.05134464,
            9.11988833
          ],
          [
            79.05178142,
            9.11940785
          ]
        ]
      },
      "properties": {
        "kind": "recovery_route",
        "total_km": 31.58,
        "start": "unnamed harbour (9.2276, 78.7859)",
        "note": "straight-line legs; not a navigable sea route"
      }
    }
  ]
}