{"type":"FeatureCollection","ghosttrace":{"layer":"dugong_curated_gulf_of_mannar_palk_bay","kind":"dugong","source_id":"curated_dugong","regions":["gulf_of_mannar_palk_bay"],"restricted":false,"written":"2026-09-13T13:13:27+00:00"},"features":[{"type":"Feature","geometry":{"type":"LineString","coordinates":[[79.38928,10.31701],[79.38846,10.31688],[79.38724,10.31666],[79.38668,10.31658],[79.38506,10.31619],[79.38436,10.316],[79.38373,10.31569],[79.38312,10.31539],[79.38288,10.31528],[79.38252,10.31515],[79.38208,10.31488],[79.38164,10.31461],[79.38102,10.31424],[79.38057,10.31391],[79.38019,10.31361],[79.38003,10.31337],[79.3795,10.31288],[79.37932,10.31263],[79.37915,10.31253],[79.37887,10.31132],[79.37863,10.3106],[79.37847,10.31028],[79.37831,10.30995],[79.37807,10.30877],[79.37789,10.30789],[79.37784,10.30744],[79.37779,10.30729],[79.37769,10.30719],[79.37766,10.3071],[79.37765,10.30697],[79.37767,10.30688],[79.37765,10.30678],[79.3775,10.30653],[79.37734,10.3063],[79.37724,10.30608],[79.37723,10.30597],[79.37728,10.30579],[79.37726,10.30563],[79.37723,10.30553],[79.37703,10.30536],[79.37681,10.30504],[79.37672,10.3049],[79.3765,10.30436],[79.37649,10.30423],[79.37649,10.30412],[79.37649,10.3041],[79.37643,10.30402],[79.37624,10.30378],[79.37609,10.30364],[79.37588,10.30343],[79.37563,10.30314],[79.37519,10.30243],[79.37485,10.30184],[79.37474,10.30153],[79.37461,10.3012],[79.37456,10.30107],[79.374,10.30057],[79.37383,10.3002],[79.37376,10.30013],[79.37344,10.29971],[79.37322,10.29937],[79.37298,10.29921],[79.37273,10.29911],[79.37261,10.299],[79.37162,10.29787],[79.37118,10.2974],[79.37076,10.29699],[79.37062,10.29682],[79.37047,10.29654],[79.37046,10.29636],[79.37048,10.29604],[79.37047,10.29591],[79.37037,10.29566],[79.37033,10.29543],[79.37034,10.29525],[79.37035,10.29511],[79.37031,10.295],[79.3703,10.29483],[79.36949,10.2944],[79.36894,10.29388],[79.36764,10.29363],[79.36749,10.29348],[79.36744,10.2933],[79.36729,10.29299],[79.3666,10.29266],[79.36599,10.29259],[79.36528,10.29247],[79.36463,10.29234],[79.36403,10.29216],[79.36309,10.29183],[79.3619,10.29138],[79.36043,10.29084],[79.35933,10.29037],[79.35883,10.29012],[79.35812,10.28965],[79.35789,10.28943],[79.35769,10.28937],[79.35712,10.28913],[79.3566,10.28911],[79.3564,10.28912],[79.35604,10.28909],[79.35578,10.28905],[79.35516,10.2889],[79.35459,10.28875],[79.35445,10.2887],[79.3541,10.28857],[79.35363,10.28833],[79.35335,10.28822],[79.35317,10.28808],[79.35305,10.28784],[79.35297,10.28769],[79.35286,10.28758],[79.35267,10.2875],[79.35235,10.28739],[79.35208,10.28728],[79.35162,10.28705],[79.35135,10.28687],[79.35123,10.28692],[79.35101,10.28704],[79.35084,10.28679],[79.35071,10.28668],[79.35061,10.28657],[79.35048,10.28644],[79.35009,10.28594],[79.34994,10.28566],[79.34961,10.28564],[79.34957,10.28583],[79.34962,10.28596],[79.34954,10.28602],[79.34947,10.28604],[79.34929,10.28601],[79.349,10.28599],[79.34884,10.28604],[79.3486,10.28622],[79.34835,10.28635],[79.34812,10.28644],[79.34801,10.28639],[79.34792,10.2864],[79.34775,10.28648],[79.34765,10.28649],[79.34719,10.28645],[79.34701,10.28647],[79.34672,10.28645],[79.34654,10.28644],[79.34622,10.28636],[79.34615,10.28635],[79.3461,10.28636],[79.34587,10.28634],[79.34544,10.2865],[79.34521,10.28653],[79.34482,10.28655],[79.34369,10.28638],[79.34361,10.2864],[79.34354,10.28646],[79.3434,10.28652],[79.34301,10.28658],[79.34289,10.2866],[79.3426,10.28678],[79.34233,10.28684],[79.34215,10.28687],[79.34147,10.28703],[79.34121,10.28701],[79.34056,10.28695],[79.34016,10.28704],[79.33969,10.28725],[79.33896,10.28707],[79.33856,10.28684],[79.33821,10.28691],[79.33724,10.28661],[79.3368,10.28656],[79.33612,10.28626],[79.33439,10.28556],[79.33331,10.28526],[79.33271,10.28509],[79.33158,10.28475],[79.33116,10.28459],[79.32991,10.28402],[79.32817,10.28313],[79.32748,10.28287],[79.32666,10.28241],[79.32578,10.28195],[79.32421,10.28091],[79.32354,10.28036],[79.32275,10.27987],[79.32242,10.27974],[79.32227,10.27967],[79.32197,10.27947],[79.32102,10.27898],[79.32003,10.2784],[79.31973,10.27816],[79.3191,10.27758],[79.31897,10.27748],[79.31883,10.27743],[79.31879,10.27741],[79.31876,10.2774],[79.31847,10.27724],[79.31794,10.27688],[79.31687,10.27606],[79.31662,10.27584],[79.31591,10.27513],[79.31572,10.27494],[79.31524,10.27434],[79.31477,10.27383],[79.31429,10.27334],[79.31342,10.27238],[79.31298,10.27187],[79.31266,10.27153],[79.31245,10.27136],[79.31223,10.27112],[79.31169,10.27054],[79.311,10.26966],[79.31086,10.26937],[79.31052,10.26861],[79.31041,10.26844],[79.31012,10.2682],[79.3099,10.26791],[79.30969,10.2676],[79.30958,10.26733],[79.3094,10.26707],[79.30937,10.26696],[79.3094,10.26687],[79.30948,10.2668],[79.30956,10.2667],[79.30955,10.26665],[79.30951,10.26659],[79.30946,10.26655],[79.30922,10.26622],[79.30914,10.2661],[79.30886,10.26564],[79.30856,10.26547],[79.3083,10.26535],[79.308,10.26527],[79.3077,10.26523],[79.30725,10.26518],[79.30714,10.26518],[79.30668,10.26518],[79.30649,10.26522],[79.3061,10.26533],[79.30533,10.26558],[79.30503,10.26551],[79.30479,10.26558],[79.30454,10.26564],[79.30425,10.26571],[79.30365,10.26562],[79.30317,10.26557],[79.3028,10.26545],[79.30232,10.26532],[79.30195,10.26523],[79.3015,10.26505],[79.30101,10.26485],[79.30062,10.26461],[79.30013,10.26426],[79.29989,10.26414],[79.29935,10.26386],[79.29899,10.26361],[79.29879,10.26338],[79.29848,10.26322],[79.2983,10.26308],[79.29809,10.26288],[79.29766,10.26246],[79.29755,10.26236],[79.29719,10.2621],[79.29699,10.26197],[79.29675,10.26171],[79.29672,10.26172],[79.29667,10.26173],[79.29665,10.26173],[79.29619,10.26135],[79.29545,10.26082],[79.29509,10.26057],[79.29467,10.26023],[79.29379,10.25944],[79.29333,10.25897],[79.29282,10.25837],[79.29253,10.25803],[79.29209,10.25768],[79.29148,10.25721],[79.29117,10.25692],[79.2906,10.25614],[79.29028,10.25573],[79.29006,10.2555],[79.2897,10.25515],[79.28874,10.25425],[79.28838,10.25399],[79.28823,10.2539],[79.28813,10.25388],[79.288,10.25379],[79.2877,10.25355],[79.28728,10.25321],[79.28721,10.25315],[79.28701,10.25301],[79.28658,10.25261],[79.28646,10.2524],[79.28602,10.25179],[79.28584,10.25146],[79.28561,10.25088],[79.2855,10.25067],[79.28527,10.25049],[79.28499,10.25016],[79.28473,10.25002],[79.28437,10.24989],[79.28392,10.2497],[79.28352,10.24945],[79.28327,10.24932],[79.2826,10.24882],[79.28228,10.24852],[79.28184,10.24802],[79.2812,10.2475],[79.28117,10.24745],[79.28036,10.24661],[79.28003,10.24643],[79.27986,10.24634],[79.27968,10.24622],[79.2791,10.24572],[79.27883,10.24552],[79.27852,10.24524],[79.27824,10.24493],[79.27802,10.2447],[79.27771,10.24431],[79.27662,10.24325],[79.27633,10.24289],[79.27621,10.24269],[79.27587,10.24213],[79.27574,10.24203],[79.2753,10.24188],[79.27498,10.24172],[79.27475,10.24156],[79.27435,10.24124],[79.27389,10.24078],[79.27328,10.24019],[79.27319,10.24002],[79.27299,10.23958],[79.27281,10.23931],[79.27246,10.23897],[79.27203,10.23861],[79.27173,10.23833],[79.27152,10.23803],[79.27038,10.23629],[79.27014,10.2357],[79.27009,10.23544],[79.27003,10.23533],[79.26997,10.23528],[79.26971,10.23522],[79.26961,10.23512],[79.26936,10.23488],[79.26897,10.2344],[79.26876,10.23403],[79.26862,10.23353],[79.2682,10.23286],[79.26793,10.2324],[79.26767,10.23149],[79.2676,10.23091],[79.26774,10.2293],[79.26769,10.22833],[79.26784,10.22808],[79.26806,10.22777],[79.2686,10.22718],[79.26872,10.22684],[79.26913,10.2263],[79.26953,10.22598],[79.26981,10.22568],[79.27083,10.22475],[79.27144,10.22415],[79.27217,10.22376],[79.27424,10.22305],[79.27465,10.22286],[79.27561,10.22205],[79.27689,10.22105],[79.27821,10.22039],[79.27893,10.22006],[79.27926,10.22004],[79.27961,10.22014],[79.27978,10.22006],[79.27996,10.21968],[79.28016,10.21881],[79.28021,10.21842],[79.28026,10.21798],[79.28032,10.21781],[79.28044,10.21761],[79.2809,10.21742],[79.28101,10.21723],[79.28093,10.21683],[79.28093,10.21667],[79.28102,10.21624],[79.2812,10.21525],[79.2813,10.21397],[79.28122,10.21374],[79.28099,10.21344],[79.28059,10.21294],[79.28038,10.21278],[79.27976,10.21246],[79.27949,10.21226],[79.27886,10.21167],[79.27829,10.21108],[79.27806,10.21084],[79.27792,10.21081],[79.2775,10.2108],[79.27716,10.21059],[79.27627,10.20988],[79.27544,10.20923],[79.27406,10.20823],[79.27219,10.20703],[79.27174,10.20675],[79.27135,10.20656],[79.27116,10.20645],[79.27054,10.20581],[79.27023,10.20569],[79.2696,10.2056],[79.26945,10.20549],[79.26877,10.20457],[79.26824,10.20423],[79.26797,10.2039],[79.26782,10.20359],[79.26738,10.20266],[79.26678,10.20186],[79.26607,10.20106],[79.26586,10.20071],[79.26526,10.19933],[79.26477,10.19832],[79.26447,10.19772],[79.26434,10.19758],[79.26348,10.19696],[79.26315,10.19658],[79.26248,10.19584],[79.26224,10.19567],[79.26194,10.19547],[79.26168,10.19525],[79.26135,10.19494],[79.2606,10.19442],[79.25988,10.1939],[79.25951,10.19356],[79.25851,10.19262],[79.25762,10.19182],[79.25717,10.1914],[79.25691,10.19116],[79.25632,10.19077],[79.25566,10.19024],[79.25523,10.18985],[79.25457,10.18934],[79.25363,10.1887],[79.25304,10.18842],[79.25154,10.18781],[79.25053,10.18735],[79.25015,10.18718],[79.24998,10.18712],[79.24958,10.18706],[79.2492,10.18687],[79.24837,10.18662],[79.24793,10.1864],[79.24753,10.18631],[79.24702,10.18616],[79.24679,10.18603],[79.24537,10.18521],[79.24423,10.18457],[79.24353,10.1841],[79.24256,10.18325],[79.24227,10.18296],[79.24173,10.18213],[79.24148,10.18163],[79.24136,10.18126],[79.24108,10.1804],[79.24096,10.18016],[79.24069,10.1796],[79.2406,10.17933],[79.24063,10.17899],[79.24066,10.17868],[79.24124,10.17626],[79.24136,10.17568],[79.24144,10.17489],[79.24145,10.17456],[79.24152,10.17444],[79.24183,10.17422],[79.24187,10.174],[79.24181,10.17335],[79.24176,10.17327],[79.24166,10.17316],[79.24113,10.17294],[79.24087,10.1728],[79.24056,10.17251],[79.24016,10.17205],[79.24005,10.17193],[79.23978,10.17177],[79.23889,10.17125],[79.23833,10.17072],[79.23801,10.17029],[79.23792,10.16978],[79.23798,10.16926],[79.23812,10.16858],[79.23817,10.16809],[79.23826,10.16791],[79.23858,10.16765],[79.23869,10.16741],[79.23885,10.16645],[79.23903,10.16594],[79.23927,10.16563],[79.2397,10.16489],[79.24007,10.16461],[79.24062,10.16424],[79.24088,10.1639],[79.24096,10.16364],[79.24091,10.16272],[79.24078,10.16225],[79.24068,10.16178],[79.24053,10.15957],[79.24037,10.15847],[79.24035,10.15772],[79.24029,10.15723],[79.24014,10.15631],[79.24014,10.15576],[79.24022,10.15534],[79.24033,10.15515],[79.24067,10.15487],[79.24073,10.15471],[79.24069,10.15433],[79.24063,10.15409],[79.2404,10.15385],[79.2398,10.15363],[79.23959,10.15332],[79.2395,10.15312],[79.23944,10.15308],[79.23933,10.15306],[79.23928,10.15308],[79.23922,10.15314],[79.23915,10.15318],[79.23899,10.15318],[79.23864,10.15315],[79.23844,10.15314],[79.23829,10.15308],[79.23816,10.15298],[79.23809,10.15287],[79.23766,10.15264],[79.23657,10.15228],[79.23571,10.15219],[79.2355,10.15213],[79.23521,10.15196],[79.2344,10.15152],[79.23201,10.15057],[79.2316,10.15041],[79.23091,10.15005],[79.23062,10.14974],[79.23024,10.14944],[79.23016,10.14933],[79.2302,10.14921],[79.23035,10.14906],[79.23084,10.14855],[79.23085,10.14838],[79.23079,10.14798],[79.23049,10.1471],[79.23022,10.14679],[79.23001,10.14662],[79.2296,10.14582],[79.22909,10.14477],[79.22908,10.14457],[79.22917,10.14415],[79.22929,10.14371],[79.22945,10.14342],[79.22965,10.14339],[79.22991,10.14343],[79.23024,10.14346],[79.23032,10.14337],[79.23036,10.14317],[79.2303,10.14289],[79.23029,10.14274],[79.23039,10.14257],[79.23054,10.14247],[79.23069,10.14214],[79.23067,10.14188],[79.23057,10.14157],[79.22999,10.14104],[79.22991,10.14089],[79.22991,10.14066],[79.23,10.14048],[79.2303,10.14026],[79.23056,10.13997],[79.23064,10.13972],[79.23066,10.13937],[79.23064,10.1392],[79.23036,10.13877],[79.2301,10.13846],[79.22973,10.13823],[79.22907,10.13797],[79.2289,10.13784],[79.22879,10.13758],[79.22867,10.13708],[79.22869,10.13641],[79.2289,10.1356],[79.229,10.13511],[79.22914,10.13443],[79.22961,10.13355],[79.23155,10.13387],[79.23206,10.1336],[79.23216,10.13325],[79.23194,10.13288],[79.23108,10.13223],[79.22995,10.13141],[79.22939,10.13098],[79.22954,10.13061],[79.23066,10.13158],[79.23194,10.13248],[79.2323,10.13286],[79.23234,10.13274],[79.23185,10.13223],[79.23092,10.13159],[79.23,10.1309],[79.22976,10.13053],[79.23023,10.13066],[79.23059,10.13071],[79.23104,10.13075],[79.23171,10.13041],[79.23231,10.12983],[79.23282,10.12956],[79.23358,10.12932],[79.23438,10.12916],[79.23515,10.1291],[79.23579,10.12909],[79.23639,10.1289],[79.23675,10.1287],[79.23702,10.12847],[79.23716,10.12825],[79.23719,10.12799],[79.23709,10.12766],[79.23693,10.12748],[79.23666,10.12733],[79.23535,10.12676],[79.23446,10.12629],[79.23413,10.12606],[79.2337,10.12546],[79.23349,10.12528],[79.23295,10.12492],[79.23264,10.12474],[79.23232,10.12443],[79.23204,10.12414],[79.23195,10.12394],[79.23182,10.12349],[79.23168,10.12279],[79.23167,10.12227],[79.23166,10.1221],[79.23159,10.12181],[79.23141,10.12126],[79.23122,10.1203],[79.23112,10.11941],[79.23105,10.11899],[79.23097,10.11881],[79.23065,10.11823],[79.23058,10.11801],[79.23056,10.11772],[79.23052,10.11716],[79.23046,10.1171],[79.23024,10.11703],[79.22996,10.11678],[79.22969,10.1163],[79.22839,10.11329],[79.22784,10.11113],[79.22785,10.11015],[79.22808,10.10926],[79.22814,10.1091],[79.22887,10.10753],[79.22903,10.10721],[79.22907,10.10703],[79.22908,10.10674],[79.22916,10.10626],[79.22922,10.10569],[79.22932,10.10474],[79.22934,10.10448],[79.22928,10.10415],[79.22872,10.10301],[79.22862,10.10288],[79.22851,10.10279],[79.22799,10.10262],[79.22735,10.10213],[79.22659,10.10109],[79.22649,10.10077],[79.22644,10.10039],[79.22649,10.09989],[79.22646,10.09964],[79.22644,10.0992],[79.22647,10.09898],[79.22657,10.09875],[79.22665,10.09844],[79.22672,10.09794],[79.22685,10.09744],[79.22704,10.09679],[79.22729,10.09624],[79.22771,10.09564],[79.22776,10.09554],[79.22777,10.09542],[79.22777,10.09532],[79.22773,10.09515],[79.22775,10.095],[79.22802,10.09445],[79.22817,10.09399],[79.22829,10.0933],[79.22836,10.09302],[79.22853,10.09256],[79.22858,10.09245],[79.22868,10.09212],[79.22878,10.09148],[79.22888,10.09091],[79.22899,10.09059],[79.22914,10.09038],[79.22926,10.09026],[79.22929,10.09017],[79.22928,10.09003],[79.22925,10.08987],[79.22929,10.08968],[79.22943,10.08889],[79.2295,10.08867],[79.22966,10.08826],[79.22987,10.08784],[79.22991,10.08772],[79.22994,10.08738],[79.22995,10.08731],[79.23007,10.08713],[79.23026,10.08695],[79.23039,10.08679],[79.23068,10.08618],[79.23075,10.08606],[79.23094,10.08586],[79.23101,10.08579],[79.23133,10.08514],[79.23144,10.08494],[79.23158,10.08483],[79.23162,10.08475],[79.23168,10.08439],[79.23171,10.0843],[79.23181,10.08409],[79.23198,10.08385],[79.23218,10.0836],[79.2324,10.08315],[79.23273,10.0824],[79.2331,10.08151],[79.2334,10.08077],[79.23356,10.08011],[79.23371,10.0796],[79.23387,10.07923],[79.23436,10.07808],[79.23439,10.07801],[79.23476,10.07732],[79.23478,10.07727],[79.23494,10.07691],[79.23553,10.07603],[79.23568,10.07577],[79.23583,10.07544],[79.23663,10.07439],[79.23706,10.07403],[79.23741,10.07375],[79.23759,10.0737],[79.23797,10.07361],[79.23859,10.07386],[79.2388,10.07382],[79.23911,10.07333],[79.23951,10.07292],[79.23966,10.07285],[79.23984,10.07291],[79.24027,10.07318],[79.24078,10.0736],[79.24158,10.07383],[79.24194,10.07386],[79.24251,10.07375],[79.24395,10.07334],[79.24482,10.07269],[79.24953,10.06878],[79.2509,10.06738],[79.25266,10.06549],[79.25318,10.06445],[79.25414,10.06243],[79.25426,10.06083],[79.25364,10.05634],[79.25312,10.05373],[79.25301,10.05234],[79.25301,10.04941],[79.25462,10.04696],[79.25516,10.04633],[79.25728,10.04411],[79.25836,10.04334],[79.25966,10.0426],[79.26158,10.04119],[79.26245,10.04067],[79.26333,10.04026],[79.26463,10.03929],[79.26636,10.03844],[79.26659,10.03828],[79.26662,10.03818],[79.26659,10.03806],[79.2665,10.03798],[79.26606,10.03784],[79.26518,10.03773],[79.26428,10.03735],[79.26344,10.03695],[79.26244,10.0366],[79.26234,10.03655],[79.26063,10.03582],[79.2591,10.03521],[79.25859,10.03498],[79.25814,10.03456],[79.25746,10.03408],[79.25673,10.03371],[79.25469,10.03277],[79.25394,10.03237],[79.25274,10.03173],[79.25156,10.031],[79.25041,10.03017],[79.24956,10.02969],[79.24857,10.02917],[79.2473,10.02838],[79.24704,10.02829],[79.24437,10.02634],[79.24324,10.02553],[79.24227,10.02465],[79.24141,10.02375],[79.24072,10.0228],[79.24068,10.0227],[79.24063,10.0226],[79.24057,10.02252],[79.24044,10.02225],[79.24033,10.02207],[79.24027,10.02194],[79.24022,10.02173],[79.24012,10.02135],[79.24,10.02109],[79.24006,10.02089],[79.24005,10.0208],[79.23979,10.02045],[79.23945,10.02021],[79.23911,10.02005],[79.23893,10.01997],[79.23862,10.01985],[79.23837,10.01979],[79.23819,10.01964],[79.23808,10.01951],[79.23802,10.01948],[79.23793,10.01946],[79.2377,10.0193],[79.2376,10.01923],[79.23751,10.01918],[79.23742,10.01916],[79.23726,10.01906],[79.23718,10.01899],[79.23714,10.01894],[79.23707,10.01892],[79.23702,10.0189],[79.23693,10.01883],[79.23682,10.01871],[79.23608,10.01802],[79.23501,10.01684],[79.23458,10.01646],[79.23285,10.01465],[79.23256,10.01433]]},"properties":{"name":"Palk Bay Dugong Conservation Reserve (approximate coastal extent)","species":"Dugong dugon","source":"curated (OpenStreetMap anchors + cited descriptions)","source_id":"curated_dugong","geometry_quality":"approximate_line","citation":"Government of Tamil Nadu, DIPR press release P.R. No. 1645, 21.09.2022: G.O.(Ms) No.165 notifies a 448 sq km Dugong Conservation Reserve in Palk Bay covering the coastal waters of Thanjavur and Pudukkottai districts (https://dugong.cms.int/sites/default/files/2022-09-21%20PalkBay%20Dugong%20Reserve-Govt.%20Press%20Release.pdf); Mongabay India (Sept 2025), 'Dugongs recovering, need cross-border efforts in conservation': fishing hamlets 'along the Adirampattinam-Ammapattinam coastline bordering the reserve' (https://india.mongabay.com/2025/09/dugongs-recovering-need-cross-border-efforts-in-conservation/)","construction":"land-mask coastline between OSM node/6063789112 (Adirampattinam) and node/1685811083 (Ammapattinam). This is the shore the reserve borders, NOT its seaward boundary, which is not public in machine-readable form; a net inside the reserve but far from this shore is not detected by it."}}]}