{"type":"FeatureCollection","ghosttrace":{"layer":"harbour_osm_odisha_coast","kind":"harbour","source_id":"osm_harbours","regions":["odisha_coast"],"restricted":false,"written":"2026-09-13T13:17:07+00:00"},"features":[{"type":"Feature","geometry":{"type":"Point","coordinates":[86.7054495,20.2893471]},"properties":{"name":"Fishing Port","fishing":true,"category":"marina","osm_id":"way/594300559","source":"OpenStreetMap","source_id":"osm_harbours","geometry_quality":"approximate","note":"centre of the OSM way/relation"}},{"type":"Feature","geometry":{"type":"Point","coordinates":[84.9551063,19.299264]},"properties":{"name":"Gopalpur Port","fishing":false,"category":"port","osm_id":"way/684512907","source":"OpenStreetMap","source_id":"osm_harbours","geometry_quality":"approximate","note":"centre of the OSM way/relation"}},{"type":"Feature","geometry":{"type":"Point","coordinates":[85.2164569,19.6654052]},"properties":{"name":"Secondary Deck","fishing":false,"category":"pier","osm_id":"way/718481089","source":"OpenStreetMap","source_id":"osm_harbours","geometry_quality":"approximate","note":"centre of the OSM way/relation"}},{"type":"Feature","geometry":{"type":"Point","coordinates":[85.0966542,19.5140391]},"properties":{"name":"OPDC Dockyad (Pantha Nivas)","fishing":false,"category":"pier","osm_id":"way/723528253","source":"OpenStreetMap","source_id":"osm_harbours","geometry_quality":"approximate","note":"centre of the OSM way/relation"}},{"type":"Feature","geometry":{"type":"Point","coordinates":[84.9648379,19.307569]},"properties":{"name":"Aryapalli South-Local Harbor","fishing":false,"category":"harbour","osm_id":"way/1033783850","source":"OpenStreetMap","source_id":"osm_harbours","geometry_quality":"approximate","note":"centre of the OSM way/relation"}},{"type":"Feature","geometry":{"type":"Point","coordinates":[84.9634636,19.309371]},"properties":{"name":"Aryapalli Northern-GPL Harbor","fishing":false,"category":"harbour","osm_id":"way/1033783851","source":"OpenStreetMap","source_id":"osm_harbours","geometry_quality":"approximate","note":"centre of the OSM way/relation"}}]}