{"type":"FeatureCollection","ghosttrace":{"layer":"harbour_osm_gulf_of_mannar_palk_bay","kind":"harbour","source_id":"osm_harbours","regions":["gulf_of_mannar_palk_bay"],"restricted":false,"written":"2026-09-13T13:15:16+00:00"},"features":[{"type":"Feature","geometry":{"type":"Point","coordinates":[78.7858616,9.2275892]},"properties":{"name":null,"fishing":false,"category":"marina","osm_id":"node/1769189560","source":"OpenStreetMap","source_id":"osm_harbours","geometry_quality":"point","note":null}},{"type":"Feature","geometry":{"type":"Point","coordinates":[79.7167352,9.5282343]},"properties":{"name":"Maveliturai Jetty","fishing":false,"category":"ferry_terminal","osm_id":"node/2138513353","source":"OpenStreetMap","source_id":"osm_harbours","geometry_quality":"point","note":null}},{"type":"Feature","geometry":{"type":"Point","coordinates":[79.8076527,9.6162042]},"properties":{"name":"Iruppiddy Jetty","fishing":false,"category":"marina","osm_id":"node/4034893256","source":"OpenStreetMap","source_id":"osm_harbours","geometry_quality":"point","note":null}},{"type":"Feature","geometry":{"type":"Point","coordinates":[79.8061166,9.6002516]},"properties":{"name":"Puliyadi Jetty","fishing":false,"category":"marina","osm_id":"node/4073733114","source":"OpenStreetMap","source_id":"osm_harbours","geometry_quality":"point","note":null}},{"type":"Feature","geometry":{"type":"Point","coordinates":[80.2316129,9.5323874]},"properties":{"name":"Nagthevanthurai Jetty","fishing":false,"category":"pier","osm_id":"node/4444859060","source":"OpenStreetMap","source_id":"osm_harbours","geometry_quality":"point","note":null}},{"type":"Feature","geometry":{"type":"Point","coordinates":[80.0955658,9.5901304]},"properties":{"name":"Mannithalai Jetty","fishing":false,"category":"pier","osm_id":"node/4444899122","source":"OpenStreetMap","source_id":"osm_harbours","geometry_quality":"point","note":null}},{"type":"Feature","geometry":{"type":"Point","coordinates":[80.000988,9.6036538]},"properties":{"name":"Mandaitivu Fishing Jetty","fishing":true,"category":"pier","osm_id":"node/4486679710","source":"OpenStreetMap","source_id":"osm_harbours","geometry_quality":"point","note":null}},{"type":"Feature","geometry":{"type":"Point","coordinates":[80.0186686,9.6488718]},"properties":{"name":null,"fishing":false,"category":"marina","osm_id":"node/4860206171","source":"OpenStreetMap","source_id":"osm_harbours","geometry_quality":"point","note":null}},{"type":"Feature","geometry":{"type":"Point","coordinates":[80.0457971,9.6487175]},"properties":{"name":null,"fishing":false,"category":"marina","osm_id":"node/4860206624","source":"OpenStreetMap","source_id":"osm_harbours","geometry_quality":"point","note":null}},{"type":"Feature","geometry":{"type":"Point","coordinates":[80.0531118,9.6468397]},"properties":{"name":null,"fishing":false,"category":"marina","osm_id":"node/4860206749","source":"OpenStreetMap","source_id":"osm_harbours","geometry_quality":"point","note":null}},{"type":"Feature","geometry":{"type":"Point","coordinates":[78.2263899,8.7490262]},"properties":{"name":"V.O.Chidambaranar Port (Port of Tuticorin)","fishing":false,"category":"bulk;container;cargo;passenger;tanker","osm_id":"node/5315518550","source":"OpenStreetMap","source_id":"osm_harbours","geometry_quality":"point","note":null}},{"type":"Feature","geometry":{"type":"Point","coordinates":[80.0369874,9.8159319]},"properties":{"name":"kangesanthurai international harbour","fishing":false,"category":"marina_no_facilities","osm_id":"node/11913172341","source":"OpenStreetMap","source_id":"osm_harbours","geometry_quality":"point","note":null}},{"type":"Feature","geometry":{"type":"Point","coordinates":[79.7302823,9.1086924]},"properties":{"name":"Thalaimannar Pier","fishing":false,"category":"pier","osm_id":"way/128806486","source":"OpenStreetMap","source_id":"osm_harbours","geometry_quality":"approximate","note":"centre of the OSM way/relation"}},{"type":"Feature","geometry":{"type":"Point","coordinates":[80.2312371,9.531148]},"properties":{"name":"Jetty","fishing":false,"category":"pier","osm_id":"way/360562891","source":"OpenStreetMap","source_id":"osm_harbours","geometry_quality":"approximate","note":"centre of the OSM way/relation"}},{"type":"Feature","geometry":{"type":"Point","coordinates":[79.8236796,10.2748866]},"properties":{"name":"Kodikkarai","fishing":false,"category":"pier","osm_id":"way/387629695","source":"OpenStreetMap","source_id":"osm_harbours","geometry_quality":"approximate","note":"centre of the OSM way/relation"}},{"type":"Feature","geometry":{"type":"Point","coordinates":[80.1161555,9.2367279]},"properties":{"name":"Fishing Jetty","fishing":true,"category":"pier","osm_id":"way/469643284","source":"OpenStreetMap","source_id":"osm_harbours","geometry_quality":"approximate","note":"centre of the OSM way/relation"}},{"type":"Feature","geometry":{"type":"Point","coordinates":[80.1128772,9.309294]},"properties":{"name":"Jetty","fishing":false,"category":"pier","osm_id":"way/479193673","source":"OpenStreetMap","source_id":"osm_harbours","geometry_quality":"approximate","note":"centre of the OSM way/relation"}},{"type":"Feature","geometry":{"type":"Point","coordinates":[80.0460576,9.6495121]},"properties":{"name":"Columbuthurai Jetty","fishing":false,"category":"pier","osm_id":"way/494233370","source":"OpenStreetMap","source_id":"osm_harbours","geometry_quality":"approximate","note":"centre of the OSM way/relation"}},{"type":"Feature","geometry":{"type":"Point","coordinates":[79.95885,8.7280842]},"properties":{"name":null,"fishing":false,"category":"harbour","osm_id":"way/515252360","source":"OpenStreetMap","source_id":"osm_harbours","geometry_quality":"approximate","note":"centre of the OSM way/relation"}},{"type":"Feature","geometry":{"type":"Point","coordinates":[79.2034345,9.9806545]},"properties":{"name":"Kottaippattinam Fishing Port","fishing":true,"category":"pier","osm_id":"way/536617391","source":"OpenStreetMap","source_id":"osm_harbours","geometry_quality":"approximate","note":"centre of the OSM way/relation"}},{"type":"Feature","geometry":{"type":"Point","coordinates":[80.0000591,9.6768927]},"properties":{"name":"Navanthurai Jetty","fishing":false,"category":null,"osm_id":"way/571563915","source":"OpenStreetMap","source_id":"osm_harbours","geometry_quality":"approximate","note":"centre of the OSM way/relation"}},{"type":"Feature","geometry":{"type":"Point","coordinates":[78.2119323,8.7496553]},"properties":{"name":null,"fishing":false,"category":"port","osm_id":"way/577750403","source":"OpenStreetMap","source_id":"osm_harbours","geometry_quality":"approximate","note":"centre of the OSM way/relation"}},{"type":"Feature","geometry":{"type":"Point","coordinates":[78.9945379,9.7081164]},"properties":{"name":"MV Pattinam Pier","fishing":false,"category":"pier","osm_id":"way/624959155","source":"OpenStreetMap","source_id":"osm_harbours","geometry_quality":"approximate","note":"centre of the OSM way/relation"}},{"type":"Feature","geometry":{"type":"Point","coordinates":[79.5272824,10.3829765]},"properties":{"name":null,"fishing":false,"category":"harbour","osm_id":"way/653746973","source":"OpenStreetMap","source_id":"osm_harbours","geometry_quality":"approximate","note":"centre of the OSM way/relation"}},{"type":"Feature","geometry":{"type":"Point","coordinates":[79.3160846,9.281145]},"properties":{"name":"Rameswaram Fishing Harbour and Boat Jetty","fishing":true,"category":"pier","osm_id":"way/663938610","source":"OpenStreetMap","source_id":"osm_harbours","geometry_quality":"approximate","note":"centre of the OSM way/relation"}},{"type":"Feature","geometry":{"type":"Point","coordinates":[80.052009,9.5993353]},"properties":{"name":"Gowtharimunai jetty","fishing":false,"category":"pier","osm_id":"way/681780659","source":"OpenStreetMap","source_id":"osm_harbours","geometry_quality":"approximate","note":"centre of the OSM way/relation"}},{"type":"Feature","geometry":{"type":"Point","coordinates":[80.0048775,9.6232044]},"properties":{"name":null,"fishing":false,"category":"yes","osm_id":"way/872193945","source":"OpenStreetMap","source_id":"osm_harbours","geometry_quality":"approximate","note":"centre of the OSM way/relation"}},{"type":"Feature","geometry":{"type":"Point","coordinates":[79.8065074,9.6006772]},"properties":{"name":"Puliyadi Jetty","fishing":false,"category":"pier","osm_id":"way/948621806","source":"OpenStreetMap","source_id":"osm_harbours","geometry_quality":"approximate","note":"centre of the OSM way/relation"}},{"type":"Feature","geometry":{"type":"Point","coordinates":[80.0715721,9.8119879]},"properties":{"name":"Fishery Harbour Myliddy","fishing":true,"category":"yes","osm_id":"way/1019081686","source":"OpenStreetMap","source_id":"osm_harbours","geometry_quality":"approximate","note":"centre of the OSM way/relation"}},{"type":"Feature","geometry":{"type":"Point","coordinates":[78.096299,8.4234518]},"properties":{"name":"Udangudi Pier","fishing":false,"category":"pier","osm_id":"way/1208274329","source":"OpenStreetMap","source_id":"osm_harbours","geometry_quality":"approximate","note":"centre of the OSM way/relation"}},{"type":"Feature","geometry":{"type":"Point","coordinates":[80.0323571,9.8168282]},"properties":{"name":"காங்கேசன்துறை கடற்படை துறை -  தமிழீழம்","fishing":false,"category":"harbour","osm_id":"way/1212814687","source":"OpenStreetMap","source_id":"osm_harbours","geometry_quality":"approximate","note":"centre of the OSM way/relation"}},{"type":"Feature","geometry":{"type":"Point","coordinates":[80.031504,9.820779]},"properties":{"name":null,"fishing":false,"category":"harbour","osm_id":"way/1212814692","source":"OpenStreetMap","source_id":"osm_harbours","geometry_quality":"approximate","note":"centre of the OSM way/relation"}},{"type":"Feature","geometry":{"type":"Point","coordinates":[78.1008965,8.4633631]},"properties":{"name":"Aalanthalai Harbour","fishing":false,"category":"marina","osm_id":"way/1303771352","source":"OpenStreetMap","source_id":"osm_harbours","geometry_quality":"approximate","note":"centre of the OSM way/relation"}},{"type":"Feature","geometry":{"type":"Point","coordinates":[78.9143701,9.5058292]},"properties":{"name":"Muthuregunathapuram Harbour","fishing":false,"category":"marina","osm_id":"way/1304241686","source":"OpenStreetMap","source_id":"osm_harbours","geometry_quality":"approximate","note":"centre of the OSM way/relation"}},{"type":"Feature","geometry":{"type":"Point","coordinates":[79.8629337,8.4749049]},"properties":{"name":"Palugahathurei Fishing Village","fishing":true,"category":"fishing","osm_id":"way/1413326164","source":"OpenStreetMap","source_id":"osm_harbours","geometry_quality":"approximate","note":"centre of the OSM way/relation"}},{"type":"Feature","geometry":{"type":"Point","coordinates":[78.1607945,8.80044]},"properties":{"name":null,"fishing":false,"category":"port","osm_id":"relation/11278577","source":"OpenStreetMap","source_id":"osm_harbours","geometry_quality":"approximate","note":"centre of the OSM way/relation"}},{"type":"Feature","geometry":{"type":"Point","coordinates":[78.1602869,8.7946391]},"properties":{"name":"Thoothukudi Fishing Harbour","fishing":true,"category":"port","osm_id":"relation/11278578","source":"OpenStreetMap","source_id":"osm_harbours","geometry_quality":"approximate","note":"centre of the OSM way/relation"}},{"type":"Feature","geometry":{"type":"Point","coordinates":[80.0315715,9.8238172]},"properties":{"name":"Kankesanthurai ferry","fishing":false,"category":"harbour","osm_id":"relation/16417306","source":"OpenStreetMap","source_id":"osm_harbours","geometry_quality":"approximate","note":"centre of the OSM way/relation"}}]}