{"type":"FeatureCollection","ghosttrace":{"layer":"protected_osm_gulf_of_mannar_palk_bay","kind":"protected_area","source_id":"osm_protected","regions":["gulf_of_mannar_palk_bay"],"restricted":false,"written":"2026-09-13T13:17:49+00:00"},"features":[{"type":"Feature","geometry":{"type":"Polygon","coordinates":[[[79.8506,10.33465],[79.85253,10.33484],[79.85657,10.33515],[79.86014,10.33539],[79.86398,10.33562],[79.86438,10.33529],[79.86454,10.33422],[79.86501,10.3317],[79.86547,10.32935],[79.86769,10.31994],[79.86962,10.30778],[79.87112,10.29879],[79.87421,10.29866],[79.87488,10.29674],[79.87387,10.29461],[79.87215,10.29222],[79.86998,10.2888],[79.86617,10.28713],[79.8614,10.28486],[79.85649,10.28222],[79.85151,10.28],[79.84413,10.27797],[79.83387,10.27671],[79.83398,10.27911],[79.83359,10.28171],[79.8333,10.28242],[79.83276,10.28336],[79.83102,10.2854],[79.83037,10.28539],[79.82969,10.28636],[79.82914,10.28712],[79.82954,10.28748],[79.83081,10.28839],[79.83069,10.289],[79.83372,10.29053],[79.83437,10.29159],[79.8351,10.29259],[79.83481,10.29333],[79.83479,10.2936],[79.83506,10.29456],[79.83508,10.29526],[79.83389,10.29578],[79.83284,10.29644],[79.83217,10.29749],[79.83187,10.29846],[79.83335,10.30246],[79.83173,10.30474],[79.83273,10.30555],[79.83362,10.307],[79.83376,10.30781],[79.83418,10.309],[79.83526,10.31133],[79.83537,10.31174],[79.8357,10.31362],[79.83596,10.31412],[79.8367,10.3153],[79.83701,10.31628],[79.83723,10.31666],[79.8376,10.31733],[79.8376,10.3176],[79.83754,10.31828],[79.83766,10.31977],[79.83788,10.32042],[79.8384,10.32157],[79.83881,10.32297],[79.83907,10.32409],[79.83967,10.32566],[79.83833,10.32716],[79.839,10.32927],[79.84001,10.33073],[79.84132,10.33149],[79.8429,10.33155],[79.84348,10.33291],[79.84486,10.33415],[79.8451,10.33458],[79.8506,10.33465]]]},"properties":{"name":"Point Calimere WLS","designation":"protected_area","protect_class":"4","osm_id":"way/671269863","osm_url":"https://www.openstreetmap.org/way/671269863","source":"OpenStreetMap","source_id":"osm_protected","geometry_quality":"mapped_polygon","marine_or_coastal_basis":"within ~1 km of the coastline"}},{"type":"Feature","geometry":{"type":"MultiPolygon","coordinates":[[[[78.24166,8.81667],[78.19168,8.81665],[78.22407,8.94485],[78.26256,8.9749],[78.30834,8.92501],[78.24166,8.81667]]],[[[78.46319,9.10617],[78.58147,9.12418],[78.60555,9.0898],[78.4716,9.05731],[78.46319,9.10617]],[[78.53636,9.1023],[78.53671,9.10245],[78.53799,9.10307],[78.5381,9.10321],[78.53843,9.10404],[78.53844,9.1043],[78.53856,9.10459],[78.5387,9.10473],[78.53898,9.1049],[78.53918,9.10528],[78.53918,9.1054],[78.53917,9.10556],[78.53907,9.10568],[78.53895,9.10573],[78.53877,9.10579],[78.53855,9.10582],[78.5383,9.1058],[78.53804,9.10561],[78.53792,9.10545],[78.53785,9.10508],[78.53759,9.1047],[78.53736,9.10449],[78.53717,9.10437],[78.53684,9.10427],[78.5365,9.10416],[78.53615,9.10396],[78.53582,9.10369],[78.53547,9.10342],[78.53528,9.10319],[78.53513,9.10301],[78.53499,9.10278],[78.53497,9.1026],[78.53504,9.10236],[78.53518,9.10222],[78.53544,9.10216],[78.53603,9.10225],[78.53636,9.1023]]],[[[78.99721,9.17407],[78.88355,9.1665],[78.86536,9.15566],[78.75893,9.11701],[78.68504,9.116],[78.67829,9.16373],[78.86089,9.19531],[78.89454,9.21531],[78.99876,9.22007],[78.99721,9.17407]]],[[[79.04114,9.17633],[79.03873,9.21836],[79.09332,9.23157],[79.17469,9.21903],[79.18053,9.19057],[79.04114,9.17633]]],[[[79.24147,9.23881],[79.17812,9.21005],[79.17113,9.25394],[79.18808,9.25648],[79.20525,9.25529],[79.21645,9.25148],[79.24147,9.24979],[79.24147,9.23881]]]]},"properties":{"name":"Gulf of Mannar Marine National Park","designation":"national_park","protect_class":"2","osm_id":"relation/415570","osm_url":"https://www.openstreetmap.org/relation/415570","source":"OpenStreetMap","source_id":"osm_protected","geometry_quality":"mapped_polygon","marine_or_coastal_basis":"polygon extends beyond the land mask"}},{"type":"Feature","geometry":{"type":"Polygon","coordinates":[[[80.23536,8.68016],[80.23534,8.6801],[80.23533,8.68003],[80.23534,8.67998],[80.23536,8.67993],[80.23543,8.67986],[80.23548,8.6798],[80.2355,8.67974],[80.2355,8.67968],[80.23548,8.67962],[80.23547,8.67957],[80.23547,8.67951],[80.2355,8.67945],[80.23563,8.67903],[80.23587,8.67816],[80.2361,8.67758],[80.23659,8.67679],[80.237,8.67582],[80.23704,8.67488],[80.23661,8.67391],[80.23584,8.67315],[80.23572,8.67196],[80.23673,8.67087],[80.23731,8.67034],[80.23753,8.66966],[80.23734,8.66909],[80.23685,8.66848],[80.23584,8.66831],[80.23549,8.66793],[80.23557,8.66729],[80.23626,8.66681],[80.23766,8.66615],[80.23828,8.66512],[80.2383,8.66395],[80.23855,8.66342],[80.23855,8.66286],[80.23838,8.66178],[80.2382,8.66094],[80.23747,8.66027],[80.23639,8.66011],[80.23564,8.65997],[80.23515,8.65949],[80.2348,8.65865],[80.23478,8.65737],[80.23485,8.65583],[80.23463,8.65536],[80.23404,8.65488],[80.23345,8.65402],[80.2331,8.6533],[80.233,8.65248],[80.23423,8.65068],[80.23549,8.64848],[80.23596,8.64734],[80.23684,8.6455],[80.23737,8.64446],[80.23748,8.64418],[80.23765,8.64373],[80.2378,8.64298],[80.23789,8.64222],[80.23775,8.64137],[80.2372,8.64041],[80.23792,8.63948],[80.23807,8.63851],[80.23873,8.63736],[80.23883,8.63697],[80.2384,8.63667],[80.23787,8.6362],[80.23765,8.63614],[80.23733,8.63568],[80.23708,8.63504],[80.23652,8.63272],[80.23628,8.63136],[80.23613,8.63111],[80.23622,8.6308],[80.23571,8.63052],[80.23562,8.6299],[80.236,8.62892],[80.23618,8.62866],[80.23767,8.62841],[80.23865,8.62841],[80.24015,8.62879],[80.24059,8.62875],[80.24087,8.62829],[80.24089,8.62777],[80.24075,8.62635],[80.24091,8.62603],[80.24117,8.62567],[80.24224,8.6251],[80.24281,8.62485],[80.24318,8.62444],[80.24437,8.6226],[80.24534,8.62182],[80.24565,8.62098],[80.24544,8.62025],[80.2449,8.61939],[80.24492,8.61911],[80.24557,8.6181],[80.24737,8.61701],[80.24851,8.61601],[80.24991,8.61501],[80.25108,8.61476],[80.25207,8.61441],[80.25261,8.61426],[80.25295,8.61423],[80.25262,8.61402],[80.25133,8.61267],[80.24899,8.61367],[80.24682,8.61192],[80.24604,8.61039],[80.24441,8.60996],[80.24374,8.61055],[80.24284,8.61048],[80.24207,8.60945],[80.24106,8.60703],[80.23989,8.60812],[80.23717,8.60724],[80.23644,8.60367],[80.2369,8.60172],[80.23552,8.6012],[80.23312,8.59957],[80.23187,8.59876],[80.23013,8.59895],[80.22854,8.60002],[80.22866,8.59773],[80.22919,8.59583],[80.2308,8.59512],[80.23101,8.59468],[80.23009,8.59292],[80.22915,8.59101],[80.22935,8.58947],[80.22792,8.58487],[80.22748,8.58415],[80.22664,8.58351],[80.2256,8.58345],[80.22421,8.5832],[80.22303,8.58278],[80.2216,8.58209],[80.22079,8.58169],[80.22052,8.58154],[80.22008,8.58081],[80.22052,8.58059],[80.22128,8.58043],[80.222,8.58007],[80.22269,8.57956],[80.2231,8.57926],[80.2234,8.57923],[80.22446,8.57974],[80.22521,8.57994],[80.2276,8.57926],[80.22924,8.57826],[80.22976,8.57756],[80.23004,8.57657],[80.23002,8.57609],[80.23011,8.57581],[80.23028,8.5745],[80.23041,8.57298],[80.23081,8.57256],[80.23231,8.57246],[80.23244,8.57235],[80.23261,8.57224],[80.23268,8.57206],[80.2327,8.57181],[80.23274,8.57169],[80.2329,8.57162],[80.23365,8.57145],[80.23388,8.57127],[80.23394,8.57116],[80.23413,8.57114],[80.2346,8.57116],[80.23493,8.57106],[80.23514,8.57084],[80.23583,8.56968],[80.2363,8.56874],[80.23635,8.56863],[80.23651,8.56853],[80.23694,8.5682],[80.23828,8.56726],[80.239,8.56649],[80.23966,8.56565],[80.23949,8.56391],[80.24016,8.56339],[80.24067,8.56281],[80.24067,8.56242],[80.2406,8.56221],[80.24045,8.56192],[80.24024,8.56167],[80.24018,8.56149],[80.24029,8.56119],[80.24026,8.56095],[80.23996,8.56033],[80.23978,8.55998],[80.23963,8.5595],[80.23976,8.55908],[80.23995,8.55866],[80.24094,8.55834],[80.24138,8.55823],[80.24212,8.55763],[80.24256,8.55733],[80.24267,8.55714],[80.24247,8.55576],[80.24218,8.55443],[80.24159,8.55348],[80.24091,8.55241],[80.239,8.55035],[80.23806,8.54913],[80.23735,8.54856],[80.23549,8.54877],[80.23299,8.54917],[80.23133,8.54891],[80.23102,8.54743],[80.23248,8.54482],[80.23243,8.54313],[80.23108,8.54188],[80.229,8.5412],[80.22899,8.54004],[80.23038,8.53778],[80.23233,8.5376],[80.23356,8.53732],[80.23398,8.53697],[80.23422,8.53671],[80.23431,8.53613],[80.23435,8.53478],[80.23453,8.53267],[80.23447,8.53166],[80.23415,8.5303],[80.23352,8.52819],[80.23385,8.52774],[80.23373,8.52738],[80.23374,8.52703],[80.23369,8.52675],[80.23352,8.52657],[80.23303,8.52624],[80.23291,8.52579],[80.23322,8.52477],[80.23321,8.52444],[80.23241,8.52339],[80.23166,8.52279],[80.23062,8.52012],[80.22988,8.51746],[80.22921,8.51535],[80.22625,8.51401],[80.22509,8.51314],[80.22339,8.51172],[80.22131,8.51051],[80.2202,8.51063],[80.21771,8.512],[80.21474,8.51251],[80.21271,8.51268],[80.21211,8.513],[80.21058,8.51331],[80.20708,8.514],[80.20436,8.5136],[80.20384,8.51362],[80.20321,8.51365],[80.20279,8.51389],[80.20263,8.51423],[80.20271,8.51507],[80.20276,8.51604],[80.20266,8.51703],[80.20224,8.51777],[80.20154,8.51824],[80.20101,8.51883],[80.20036,8.5191],[80.19977,8.51914],[80.1993,8.51892],[80.19911,8.51857],[80.19899,8.5181],[80.19882,8.51757],[80.19851,8.51682],[80.19816,8.51563],[80.19779,8.51458],[80.19731,8.51387],[80.19675,8.51354],[80.19617,8.51337],[80.19539,8.51335],[80.19301,8.51384],[80.19113,8.5137],[80.1894,8.51393],[80.18777,8.51391],[80.18737,8.51395],[80.18702,8.51413],[80.1868,8.51439],[80.18656,8.51466],[80.18616,8.51481],[80.18573,8.51479],[80.18536,8.51467],[80.18503,8.51441],[80.18482,8.51404],[80.18453,8.5139],[80.18405,8.5138],[80.18354,8.51379],[80.18263,8.51386],[80.1765,8.51346],[80.17597,8.51344],[80.17576,8.51358],[80.17561,8.51398],[80.17578,8.51492],[80.17584,8.51546],[80.17585,8.5161],[80.17586,8.51671],[80.17601,8.51741],[80.17597,8.51802],[80.17585,8.51846],[80.17554,8.51904],[80.17533,8.51919],[80.17511,8.51919],[80.1749,8.51911],[80.17474,8.51895],[80.17464,8.51873],[80.17461,8.51847],[80.17455,8.51823],[80.17438,8.51788],[80.1741,8.51761],[80.17366,8.51715],[80.17332,8.51662],[80.17284,8.51604],[80.17247,8.51545],[80.17191,8.51501],[80.1715,8.51483],[80.17133,8.51475],[80.17095,8.51468],[80.17069,8.51463],[80.17052,8.51455],[80.17042,8.51447],[80.16995,8.51492],[80.16964,8.51499],[80.16819,8.51487],[80.16697,8.51486],[80.16464,8.5136],[80.16152,8.51363],[80.15967,8.5138],[80.1576,8.51388],[80.15698,8.51398],[80.15639,8.51423],[80.15476,8.51501],[80.15391,8.51538],[80.15227,8.51434],[80.1518,8.51416],[80.15092,8.51405],[80.14867,8.51439],[80.1406,8.51383],[80.13833,8.5158],[80.13824,8.5161],[80.13821,8.51643],[80.13826,8.51699],[80.13829,8.51776],[80.13768,8.51786],[80.13748,8.51699],[80.13702,8.51567],[80.13703,8.51482],[80.13682,8.51433],[80.13667,8.51409],[80.13614,8.5137],[80.13523,8.51344],[80.13259,8.51263],[80.13152,8.51072],[80.12944,8.50882],[80.12476,8.50539],[80.12386,8.50441],[80.12178,8.50289],[80.12051,8.50235],[80.1199,8.50203],[80.11928,8.50115],[80.11935,8.5001],[80.1194,8.49984],[80.11949,8.49955],[80.11955,8.49929],[80.1195,8.49912],[80.11925,8.49888],[80.1189,8.49863],[80.11881,8.49839],[80.11863,8.49798],[80.11856,8.49759],[80.1186,8.49705],[80.11865,8.49643],[80.11883,8.49582],[80.11915,8.49542],[80.11929,8.49516],[80.11935,8.49474],[80.11959,8.49456],[80.11976,8.49449],[80.1203,8.49429],[80.12452,8.49556],[80.1264,8.49462],[80.13115,8.49059],[80.13483,8.48742],[80.1363,8.48576],[80.13737,8.48493],[80.13834,8.4828],[80.13861,8.48089],[80.13855,8.47903],[80.13871,8.47807],[80.13886,8.47781],[80.1392,8.4775],[80.13955,8.47713],[80.14008,8.47672],[80.14038,8.47632],[80.14066,8.47583],[80.14155,8.47466],[80.14205,8.47419],[80.1426,8.47396],[80.14312,8.4735],[80.14353,8.47308],[80.14395,8.47276],[80.1442,8.47244],[80.14436,8.47195],[80.14446,8.47125],[80.14433,8.47017],[80.14458,8.46947],[80.14518,8.46819],[80.14598,8.46778],[80.14622,8.4671],[80.14704,8.46698],[80.14804,8.46646],[80.14893,8.46604],[80.14976,8.46557],[80.15017,8.46537],[80.15115,8.46513],[80.15203,8.46449],[80.15382,8.46376],[80.15611,8.46202],[80.15709,8.46003],[80.15737,8.45971],[80.15727,8.45897],[80.15769,8.45828],[80.15852,8.45761],[80.15965,8.45686],[80.1603,8.45651],[80.16227,8.45566],[80.1646,8.45612],[80.16744,8.45627],[80.16854,8.45384],[80.16889,8.45326],[80.16926,8.45216],[80.17056,8.45135],[80.17084,8.44814],[80.1703,8.44765],[80.16982,8.44707],[80.16949,8.44658],[80.16936,8.44615],[80.16919,8.445],[80.16887,8.44339],[80.16889,8.44273],[80.16907,8.44162],[80.16955,8.44062],[80.17005,8.43991],[80.17112,8.43921],[80.17213,8.43869],[80.17074,8.43509],[80.16738,8.43493],[80.16755,8.43281],[80.16654,8.43276],[80.16558,8.43238],[80.16326,8.42975],[80.16299,8.42901],[80.16334,8.42847],[80.16319,8.42691],[80.16385,8.42666],[80.16362,8.42493],[80.16321,8.42409],[80.16315,8.42345],[80.16308,8.4231],[80.16291,8.42304],[80.16265,8.42318],[80.16222,8.42334],[80.16188,8.42343],[80.16034,8.4236],[80.16035,8.42118],[80.16116,8.41902],[80.16249,8.41703],[80.16352,8.41623],[80.16473,8.41533],[80.16527,8.41477],[80.1661,8.41281],[80.16713,8.41043],[80.16696,8.40987],[80.16744,8.40838],[80.16781,8.40718],[80.16789,8.4051],[80.16797,8.40387],[80.16807,8.40353],[80.16806,8.40322],[80.16792,8.40302],[80.16771,8.40291],[80.16757,8.40286],[80.16753,8.40279],[80.16754,8.40267],[80.16769,8.40218],[80.16786,8.4016],[80.16783,8.40129],[80.16757,8.40087],[80.16725,8.40058],[80.16666,8.40031],[80.16593,8.40027],[80.16477,8.40039],[80.16367,8.40048],[80.16226,8.40029],[80.1609,8.39988],[80.15922,8.39893],[80.15853,8.39762],[80.15807,8.39651],[80.15733,8.3952],[80.15668,8.39459],[80.15538,8.39407],[80.15443,8.3939],[80.15365,8.39379],[80.15287,8.39376],[80.1527,8.39262],[80.15251,8.38987],[80.1524,8.38798],[80.15272,8.38721],[80.15335,8.3868],[80.15362,8.38609],[80.15357,8.3856],[80.15333,8.38463],[80.15101,8.37964],[80.15095,8.3782],[80.14998,8.37649],[80.1493,8.37605],[80.14805,8.37581],[80.14656,8.37501],[80.14612,8.37364],[80.14608,8.37315],[80.14656,8.37262],[80.14708,8.37231],[80.1476,8.37227],[80.14827,8.3722],[80.14864,8.37175],[80.14849,8.37172],[80.14838,8.37167],[80.14831,8.3716],[80.14829,8.3715],[80.14835,8.37119],[80.14846,8.37095],[80.1485,8.37074],[80.14847,8.37052],[80.14849,8.37028],[80.14853,8.37003],[80.14857,8.36976],[80.14854,8.36955],[80.14846,8.36942],[80.14838,8.36925],[80.1483,8.36904],[80.14825,8.3688],[80.14811,8.36851],[80.14796,8.36834],[80.14786,8.36818],[80.14781,8.36796],[80.14785,8.36779],[80.14796,8.36764],[80.14812,8.36751],[80.14832,8.36742],[80.14852,8.36741],[80.14883,8.36746],[80.14914,8.36751],[80.14947,8.36758],[80.14972,8.36772],[80.14988,8.36793],[80.15005,8.36812],[80.1503,8.36827],[80.1505,8.36837],[80.15071,8.36845],[80.151,8.36847],[80.15124,8.36845],[80.15148,8.36839],[80.15172,8.36824],[80.15189,8.36814],[80.15203,8.36801],[80.15216,8.36783],[80.15233,8.36754],[80.15251,8.36728],[80.15257,8.3671],[80.15259,8.36687],[80.15256,8.36656],[80.15246,8.36628],[80.15234,8.36604],[80.15218,8.36587],[80.15197,8.36569],[80.15182,8.3655],[80.15172,8.36534],[80.15164,8.36514],[80.15164,8.36494],[80.15169,8.36478],[80.15182,8.36461],[80.15209,8.36451],[80.15231,8.36456],[80.15257,8.3647],[80.15296,8.36493],[80.15341,8.36514],[80.15385,8.3654],[80.15411,8.3656],[80.15428,8.36583],[80.15453,8.3664],[80.1547,8.36671],[80.15502,8.36716],[80.15516,8.36744],[80.15527,8.36779],[80.1553,8.36811],[80.15535,8.3684],[80.15546,8.36863],[80.15561,8.36881],[80.15569,8.36895],[80.15573,8.36911],[80.15574,8.36923],[80.15574,8.36933],[80.15572,8.36943],[80.15569,8.36955],[80.15569,8.36968],[80.15572,8.36979],[80.15575,8.36989],[80.15581,8.37002],[80.15587,8.37014],[80.15596,8.37025],[80.15605,8.37032],[80.15613,8.37038],[80.15626,8.37045],[80.15636,8.37053],[80.15643,8.37061],[80.15651,8.37067],[80.15658,8.37073],[80.15669,8.37078],[80.15676,8.37081],[80.15683,8.37085],[80.15689,8.37088],[80.15695,8.3709],[80.15704,8.37091],[80.15712,8.37093],[80.15718,8.37095],[80.15727,8.37099],[80.15722,8.37095],[80.15714,8.3709],[80.15708,8.37088],[80.15702,8.37085],[80.15694,8.37083],[80.15675,8.37053],[80.15663,8.36971],[80.15662,8.36947],[80.15671,8.36913],[80.15637,8.36882],[80.15627,8.36836],[80.15632,8.36811],[80.15627,8.36779],[80.15603,8.36724],[80.1561,8.36695],[80.15607,8.36667],[80.15623,8.36574],[80.1562,8.36548],[80.15483,8.36409],[80.15453,8.36393],[80.1542,8.36333],[80.1537,8.36303],[80.15349,8.36266],[80.15348,8.36219],[80.15332,8.36197],[80.15244,8.36132],[80.15186,8.36031],[80.15155,8.35935],[80.15112,8.3589],[80.15097,8.35882],[80.15073,8.35896],[80.15053,8.35889],[80.15016,8.35884],[80.15001,8.35862],[80.14982,8.35827],[80.14983,8.35804],[80.14996,8.35777],[80.14999,8.35756],[80.14964,8.35671],[80.14971,8.3564],[80.1494,8.3558],[80.14891,8.35471],[80.14886,8.35452],[80.14895,8.35388],[80.14892,8.35294],[80.14978,8.35185],[80.15021,8.351],[80.15059,8.35048],[80.15121,8.34985],[80.15143,8.34933],[80.15154,8.34897],[80.15148,8.34873],[80.15125,8.34859],[80.15027,8.34823],[80.14969,8.34786],[80.14845,8.34659],[80.14818,8.34583],[80.14824,8.34551],[80.14842,8.34537],[80.15177,8.34339],[80.15252,8.3432],[80.15308,8.34303],[80.15345,8.34281],[80.15373,8.34249],[80.15412,8.34142],[80.15427,8.34117],[80.15511,8.34035],[80.15575,8.33983],[80.15625,8.34006],[80.15649,8.34013],[80.15685,8.34027],[80.1571,8.34045],[80.15774,8.34105],[80.15823,8.34092],[80.1588,8.34092],[80.15938,8.34086],[80.1597,8.34064],[80.15979,8.34037],[80.15968,8.34012],[80.15943,8.33965],[80.15909,8.33916],[80.15865,8.33832],[80.15869,8.33818],[80.15903,8.33794],[80.15947,8.33772],[80.16023,8.33758],[80.16071,8.33745],[80.16092,8.33729],[80.16157,8.33661],[80.16181,8.33628],[80.16209,8.33628],[80.16242,8.33653],[80.16277,8.33695],[80.16296,8.33742],[80.16317,8.33775],[80.16344,8.33804],[80.16402,8.33779],[80.16432,8.33771],[80.16453,8.33747],[80.16518,8.33728],[80.16584,8.33722],[80.1664,8.33743],[80.16691,8.33739],[80.16739,8.33728],[80.16794,8.33728],[80.16846,8.33705],[80.16992,8.33677],[80.17018,8.33662],[80.17028,8.3362],[80.17061,8.33605],[80.17125,8.33588],[80.17172,8.33569],[80.17239,8.33546],[80.1726,8.33573],[80.17301,8.33618],[80.17335,8.33616],[80.17344,8.33577],[80.17323,8.33501],[80.17296,8.33466],[80.17262,8.33425],[80.17239,8.33365],[80.17215,8.33338],[80.17106,8.33312],[80.17018,8.33299],[80.16917,8.33276],[80.16865,8.33231],[80.16824,8.33153],[80.16782,8.33051],[80.1676,8.32969],[80.16749,8.32902],[80.16756,8.32817],[80.16756,8.32747],[80.16799,8.32677],[80.16829,8.32499],[80.16863,8.32454],[80.16872,8.32372],[80.16912,8.32323],[80.16966,8.32225],[80.17015,8.32193],[80.17099,8.32204],[80.17173,8.32161],[80.17194,8.32146],[80.17202,8.32138],[80.17208,8.32124],[80.17222,8.32081],[80.17228,8.32051],[80.17231,8.32044],[80.17235,8.3204],[80.17263,8.3202],[80.17277,8.32012],[80.17289,8.32004],[80.17297,8.31998],[80.17302,8.31991],[80.17305,8.31982],[80.1731,8.31966],[80.17318,8.31945],[80.17273,8.31929],[80.17235,8.31922],[80.17225,8.31922],[80.17198,8.31915],[80.17174,8.31913],[80.17159,8.31909],[80.17121,8.31908],[80.17107,8.31903],[80.17099,8.31898],[80.1708,8.31879],[80.17062,8.31842],[80.17036,8.31783],[80.17006,8.31749],[80.16983,8.3173],[80.16958,8.3172],[80.16869,8.31724],[80.16847,8.31717],[80.1676,8.31658],[80.16742,8.31642],[80.16728,8.31612],[80.16713,8.31588],[80.16693,8.31575],[80.16682,8.31563],[80.16665,8.31551],[80.16613,8.31537],[80.16547,8.31509],[80.16524,8.31506],[80.16476,8.3151],[80.16434,8.31519],[80.16397,8.31524],[80.16351,8.31538],[80.16313,8.31546],[80.16283,8.31547],[80.16196,8.31554],[80.16166,8.31562],[80.16131,8.31576],[80.16059,8.3159],[80.15997,8.31608],[80.15969,8.3162],[80.15946,8.31627],[80.15926,8.31628],[80.15897,8.31624],[80.15889,8.3162],[80.1588,8.31611],[80.15827,8.31577],[80.15742,8.31506],[80.15734,8.31485],[80.15731,8.31467],[80.15727,8.31455],[80.15712,8.31434],[80.15682,8.31372],[80.15666,8.31357],[80.15645,8.31342],[80.15631,8.31331],[80.15612,8.31304],[80.15602,8.31294],[80.15561,8.31273],[80.15545,8.31261],[80.15532,8.31243],[80.15479,8.31185],[80.15467,8.31174],[80.15436,8.31154],[80.15402,8.31124],[80.15372,8.31107],[80.15349,8.31088],[80.15329,8.31071],[80.15284,8.31021],[80.15262,8.31002],[80.15238,8.30988],[80.15215,8.30978],[80.15206,8.30976],[80.15154,8.30972],[80.15139,8.30966],[80.15127,8.30954],[80.15109,8.30927],[80.15087,8.30911],[80.15033,8.30864],[80.15022,8.30843],[80.15008,8.30804],[80.14982,8.3076],[80.14978,8.30761],[80.14975,8.30763],[80.14971,8.30766],[80.14967,8.30773],[80.14961,8.3078],[80.14954,8.30788],[80.14949,8.30796],[80.14944,8.30804],[80.14939,8.30809],[80.1493,8.30813],[80.14923,8.30816],[80.14916,8.30821],[80.14905,8.3083],[80.14896,8.30835],[80.14889,8.30837],[80.14882,8.30838],[80.14877,8.3084],[80.14871,8.30844],[80.14864,8.30847],[80.14856,8.30847],[80.14848,8.30846],[80.14816,8.30846],[80.14795,8.30839],[80.14766,8.30815],[80.14746,8.30797],[80.14732,8.30789],[80.14714,8.30783],[80.14687,8.30774],[80.14663,8.30773],[80.14631,8.30777],[80.14567,8.30806],[80.14537,8.3083],[80.14503,8.30862],[80.1448,8.30892],[80.14452,8.30932],[80.14417,8.30986],[80.14378,8.31039],[80.14343,8.31077],[80.14311,8.31102],[80.14278,8.31112],[80.1425,8.31109],[80.1424,8.31099],[80.14236,8.31087],[80.14236,8.31059],[80.14242,8.31026],[80.14246,8.30977],[80.14247,8.30928],[80.14245,8.3088],[80.14246,8.30851],[80.14249,8.30815],[80.14256,8.30783],[80.1427,8.30742],[80.14289,8.30697],[80.14309,8.30657],[80.14331,8.30618],[80.1435,8.30588],[80.14357,8.30577],[80.14365,8.30567],[80.14368,8.30561],[80.14369,8.30555],[80.1437,8.30549],[80.14369,8.30543],[80.14368,8.30536],[80.14365,8.30531],[80.1436,8.30521],[80.14354,8.3051],[80.14348,8.305],[80.14344,8.30498],[80.14339,8.30497],[80.14335,8.30496],[80.14332,8.30493],[80.1433,8.30489],[80.14328,8.30484],[80.14323,8.30477],[80.14318,8.30471],[80.14316,8.30469],[80.14314,8.30467],[80.14312,8.30466],[80.1431,8.30465],[80.14308,8.30465],[80.14307,8.30463],[80.14306,8.30462],[80.14305,8.30462],[80.14304,8.30462],[80.14303,8.30461],[80.14302,8.30461],[80.14301,8.3046],[80.14301,8.30459],[80.143,8.30457],[80.143,8.30455],[80.143,8.30453],[80.14299,8.30451],[80.14299,8.30449],[80.14298,8.30448],[80.14298,8.30446],[80.14296,8.30445],[80.14294,8.30444],[80.14292,8.30443],[80.14289,8.30442],[80.14286,8.30441],[80.14283,8.30439],[80.1428,8.30438],[80.1426,8.30437],[80.1416,8.30429],[80.14075,8.30418],[80.14063,8.30423],[80.14056,8.30524],[80.14059,8.3056],[80.14054,8.30567],[80.13973,8.30605],[80.13957,8.30626],[80.13935,8.30642],[80.13907,8.30649],[80.13884,8.3065],[80.13837,8.30641],[80.13825,8.30646],[80.13802,8.30697],[80.13779,8.30722],[80.13755,8.30772],[80.13755,8.30788],[80.13782,8.30874],[80.1378,8.30893],[80.13752,8.31003],[80.13731,8.31026],[80.13709,8.31045],[80.13683,8.31055],[80.13603,8.31056],[80.13582,8.31068],[80.13567,8.31088],[80.13498,8.31302],[80.13486,8.31317],[80.13443,8.31328],[80.13428,8.31329],[80.13374,8.31259],[80.1333,8.31215],[80.13296,8.31164],[80.13239,8.31151],[80.13204,8.31159],[80.13169,8.31187],[80.13129,8.31236],[80.13123,8.31326],[80.13103,8.3134],[80.13083,8.31354],[80.13058,8.31357],[80.13014,8.31335],[80.12972,8.31343],[80.12941,8.31336],[80.1292,8.31318],[80.12906,8.31287],[80.12923,8.31194],[80.12908,8.31098],[80.12892,8.31058],[80.12891,8.31044],[80.12776,8.31054],[80.12762,8.31046],[80.12727,8.30961],[80.12723,8.30917],[80.1273,8.30898],[80.1276,8.30863],[80.1282,8.30816],[80.12831,8.30799],[80.12835,8.30776],[80.12823,8.30686],[80.12825,8.30673],[80.12884,8.30575],[80.12911,8.3054],[80.12913,8.30524],[80.12894,8.30474],[80.12889,8.30454],[80.12891,8.30435],[80.12929,8.30338],[80.12923,8.30323],[80.1288,8.30298],[80.12845,8.30255],[80.12842,8.3024],[80.12899,8.301],[80.12913,8.30075],[80.12932,8.30059],[80.12997,8.30036],[80.13026,8.30034],[80.13136,8.30064],[80.13209,8.30111],[80.13228,8.30114],[80.13246,8.30107],[80.13258,8.30084],[80.13261,8.30056],[80.1326,8.30033],[80.13283,8.3],[80.13315,8.29924],[80.13316,8.29908],[80.1328,8.29718],[80.13281,8.29697],[80.13255,8.29699],[80.13179,8.29684],[80.1314,8.29688],[80.13098,8.29699],[80.13083,8.29698],[80.13012,8.29674],[80.13003,8.29665],[80.13002,8.29638],[80.13012,8.29625],[80.13018,8.29612],[80.13019,8.29579],[80.13034,8.29551],[80.13035,8.29516],[80.13026,8.29445],[80.13014,8.294],[80.12971,8.2932],[80.12907,8.29251],[80.1286,8.29189],[80.12836,8.29164],[80.12786,8.29122],[80.12795,8.29001],[80.12812,8.28909],[80.12814,8.28832],[80.1281,8.28768],[80.12847,8.28683],[80.12869,8.28621],[80.12879,8.28563],[80.12882,8.28524],[80.12856,8.28438],[80.12792,8.28318],[80.1279,8.28308],[80.12802,8.28256],[80.12842,8.28192],[80.12863,8.28144],[80.12862,8.28045],[80.1289,8.27887],[80.12847,8.27823],[80.12822,8.27773],[80.12793,8.27679],[80.12778,8.27645],[80.12778,8.27631],[80.12797,8.27574],[80.1283,8.27424],[80.12817,8.27381],[80.1285,8.27241],[80.12845,8.27197],[80.12813,8.27101],[80.12812,8.27079],[80.12821,8.27011],[80.12841,8.26953],[80.12851,8.26946],[80.12933,8.26935],[80.12948,8.26924],[80.13006,8.26859],[80.13077,8.26816],[80.13189,8.26676],[80.13286,8.26502],[80.13294,8.26482],[80.13305,8.26417],[80.13302,8.26395],[80.13288,8.26368],[80.13254,8.26321],[80.13245,8.26316],[80.13154,8.26347],[80.13135,8.26349],[80.13032,8.26305],[80.13017,8.2629],[80.12971,8.26228],[80.12962,8.26165],[80.12936,8.26154],[80.12914,8.26191],[80.12874,8.26202],[80.12833,8.26187],[80.12723,8.2626],[80.12708,8.26263],[80.12691,8.26254],[80.12683,8.26241],[80.12678,8.26214],[80.12636,8.26195],[80.12618,8.26159],[80.12639,8.26119],[80.12565,8.26054],[80.12494,8.26039],[80.12485,8.25936],[80.1246,8.25927],[80.12414,8.25976],[80.12336,8.25953],[80.1228,8.26024],[80.12233,8.26141],[80.12245,8.26207],[80.12233,8.26269],[80.1218,8.26284],[80.12093,8.26207],[80.12024,8.26207],[80.12015,8.26264],[80.1189,8.26284],[80.1187,8.26285],[80.11846,8.26286],[80.11733,8.26245],[80.11647,8.26201],[80.11594,8.26153],[80.11507,8.26063],[80.11438,8.26071],[80.11387,8.25971],[80.11376,8.2594],[80.11361,8.2588],[80.11348,8.25867],[80.11208,8.25855],[80.11137,8.2587],[80.11083,8.25857],[80.11068,8.25862],[80.11039,8.25909],[80.1096,8.25915],[80.10926,8.25899],[80.10925,8.2588],[80.10937,8.25818],[80.10917,8.25784],[80.10866,8.2576],[80.10755,8.25604],[80.10742,8.25598],[80.1069,8.25623],[80.10591,8.25648],[80.10566,8.25647],[80.10522,8.25639],[80.10467,8.25637],[80.10399,8.25631],[80.10292,8.25596],[80.10237,8.25567],[80.10186,8.25536],[80.10163,8.25553],[80.10172,8.25723],[80.10183,8.25817],[80.10179,8.2584],[80.10084,8.2585],[80.10072,8.25863],[80.10055,8.25904],[80.10028,8.25925],[80.10004,8.25925],[80.09981,8.25914],[80.09901,8.25967],[80.0988,8.26011],[80.09845,8.26059],[80.09815,8.26096],[80.09789,8.26108],[80.09753,8.26111],[80.09732,8.26185],[80.09723,8.26254],[80.09703,8.2635],[80.09701,8.26526],[80.09704,8.26621],[80.09684,8.26717],[80.09656,8.26767],[80.09649,8.26815],[80.09667,8.26846],[80.09698,8.26862],[80.09731,8.26865],[80.09739,8.26877],[80.09737,8.26907],[80.09753,8.26925],[80.09756,8.26956],[80.09727,8.26959],[80.09713,8.26978],[80.09728,8.26993],[80.09745,8.26996],[80.09755,8.27065],[80.09749,8.27081],[80.09737,8.27098],[80.09716,8.27104],[80.09557,8.27123],[80.09516,8.27118],[80.09481,8.27096],[80.09436,8.27092],[80.09387,8.27101],[80.09372,8.27094],[80.09349,8.27066],[80.09336,8.26932],[80.09327,8.26875],[80.09289,8.26764],[80.0923,8.26706],[80.09203,8.26698],[80.09186,8.26674],[80.09187,8.26648],[80.09206,8.26631],[80.09215,8.26585],[80.09233,8.26561],[80.09269,8.26565],[80.09354,8.26544],[80.09383,8.26512],[80.09414,8.26444],[80.09439,8.2643],[80.09434,8.26367],[80.09401,8.2636],[80.0936,8.26323],[80.09331,8.26286],[80.093,8.26269],[80.09257,8.26211],[80.09241,8.26201],[80.09204,8.26207],[80.09195,8.26197],[80.09184,8.26172],[80.09155,8.26155],[80.09142,8.26088],[80.09155,8.26046],[80.09149,8.26002],[80.09179,8.25972],[80.09215,8.25957],[80.09241,8.25926],[80.09273,8.25907],[80.093,8.2588],[80.09317,8.25848],[80.0935,8.2575],[80.0939,8.25648],[80.09388,8.25605],[80.09397,8.25582],[80.09404,8.25526],[80.09397,8.25419],[80.09404,8.25348],[80.09387,8.25334],[80.09404,8.253],[80.09394,8.25255],[80.094,8.25189],[80.09393,8.25168],[80.09403,8.25143],[80.09397,8.25122],[80.09403,8.25105],[80.09427,8.25078],[80.09448,8.25071],[80.09465,8.25043],[80.09418,8.24889],[80.09414,8.24838],[80.09423,8.24787],[80.0947,8.24703],[80.09502,8.24653],[80.09538,8.24636],[80.09613,8.24617],[80.09741,8.24609],[80.09755,8.24599],[80.09763,8.24494],[80.09757,8.24449],[80.0976,8.24416],[80.09736,8.24283],[80.0976,8.2418],[80.09774,8.24092],[80.09768,8.24022],[80.09801,8.23906],[80.09752,8.23752],[80.09758,8.23714],[80.09779,8.23661],[80.09771,8.23592],[80.09752,8.23548],[80.09753,8.23504],[80.09773,8.23456],[80.09764,8.23445],[80.09757,8.2344],[80.09741,8.2343],[80.0973,8.23426],[80.0972,8.23413],[80.09712,8.23409],[80.09687,8.23405],[80.09666,8.23387],[80.09636,8.23377],[80.09628,8.23368],[80.09614,8.23359],[80.0959,8.23352],[80.09581,8.23347],[80.09569,8.23345],[80.09563,8.23342],[80.09559,8.23337],[80.09528,8.23314],[80.0952,8.23304],[80.09519,8.23295],[80.09523,8.23287],[80.09524,8.2327],[80.09519,8.23254],[80.09513,8.23251],[80.09498,8.23234],[80.09487,8.2323],[80.09454,8.23209],[80.09441,8.23209],[80.09413,8.23217],[80.09401,8.23216],[80.09367,8.23202],[80.09357,8.23195],[80.09353,8.23195],[80.09346,8.23197],[80.0933,8.23207],[80.09299,8.23228],[80.0929,8.23227],[80.09279,8.23219],[80.09262,8.23223],[80.09254,8.23228],[80.09238,8.23255],[80.09226,8.23267],[80.09217,8.23272],[80.09206,8.2327],[80.09198,8.23262],[80.09186,8.23256],[80.09178,8.23247],[80.09169,8.23244],[80.09143,8.23251],[80.09125,8.23266],[80.09113,8.23271],[80.09075,8.23273],[80.09065,8.23273],[80.09052,8.23268],[80.0903,8.23254],[80.0902,8.23255],[80.08991,8.23264],[80.08972,8.23262],[80.08961,8.23256],[80.0894,8.23238],[80.08926,8.23238],[80.08888,8.23243],[80.08871,8.23251],[80.08844,8.23249],[80.0882,8.2326],[80.08769,8.23263],[80.08723,8.23273],[80.08715,8.23285],[80.08701,8.23291],[80.08673,8.2329],[80.08666,8.23286],[80.08653,8.23264],[80.08646,8.23258],[80.08622,8.23258],[80.08608,8.23263],[80.08604,8.23266],[80.08601,8.23275],[80.08597,8.23279],[80.08579,8.23288],[80.08555,8.23291],[80.08542,8.23296],[80.08509,8.23294],[80.08494,8.23278],[80.08488,8.23265],[80.08482,8.23248],[80.08481,8.23235],[80.08485,8.23186],[80.08494,8.23153],[80.08502,8.23114],[80.08496,8.23096],[80.08483,8.23076],[80.08472,8.23053],[80.08463,8.23044],[80.0845,8.23039],[80.08434,8.23027],[80.08425,8.23016],[80.084,8.23004],[80.08345,8.22966],[80.08334,8.2295],[80.08286,8.22914],[80.08257,8.22881],[80.08234,8.22867],[80.08225,8.2286],[80.08221,8.22854],[80.08219,8.22841],[80.08209,8.22828],[80.08201,8.22824],[80.08193,8.22812],[80.08186,8.22806],[80.0816,8.22797],[80.08151,8.2279],[80.08115,8.22757],[80.08105,8.22742],[80.0809,8.22731],[80.08051,8.2273],[80.08038,8.22722],[80.08034,8.22714],[80.08031,8.22692],[80.08028,8.22686],[80.08019,8.22676],[80.08009,8.2267],[80.07967,8.22622],[80.07945,8.22586],[80.0794,8.22573],[80.0794,8.22539],[80.07932,8.22526],[80.07923,8.22516],[80.07917,8.22512],[80.07918,8.22463],[80.07916,8.22451],[80.07909,8.22437],[80.07903,8.2243],[80.07895,8.22425],[80.0788,8.22403],[80.07869,8.22369],[80.07858,8.22356],[80.07838,8.22355],[80.07791,8.2234],[80.07757,8.22321],[80.07716,8.22303],[80.07692,8.22289],[80.07668,8.22279],[80.07637,8.22273],[80.07534,8.22273],[80.07491,8.22277],[80.07424,8.22276],[80.07404,8.2227],[80.07395,8.2227],[80.07388,8.22267],[80.0736,8.22263],[80.07346,8.22256],[80.07318,8.22252],[80.07298,8.22252],[80.0728,8.22248],[80.07262,8.22243],[80.07247,8.22236],[80.07194,8.2222],[80.07107,8.2218],[80.07068,8.22165],[80.07059,8.22158],[80.07048,8.22154],[80.07026,8.22139],[80.07004,8.22124],[80.06986,8.22113],[80.06958,8.22096],[80.06933,8.22085],[80.06898,8.22069],[80.06822,8.2204],[80.06792,8.22029],[80.06764,8.22019],[80.06692,8.21988],[80.0664,8.21963],[80.06533,8.21938],[80.06429,8.21919],[80.06415,8.21915],[80.06398,8.21915],[80.06358,8.21915],[80.06321,8.21918],[80.06292,8.21923],[80.0623,8.21947],[80.0619,8.21972],[80.06173,8.2198],[80.06124,8.21985],[80.06106,8.21991],[80.06099,8.21991],[80.0608,8.21998],[80.06036,8.2202],[80.06027,8.22021],[80.05945,8.22063],[80.05925,8.22077],[80.05894,8.22115],[80.0583,8.22222],[80.05814,8.22244],[80.05801,8.22255],[80.05784,8.22264],[80.05716,8.22264],[80.05695,8.22275],[80.05671,8.22289],[80.05638,8.22322],[80.05588,8.22348],[80.05578,8.22359],[80.05464,8.22412],[80.05408,8.22444],[80.05391,8.22451],[80.05386,8.22457],[80.05378,8.22459],[80.0534,8.2248],[80.05285,8.22498],[80.05188,8.22542],[80.05153,8.2256],[80.05144,8.22569],[80.05119,8.22585],[80.05089,8.226],[80.0504,8.2263],[80.04989,8.22656],[80.04967,8.22676],[80.04943,8.22688],[80.04921,8.22703],[80.04875,8.22725],[80.04861,8.22736],[80.04835,8.2275],[80.04816,8.22764],[80.0481,8.22771],[80.04796,8.22782],[80.04772,8.22809],[80.04649,8.22911],[80.04624,8.22946],[80.04589,8.22977],[80.04535,8.23035],[80.04526,8.23049],[80.04501,8.23076],[80.04477,8.23107],[80.04444,8.23138],[80.04424,8.23152],[80.0438,8.23176],[80.04351,8.23198],[80.04331,8.23218],[80.04318,8.23223],[80.04298,8.23238],[80.04234,8.2327],[80.04219,8.23274],[80.04177,8.23292],[80.04137,8.23317],[80.04118,8.23335],[80.04102,8.23359],[80.04071,8.23397],[80.04054,8.23413],[80.03981,8.23473],[80.03973,8.23487],[80.0395,8.23522],[80.03944,8.23529],[80.03937,8.23533],[80.03928,8.23549],[80.03893,8.23594],[80.03865,8.23614],[80.03831,8.23629],[80.03811,8.23632],[80.03789,8.23641],[80.03756,8.23643],[80.03719,8.2365],[80.03686,8.2365],[80.03644,8.23645],[80.03613,8.23645],[80.03593,8.23641],[80.03563,8.23631],[80.03547,8.23627],[80.03518,8.23609],[80.03483,8.23583],[80.03463,8.23562],[80.03457,8.2356],[80.03427,8.23506],[80.034,8.23473],[80.03384,8.23449],[80.0336,8.23382],[80.03294,8.23283],[80.03249,8.23257],[80.03224,8.23213],[80.0322,8.23202],[80.03172,8.23123],[80.03114,8.23049],[80.03095,8.2303],[80.03075,8.23016],[80.03071,8.23011],[80.03022,8.22976],[80.02996,8.22947],[80.02943,8.22896],[80.02924,8.22871],[80.02906,8.22851],[80.0286,8.2277],[80.02834,8.22703],[80.02829,8.22698],[80.02823,8.22687],[80.02812,8.22676],[80.02796,8.22665],[80.02763,8.22652],[80.02726,8.22625],[80.0266,8.22591],[80.02611,8.22547],[80.02555,8.22521],[80.02526,8.22514],[80.02497,8.2251],[80.02433,8.2251],[80.02413,8.22509],[80.02398,8.22505],[80.0238,8.22496],[80.02325,8.22481],[80.0227,8.22462],[80.02248,8.22462],[80.02224,8.22469],[80.022,8.22481],[80.02186,8.22494],[80.0216,8.22505],[80.0212,8.22505],[80.02044,8.225],[80.01939,8.22471],[80.01877,8.22449],[80.01835,8.22448],[80.01809,8.22453],[80.018,8.22453],[80.0178,8.2246],[80.0176,8.22464],[80.01728,8.22475],[80.01719,8.2248],[80.01694,8.22487],[80.01668,8.22502],[80.01646,8.22518],[80.01591,8.22536],[80.01492,8.22598],[80.01465,8.22607],[80.01446,8.22616],[80.01421,8.22625],[80.01373,8.22634],[80.01309,8.22636],[80.01277,8.22641],[80.0125,8.2265],[80.01231,8.22654],[80.01204,8.22665],[80.01195,8.2267],[80.01169,8.22696],[80.01153,8.22708],[80.01107,8.22735],[80.01078,8.22759],[80.01063,8.22774],[80.01043,8.22784],[80.01014,8.22808],[80.00955,8.22839],[80.00935,8.22844],[80.00917,8.22853],[80.00882,8.22866],[80.00853,8.22884],[80.00843,8.22888],[80.00829,8.22894],[80.00777,8.22901],[80.00744,8.22901],[80.00709,8.2289],[80.00704,8.2289],[80.00645,8.2287],[80.00564,8.22857],[80.00408,8.22866],[80.00352,8.22859],[80.0031,8.2284],[80.00266,8.22811],[80.00215,8.22787],[80.00161,8.2277],[80.00102,8.22765],[80.00045,8.22768],[80.0002,8.22773],[80.00001,8.22784],[79.99984,8.22795],[79.99953,8.22798],[79.99911,8.22795],[79.99854,8.22803],[79.99768,8.22825],[79.9962,8.22893],[79.99506,8.23025],[79.99423,8.23091],[79.99352,8.23223],[79.99251,8.23375],[79.99193,8.23474],[79.99021,8.23588],[79.98796,8.23664],[79.98702,8.23734],[79.98549,8.23802],[79.98472,8.23823],[79.98246,8.23799],[79.98161,8.23794],[79.98136,8.23804],[79.98083,8.23795],[79.97989,8.23775],[79.97783,8.23777],[79.97593,8.23808],[79.9733,8.23992],[79.97042,8.24112],[79.96807,8.24129],[79.96572,8.2409],[79.96323,8.24061],[79.96086,8.24136],[79.95936,8.24208],[79.95706,8.24312],[79.95527,8.24502],[79.95411,8.24816],[79.95369,8.2489],[79.95354,8.24984],[79.95372,8.25045],[79.95407,8.25098],[79.95457,8.25151],[79.95488,8.25212],[79.95485,8.25261],[79.9549,8.25287],[79.95542,8.25383],[79.95586,8.25441],[79.95642,8.25467],[79.95681,8.25521],[79.95734,8.25648],[79.95718,8.25743],[79.95676,8.25822],[79.95633,8.25912],[79.95553,8.25976],[79.95327,8.26097],[79.95225,8.26191],[79.9514,8.26319],[79.95064,8.26457],[79.94993,8.26624],[79.94961,8.26764],[79.94946,8.26901],[79.94895,8.27046],[79.94877,8.27334],[79.948,8.27589],[79.94759,8.27778],[79.94737,8.27832],[79.94691,8.2788],[79.94615,8.27961],[79.94479,8.28095],[79.94422,8.28162],[79.94356,8.28225],[79.94271,8.28264],[79.94193,8.28273],[79.94074,8.28276],[79.93952,8.28266],[79.93843,8.28274],[79.93762,8.28304],[79.93657,8.28375],[79.93517,8.28467],[79.93447,8.2854],[79.93342,8.28596],[79.93214,8.28625],[79.93147,8.2863],[79.93012,8.2863],[79.92857,8.28654],[79.92801,8.28676],[79.92729,8.28722],[79.92605,8.28786],[79.92565,8.28841],[79.92533,8.28929],[79.92511,8.28974],[79.92425,8.29053],[79.92318,8.29118],[79.9225,8.29135],[79.92171,8.2912],[79.92136,8.29084],[79.92118,8.2904],[79.92108,8.28997],[79.92082,8.28797],[79.92033,8.28711],[79.92035,8.28577],[79.92018,8.28521],[79.91954,8.28442],[79.91895,8.28415],[79.91823,8.28376],[79.91732,8.28378],[79.91603,8.28412],[79.91344,8.28525],[79.90898,8.28695],[79.90644,8.28802],[79.90581,8.28861],[79.90552,8.2894],[79.90542,8.29021],[79.90571,8.29103],[79.90702,8.29174],[79.90763,8.29209],[79.90793,8.29278],[79.90762,8.29372],[79.90699,8.29439],[79.90623,8.29488],[79.90396,8.29565],[79.90278,8.29578],[79.90169,8.29583],[79.90037,8.29614],[79.89884,8.29586],[79.8978,8.29581],[79.89661,8.29603],[79.89571,8.29631],[79.89475,8.29615],[79.89368,8.29578],[79.893,8.29578],[79.89226,8.29617],[79.89147,8.29641],[79.89019,8.29654],[79.88937,8.29633],[79.88831,8.2957],[79.88787,8.29535],[79.88767,8.29514],[79.88735,8.29455],[79.88715,8.29399],[79.8871,8.29348],[79.88673,8.29262],[79.88614,8.29204],[79.88578,8.29186],[79.88561,8.29177],[79.88496,8.29149],[79.88416,8.29146],[79.88351,8.29179],[79.88274,8.29262],[79.8818,8.29321],[79.88142,8.29347],[79.88076,8.29368],[79.8803,8.29379],[79.88,8.29418],[79.87971,8.29471],[79.87948,8.29557],[79.8796,8.29582],[79.8801,8.29618],[79.88019,8.29658],[79.87984,8.29833],[79.87962,8.29866],[79.8794,8.2988],[79.87895,8.29887],[79.87815,8.29882],[79.87778,8.29889],[79.87735,8.29881],[79.87707,8.29879],[79.87687,8.29864],[79.87661,8.29815],[79.8757,8.29725],[79.87519,8.29693],[79.87462,8.29674],[79.8744,8.29675],[79.87419,8.29692],[79.87402,8.29704],[79.87384,8.29744],[79.87371,8.29779],[79.87352,8.29802],[79.87329,8.29821],[79.87314,8.29832],[79.87282,8.29837],[79.87257,8.29824],[79.87231,8.29788],[79.87211,8.29735],[79.87188,8.29718],[79.87157,8.29723],[79.87136,8.29741],[79.87122,8.29779],[79.87133,8.29824],[79.87164,8.29866],[79.87162,8.29892],[79.87149,8.29909],[79.87117,8.29918],[79.8709,8.29916],[79.8707,8.29901],[79.87054,8.29879],[79.8703,8.29865],[79.86995,8.29857],[79.86969,8.29857],[79.86945,8.29862],[79.86903,8.29884],[79.8686,8.29892],[79.86782,8.29869],[79.86542,8.29889],[79.86513,8.29908],[79.86509,8.29962],[79.86503,8.29983],[79.86481,8.29992],[79.86453,8.29984],[79.86428,8.29955],[79.8643,8.29913],[79.86432,8.29877],[79.86402,8.29869],[79.86378,8.29864],[79.86336,8.29873],[79.86325,8.29892],[79.86316,8.29899],[79.86303,8.29903],[79.86288,8.29898],[79.86277,8.29888],[79.86264,8.29848],[79.86256,8.29832],[79.86234,8.2982],[79.86208,8.29813],[79.8618,8.29818],[79.86165,8.29835],[79.86149,8.29838],[79.86136,8.29831],[79.86124,8.29812],[79.86083,8.29796],[79.86046,8.29804],[79.86019,8.29797],[79.86009,8.29768],[79.85972,8.29742],[79.85921,8.29764],[79.85866,8.29772],[79.85819,8.29777],[79.85785,8.29762],[79.85774,8.29731],[79.85778,8.29695],[79.85831,8.29645],[79.8587,8.29618],[79.85883,8.29591],[79.85875,8.29548],[79.85852,8.29527],[79.85808,8.29534],[79.8577,8.29556],[79.85691,8.29582],[79.85669,8.29585],[79.85649,8.29573],[79.85628,8.29535],[79.85596,8.29514],[79.85567,8.29515],[79.85538,8.2954],[79.85516,8.29581],[79.85508,8.2962],[79.85498,8.29635],[79.85479,8.29642],[79.8544,8.29657],[79.85403,8.29692],[79.85372,8.29695],[79.85343,8.29693],[79.8532,8.2968],[79.85305,8.29646],[79.85278,8.2962],[79.8524,8.29612],[79.85186,8.29623],[79.85146,8.29647],[79.85128,8.29669],[79.85102,8.29728],[79.85089,8.29746],[79.85073,8.2976],[79.85048,8.29761],[79.85028,8.29753],[79.85002,8.29726],[79.85005,8.29685],[79.84992,8.29668],[79.84957,8.29654],[79.84927,8.29664],[79.84916,8.2967],[79.84886,8.29745],[79.84853,8.29778],[79.84812,8.29785],[79.84777,8.29776],[79.84763,8.29736],[79.84721,8.29742],[79.84692,8.2974],[79.84675,8.29714],[79.84683,8.29677],[79.84704,8.2966],[79.84752,8.2963],[79.84772,8.29593],[79.84764,8.29554],[79.84601,8.29397],[79.84473,8.29308],[79.84344,8.29246],[79.84198,8.29245],[79.84091,8.29351],[79.83959,8.29458],[79.83849,8.29519],[79.83718,8.29569],[79.83555,8.29616],[79.83455,8.29673],[79.83374,8.29746],[79.83307,8.29825],[79.83281,8.30009],[79.83261,8.30118],[79.8325,8.30178],[79.8325,8.30212],[79.83253,8.30227],[79.83265,8.30234],[79.83274,8.30233],[79.83281,8.30229],[79.83283,8.3021],[79.83288,8.30203],[79.83298,8.30194],[79.83388,8.30117],[79.83422,8.301],[79.83538,8.30076],[79.83579,8.30078],[79.83628,8.30091],[79.83667,8.30124],[79.83683,8.30159],[79.83682,8.30179],[79.83673,8.30202],[79.83656,8.30226],[79.8365,8.30248],[79.83651,8.3027],[79.83657,8.30287],[79.83666,8.30299],[79.83673,8.3032],[79.83682,8.30335],[79.83682,8.30343],[79.83678,8.30361],[79.83662,8.30383],[79.83637,8.30416],[79.83617,8.30451],[79.83602,8.3047],[79.83589,8.3048],[79.83565,8.3049],[79.83547,8.30502],[79.83537,8.30513],[79.83531,8.30526],[79.83524,8.30541],[79.83516,8.30562],[79.83505,8.30598],[79.83501,8.30612],[79.83503,8.30625],[79.8351,8.30642],[79.83517,8.30661],[79.83521,8.30694],[79.83521,8.30739],[79.83519,8.3076],[79.83516,8.30775],[79.83511,8.30786],[79.83507,8.30798],[79.83505,8.30816],[79.83504,8.30829],[79.835,8.3085],[79.83495,8.30873],[79.83493,8.30892],[79.83498,8.30908],[79.83507,8.30928],[79.83518,8.30945],[79.83528,8.30952],[79.8354,8.30955],[79.8355,8.30956],[79.83563,8.30951],[79.83574,8.30943],[79.83586,8.3094],[79.83604,8.30942],[79.83613,8.30946],[79.83625,8.30954],[79.83638,8.30965],[79.8366,8.30992],[79.83696,8.31038],[79.83721,8.31085],[79.83739,8.31127],[79.83748,8.31159],[79.83751,8.3118],[79.83751,8.312],[79.83749,8.31222],[79.83746,8.31246],[79.83747,8.31266],[79.83748,8.3129],[79.83746,8.31309],[79.83743,8.31325],[79.83738,8.31344],[79.83731,8.31364],[79.83724,8.31391],[79.8371,8.31433],[79.83698,8.31468],[79.83688,8.31491],[79.83682,8.31505],[79.83668,8.31528],[79.83658,8.31546],[79.83631,8.31604],[79.83616,8.31635],[79.83606,8.31655],[79.83595,8.31683],[79.83584,8.31711],[79.83576,8.31732],[79.83569,8.3175],[79.83558,8.31771],[79.8354,8.31798],[79.83519,8.31831],[79.83475,8.31917],[79.83463,8.31939],[79.83451,8.31955],[79.83438,8.31965],[79.83422,8.31971],[79.83396,8.31977],[79.83373,8.3198],[79.83363,8.31982],[79.83357,8.31988],[79.83356,8.31999],[79.83361,8.32025],[79.83361,8.32053],[79.83361,8.32081],[79.83355,8.32117],[79.83352,8.32137],[79.83349,8.32149],[79.83344,8.32162],[79.83337,8.32171],[79.83319,8.32187],[79.83304,8.32207],[79.83285,8.32243],[79.83278,8.32258],[79.83275,8.32278],[79.83272,8.32297],[79.83266,8.32318],[79.83251,8.32378],[79.83242,8.32416],[79.83242,8.32438],[79.83245,8.32454],[79.83252,8.3247],[79.8326,8.32482],[79.83292,8.32512],[79.8332,8.32541],[79.83346,8.32572],[79.8336,8.32593],[79.83372,8.32615],[79.83375,8.32629],[79.83375,8.3264],[79.83371,8.32661],[79.83368,8.32675],[79.83368,8.32687],[79.8337,8.32695],[79.83373,8.32702],[79.83386,8.32712],[79.83397,8.3272],[79.83421,8.32733],[79.83446,8.3275],[79.8347,8.32772],[79.83517,8.32814],[79.83584,8.32884],[79.83606,8.32911],[79.83612,8.32924],[79.83613,8.32944],[79.83613,8.32961],[79.83614,8.32979],[79.8362,8.32999],[79.83645,8.33065],[79.83655,8.33089],[79.83666,8.33106],[79.83685,8.33127],[79.83719,8.33156],[79.83747,8.33193],[79.83787,8.33253],[79.83822,8.33297],[79.83839,8.33323],[79.83856,8.33355],[79.83864,8.33374],[79.83866,8.33386],[79.83869,8.33396],[79.83874,8.334],[79.8388,8.334],[79.8389,8.33392],[79.83889,8.33379],[79.83887,8.33366],[79.83887,8.33346],[79.83884,8.33331],[79.83877,8.33305],[79.83871,8.33287],[79.83861,8.33273],[79.83853,8.33257],[79.83849,8.33238],[79.83853,8.33221],[79.83866,8.33206],[79.83882,8.33201],[79.83897,8.33205],[79.83912,8.33219],[79.83923,8.33236],[79.83931,8.33252],[79.8394,8.33262],[79.83946,8.33272],[79.83949,8.33281],[79.8395,8.33293],[79.8395,8.33323],[79.83951,8.3335],[79.83951,8.33365],[79.8395,8.33385],[79.83949,8.33394],[79.83951,8.33411],[79.83956,8.33433],[79.83956,8.33465],[79.83953,8.33503],[79.83951,8.33524],[79.83946,8.33548],[79.83941,8.33559],[79.83932,8.33575],[79.83919,8.33608],[79.83911,8.33631],[79.83904,8.3364],[79.83899,8.33652],[79.83896,8.33658],[79.83895,8.33667],[79.83893,8.33677],[79.83888,8.33697],[79.83875,8.33721],[79.83855,8.33752],[79.83821,8.33795],[79.83789,8.33833],[79.83769,8.33852],[79.8374,8.33875],[79.8372,8.33884],[79.83717,8.33889],[79.83717,8.33896],[79.8372,8.33904],[79.83726,8.33915],[79.83736,8.33931],[79.8375,8.33955],[79.8376,8.33986],[79.83761,8.34001],[79.83759,8.34018],[79.83756,8.34034],[79.83747,8.34055],[79.83737,8.34075],[79.83725,8.34102],[79.83723,8.34121],[79.83724,8.34141],[79.83731,8.34171],[79.83741,8.342],[79.83748,8.34217],[79.83756,8.34231],[79.83782,8.34275],[79.83792,8.34293],[79.83794,8.34304],[79.83798,8.34318],[79.83802,8.34334],[79.83812,8.34357],[79.83879,8.34502],[79.83915,8.34575],[79.83944,8.34612],[79.83965,8.34635],[79.8399,8.3465],[79.84012,8.34661],[79.84083,8.34689],[79.8415,8.34726],[79.84198,8.34754],[79.84227,8.34774],[79.84264,8.3481],[79.84317,8.34875],[79.84361,8.34934],[79.84374,8.3495],[79.84391,8.34959],[79.844,8.34964],[79.8444,8.34982],[79.84485,8.34997],[79.84506,8.35006],[79.84537,8.35026],[79.84565,8.35048],[79.84612,8.35093],[79.8462,8.35106],[79.84623,8.35121],[79.84625,8.35141],[79.84626,8.35202],[79.8463,8.35239],[79.8463,8.35268],[79.84627,8.35289],[79.84622,8.35305],[79.84614,8.35321],[79.84607,8.35333],[79.84594,8.35347],[79.84582,8.35367],[79.84571,8.35387],[79.84564,8.35411],[79.84548,8.35486],[79.84539,8.35521],[79.84527,8.35546],[79.84523,8.35558],[79.84524,8.35574],[79.84526,8.35603],[79.84529,8.35635],[79.84536,8.35681],[79.84538,8.35714],[79.84541,8.3574],[79.8454,8.35757],[79.84536,8.35785],[79.84533,8.35801],[79.84535,8.35815],[79.84537,8.35834],[79.84534,8.35857],[79.84528,8.3588],[79.84509,8.35961],[79.84494,8.36036],[79.84484,8.36096],[79.84481,8.36119],[79.84483,8.3613],[79.84491,8.36138],[79.845,8.36144],[79.84507,8.3615],[79.84513,8.36165],[79.84515,8.36175],[79.84515,8.36194],[79.84515,8.36217],[79.8452,8.36234],[79.84527,8.36261],[79.84534,8.36289],[79.84542,8.36312],[79.84542,8.36331],[79.84539,8.36344],[79.8453,8.36369],[79.84522,8.36392],[79.84512,8.36416],[79.84507,8.36433],[79.84504,8.36454],[79.84501,8.36484],[79.84502,8.36505],[79.84505,8.36525],[79.84507,8.36542],[79.84506,8.36575],[79.84504,8.3664],[79.845,8.3668],[79.84494,8.36715],[79.84494,8.36726],[79.84496,8.36744],[79.845,8.36758],[79.84503,8.36773],[79.84503,8.36792],[79.84505,8.36853],[79.84507,8.36878],[79.8451,8.36899],[79.8451,8.36935],[79.8451,8.36977],[79.84506,8.37053],[79.84499,8.37097],[79.84488,8.37124],[79.84481,8.37138],[79.84479,8.37157],[79.8448,8.37167],[79.84487,8.37198],[79.84486,8.37216],[79.84477,8.37244],[79.84474,8.37256],[79.84476,8.37275],[79.84481,8.37293],[79.84481,8.37303],[79.84481,8.37319],[79.84478,8.37343],[79.84474,8.37376],[79.84475,8.37395],[79.84477,8.37413],[79.84482,8.37433],[79.84485,8.37459],[79.84485,8.37482],[79.84486,8.37504],[79.84493,8.3754],[79.84495,8.3756],[79.84494,8.37587],[79.84485,8.3765],[79.84483,8.37663],[79.84485,8.37679],[79.84489,8.37701],[79.84494,8.37725],[79.84497,8.37735],[79.84496,8.37746],[79.8449,8.37758],[79.84481,8.3777],[79.84475,8.3778],[79.84474,8.37792],[79.84479,8.37842],[79.84482,8.37869],[79.84487,8.37887],[79.84501,8.37917],[79.84513,8.37952],[79.84521,8.37974],[79.8453,8.37989],[79.84537,8.38],[79.84543,8.38021],[79.84545,8.38038],[79.84545,8.3806],[79.84544,8.38089],[79.84544,8.38142],[79.8454,8.3817],[79.84536,8.38188],[79.84521,8.38222],[79.84503,8.38274],[79.84492,8.38308],[79.84485,8.38349],[79.84482,8.3839],[79.8448,8.38417],[79.84479,8.38435],[79.84477,8.38456],[79.84474,8.38474],[79.84474,8.38508],[79.84473,8.38531],[79.84474,8.38548],[79.84482,8.38576],[79.84492,8.38604],[79.84497,8.38627],[79.84498,8.3866],[79.84498,8.38687],[79.845,8.38708],[79.84505,8.38724],[79.84522,8.38804],[79.84527,8.38838],[79.84531,8.38866],[79.84537,8.38894],[79.84542,8.38916],[79.84549,8.38953],[79.84549,8.38977],[79.84555,8.38989],[79.84567,8.39001],[79.84578,8.39013],[79.84584,8.39026],[79.84588,8.39043],[79.84588,8.39059],[79.84588,8.39084],[79.84592,8.39127],[79.84594,8.3915],[79.84598,8.39165],[79.84602,8.39181],[79.84604,8.39203],[79.84602,8.39226],[79.84596,8.39249],[79.84572,8.39324],[79.84551,8.39382],[79.84546,8.394],[79.84544,8.39414],[79.8454,8.39443],[79.84534,8.39464],[79.84526,8.39484],[79.84509,8.39508],[79.84494,8.39532],[79.84488,8.39547],[79.84488,8.39564],[79.84485,8.39605],[79.84479,8.39663],[79.84479,8.39686],[79.84483,8.39708],[79.84489,8.39725],[79.84489,8.39751],[79.84486,8.39781],[79.84481,8.398],[79.84472,8.39818],[79.84461,8.39841],[79.84456,8.39859],[79.84456,8.39877],[79.84456,8.39901],[79.84453,8.3993],[79.8445,8.39967],[79.84447,8.40011],[79.84445,8.40034],[79.84448,8.40069],[79.84448,8.401],[79.84448,8.40124],[79.84447,8.40148],[79.8444,8.4019],[79.84438,8.40204],[79.84441,8.40215],[79.84447,8.4023],[79.84456,8.40248],[79.84464,8.40266],[79.84469,8.40297],[79.84468,8.4032],[79.84465,8.40337],[79.84455,8.40361],[79.84444,8.40381],[79.84441,8.40389],[79.84439,8.40403],[79.84431,8.40462],[79.84428,8.40495],[79.84426,8.40517],[79.84428,8.4054],[79.84432,8.40568],[79.84437,8.40592],[79.84439,8.40609],[79.84438,8.40631],[79.84437,8.40658],[79.8443,8.40696],[79.84424,8.40731],[79.84415,8.4078],[79.84411,8.40814],[79.84408,8.40875],[79.84409,8.40892],[79.84414,8.40909],[79.84415,8.40926],[79.84413,8.40949],[79.84404,8.40973],[79.84402,8.40985],[79.84402,8.40995],[79.84406,8.41009],[79.84408,8.41025],[79.84408,8.41038],[79.84408,8.41054],[79.84411,8.41069],[79.84416,8.41089],[79.84418,8.41125],[79.8442,8.41154],[79.84422,8.41172],[79.84427,8.41185],[79.84431,8.41203],[79.84431,8.41224],[79.84426,8.41245],[79.84416,8.41264],[79.84396,8.41293],[79.84383,8.41318],[79.84369,8.41355],[79.84364,8.41374],[79.84363,8.41391],[79.84363,8.41413],[79.84362,8.41428],[79.84356,8.41448],[79.84345,8.41471],[79.8433,8.41499],[79.84325,8.4151],[79.84323,8.41525],[79.84322,8.41538],[79.84321,8.41553],[79.84317,8.41571],[79.8431,8.41597],[79.84294,8.41628],[79.84283,8.41645],[79.84282,8.41655],[79.84283,8.4167],[79.84282,8.41694],[79.84277,8.41746],[79.84277,8.41765],[79.8428,8.41779],[79.84285,8.41805],[79.8429,8.41831],[79.84296,8.41853],[79.84298,8.4187],[79.84298,8.41883],[79.84295,8.4191],[79.84292,8.41932],[79.84292,8.41948],[79.84293,8.41965],[79.84291,8.41993],[79.84291,8.42047],[79.84292,8.4211],[79.84295,8.42125],[79.843,8.42141],[79.84305,8.42156],[79.84308,8.42168],[79.84308,8.42181],[79.84304,8.42193],[79.84299,8.42206],[79.84299,8.42217],[79.84301,8.42226],[79.84305,8.4224],[79.8431,8.42259],[79.84315,8.42281],[79.84317,8.42297],[79.84317,8.42314],[79.84317,8.42329],[79.8432,8.42339],[79.84327,8.4235],[79.8434,8.42368],[79.8436,8.42403],[79.84372,8.42425],[79.8438,8.42443],[79.84388,8.42463],[79.844,8.42506],[79.84408,8.42542],[79.84411,8.42568],[79.84415,8.42581],[79.84423,8.42593],[79.84434,8.42603],[79.84448,8.42614],[79.84457,8.42625],[79.84468,8.42649],[79.84477,8.42669],[79.84485,8.42696],[79.84492,8.42725],[79.84494,8.42745],[79.84494,8.42774],[79.84492,8.4283],[79.84486,8.42872],[79.84479,8.4289],[79.84466,8.42911],[79.84459,8.4293],[79.84459,8.42945],[79.84463,8.42962],[79.84468,8.42973],[79.8448,8.42998],[79.84496,8.43042],[79.84517,8.43114],[79.84544,8.43189],[79.84575,8.43265],[79.84599,8.43336],[79.84629,8.43432],[79.84641,8.43474],[79.84649,8.43496],[79.84659,8.43512],[79.84669,8.43531],[79.8468,8.43558],[79.847,8.43613],[79.84712,8.43638],[79.84737,8.43683],[79.84751,8.43721],[79.8476,8.43744],[79.84764,8.43763],[79.84764,8.43778],[79.84761,8.43795],[79.84744,8.43858],[79.84733,8.4391],[79.84731,8.43935],[79.84734,8.43956],[79.84739,8.43983],[79.84749,8.4405],[79.84752,8.4407],[79.84762,8.44096],[79.84769,8.4411],[79.84776,8.44117],[79.84785,8.44119],[79.84793,8.44115],[79.84792,8.44106],[79.84786,8.44097],[79.8478,8.4409],[79.84772,8.44081],[79.84768,8.44074],[79.84768,8.44066],[79.84772,8.44062],[79.84789,8.44064],[79.84863,8.44092],[79.84961,8.44111],[79.85122,8.44146],[79.85172,8.44161],[79.85211,8.4418],[79.85229,8.44186],[79.85243,8.44188],[79.85253,8.44192],[79.85269,8.44205],[79.85281,8.44216],[79.85292,8.44222],[79.85302,8.44224],[79.85316,8.44222],[79.85329,8.44221],[79.85343,8.44222],[79.85356,8.44228],[79.85393,8.44254],[79.85417,8.44265],[79.85432,8.4427],[79.85452,8.44281],[79.85485,8.44301],[79.85522,8.44324],[79.85565,8.44357],[79.856,8.44392],[79.85624,8.44415],[79.85643,8.44437],[79.85682,8.44484],[79.85699,8.44501],[79.85738,8.44539],[79.85752,8.4455],[79.85775,8.44561],[79.85796,8.44571],[79.8581,8.44581],[79.85817,8.4459],[79.85822,8.44605],[79.85826,8.44621],[79.85829,8.4463],[79.8584,8.4464],[79.85857,8.44649],[79.85898,8.4467],[79.85977,8.44713],[79.86022,8.44735],[79.86042,8.44742],[79.86063,8.4475],[79.86093,8.44769],[79.86125,8.44796],[79.86144,8.44811],[79.86186,8.44846],[79.86215,8.44876],[79.86247,8.44919],[79.86262,8.44951],[79.86268,8.44959],[79.86282,8.44972],[79.8631,8.45001],[79.86347,8.45043],[79.86383,8.45087],[79.86394,8.4511],[79.86406,8.45131],[79.86415,8.45145],[79.86419,8.45154],[79.86441,8.45197],[79.86448,8.45212],[79.86454,8.45224],[79.86456,8.45232],[79.86459,8.45253],[79.86461,8.45266],[79.86466,8.45292],[79.86472,8.45349],[79.86474,8.45374],[79.86471,8.45408],[79.86469,8.45437],[79.86469,8.45461],[79.86465,8.45507],[79.86457,8.4558],[79.86451,8.45624],[79.86449,8.4565],[79.86449,8.45665],[79.8645,8.45675],[79.86452,8.45685],[79.86455,8.45692],[79.86457,8.457],[79.86458,8.4571],[79.86456,8.45726],[79.86453,8.45749],[79.8645,8.45767],[79.86448,8.45785],[79.86446,8.45804],[79.86444,8.45819],[79.86438,8.45854],[79.86422,8.45928],[79.86408,8.45996],[79.86389,8.46077],[79.86381,8.46113],[79.86375,8.46145],[79.86368,8.46176],[79.86363,8.46192],[79.86361,8.46202],[79.8636,8.46217],[79.8636,8.46231],[79.86358,8.46241],[79.86355,8.46252],[79.86351,8.46265],[79.8634,8.46304],[79.8633,8.46331],[79.8632,8.46358],[79.86302,8.4639],[79.86291,8.4641],[79.86288,8.46423],[79.86287,8.46434],[79.86284,8.46448],[79.86281,8.46458],[79.86273,8.46481],[79.86271,8.4649],[79.86271,8.46501],[79.86272,8.46512],[79.86273,8.46527],[79.86274,8.46538],[79.86271,8.46552],[79.86266,8.46569],[79.86256,8.46599],[79.86247,8.46629],[79.86243,8.46643],[79.86242,8.46652],[79.86243,8.46661],[79.86245,8.46673],[79.86246,8.46688],[79.86246,8.46706],[79.86246,8.46718],[79.86244,8.46729],[79.86243,8.46756],[79.86242,8.46783],[79.8624,8.4681],[79.86237,8.46831],[79.86231,8.46866],[79.86227,8.46891],[79.86223,8.4691],[79.86219,8.46922],[79.86219,8.46933],[79.8622,8.46944],[79.86222,8.46955],[79.86223,8.46969],[79.86223,8.47002],[79.86224,8.47023],[79.86229,8.47051],[79.86231,8.47061],[79.86236,8.47068],[79.86242,8.47076],[79.86244,8.47083],[79.86245,8.47091],[79.86246,8.471],[79.86247,8.4712],[79.86248,8.47134],[79.8625,8.47146],[79.86252,8.47153],[79.86254,8.47163],[79.86254,8.47172],[79.86253,8.47182],[79.86253,8.47192],[79.86255,8.47202],[79.86257,8.47207],[79.86261,8.47218],[79.86263,8.4723],[79.86263,8.47241],[79.86261,8.47253],[79.86259,8.47267],[79.86254,8.47281],[79.86241,8.47306],[79.86219,8.47341],[79.86205,8.47359],[79.86202,8.47365],[79.862,8.47372],[79.862,8.47382],[79.862,8.47395],[79.86198,8.47406],[79.86196,8.47418],[79.8619,8.47437],[79.86187,8.47456],[79.86187,8.47478],[79.86189,8.47487],[79.86193,8.47496],[79.86201,8.47507],[79.86206,8.47515],[79.86209,8.47524],[79.86211,8.47535],[79.86212,8.47549],[79.86213,8.47562],[79.86216,8.47572],[79.86222,8.47586],[79.86224,8.47596],[79.86225,8.47608],[79.86228,8.4762],[79.86233,8.47632],[79.86239,8.47642],[79.8625,8.47652],[79.86262,8.47664],[79.86271,8.47672],[79.86277,8.47675],[79.86281,8.47675],[79.86288,8.47671],[79.8629,8.47667],[79.86291,8.47663],[79.86288,8.47655],[79.86278,8.47649],[79.86273,8.4764],[79.86271,8.47629],[79.8627,8.47619],[79.86273,8.47611],[79.86279,8.47609],[79.86287,8.47609],[79.86299,8.47616],[79.86316,8.47627],[79.86335,8.47645],[79.86354,8.47665],[79.8637,8.47687],[79.86378,8.477],[79.86392,8.47721],[79.86414,8.47755],[79.86429,8.47784],[79.86435,8.47796],[79.86442,8.47806],[79.8645,8.47815],[79.86458,8.47831],[79.86464,8.4785],[79.86467,8.47865],[79.86471,8.47878],[79.86474,8.47889],[79.86482,8.47938],[79.86484,8.47958],[79.86488,8.4797],[79.86495,8.47982],[79.86502,8.47991],[79.86507,8.48001],[79.8651,8.48011],[79.86511,8.48022],[79.86514,8.48034],[79.86523,8.48057],[79.86528,8.48078],[79.86531,8.48091],[79.86534,8.48111],[79.86534,8.48126],[79.86534,8.48139],[79.86538,8.48153],[79.8654,8.48176],[79.86542,8.48188],[79.86546,8.48199],[79.86551,8.48206],[79.86552,8.48212],[79.86552,8.48223],[79.86551,8.48244],[79.86551,8.48255],[79.86552,8.48271],[79.86554,8.48286],[79.86555,8.483],[79.86555,8.48316],[79.86553,8.48329],[79.86554,8.48341],[79.86554,8.48366],[79.8655,8.4839],[79.86543,8.48408],[79.8654,8.48422],[79.86541,8.4844],[79.86544,8.48461],[79.86547,8.48488],[79.86555,8.48534],[79.86566,8.48588],[79.86567,8.48615],[79.86565,8.48634],[79.86568,8.48653],[79.86572,8.48668],[79.8658,8.48688],[79.86586,8.4871],[79.86588,8.48727],[79.86586,8.4875],[79.86582,8.48776],[79.86578,8.48806],[79.86575,8.48842],[79.86572,8.48863],[79.86564,8.48888],[79.86539,8.4895],[79.86529,8.48978],[79.86529,8.48994],[79.8653,8.49007],[79.86535,8.49026],[79.86539,8.49048],[79.86546,8.4907],[79.86557,8.49097],[79.86574,8.49127],[79.86578,8.49143],[79.86577,8.4916],[79.86572,8.49179],[79.86556,8.49205],[79.86549,8.49221],[79.86549,8.49238],[79.86553,8.49263],[79.86557,8.49292],[79.86555,8.49335],[79.86553,8.49356],[79.86547,8.49372],[79.86539,8.49382],[79.86531,8.49395],[79.8653,8.49408],[79.86532,8.4942],[79.86537,8.49428],[79.86544,8.4944],[79.86547,8.49452],[79.86548,8.49468],[79.86545,8.49483],[79.86536,8.49512],[79.86531,8.49538],[79.86526,8.4957],[79.8652,8.49606],[79.86517,8.4963],[79.86518,8.49652],[79.8652,8.49676],[79.86529,8.49724],[79.86534,8.49757],[79.86542,8.49778],[79.86556,8.49802],[79.86576,8.49834],[79.86586,8.49857],[79.86591,8.49875],[79.86593,8.49887],[79.86595,8.49902],[79.86598,8.49912],[79.86603,8.49924],[79.86615,8.49942],[79.86631,8.4996],[79.86643,8.49978],[79.8665,8.49996],[79.86658,8.50026],[79.86663,8.5005],[79.86667,8.50098],[79.86668,8.5014],[79.86665,8.50204],[79.86664,8.50287],[79.86666,8.50319],[79.86671,8.50346],[79.86679,8.50366],[79.86689,8.50391],[79.86694,8.50404],[79.86696,8.50416],[79.86696,8.50428],[79.86694,8.50442],[79.86694,8.50457],[79.86699,8.50471],[79.86705,8.50486],[79.8671,8.50504],[79.86713,8.50518],[79.86715,8.5054],[79.86716,8.50561],[79.86718,8.50583],[79.86724,8.50632],[79.86731,8.50681],[79.86731,8.50704],[79.86733,8.50717],[79.86736,8.50732],[79.86736,8.50751],[79.86733,8.50782],[79.86733,8.50793],[79.86736,8.50808],[79.86738,8.50843],[79.86734,8.50867],[79.86728,8.5089],[79.86709,8.50939],[79.86695,8.50993],[79.86686,8.51013],[79.86681,8.51031],[79.86682,8.51044],[79.86683,8.51052],[79.86688,8.51062],[79.86692,8.51071],[79.86694,8.51084],[79.86694,8.51092],[79.8669,8.51111],[79.86689,8.51123],[79.86692,8.51134],[79.86696,8.51147],[79.86704,8.5119],[79.86711,8.5124],[79.86713,8.51255],[79.86717,8.51268],[79.86732,8.51308],[79.86741,8.51346],[79.86745,8.51383],[79.86746,8.51412],[79.86744,8.51435],[79.86738,8.51454],[79.86731,8.51481],[79.86722,8.51517],[79.86719,8.51533],[79.86719,8.51557],[79.86715,8.51615],[79.86706,8.51656],[79.86706,8.51672],[79.86706,8.51683],[79.8671,8.51696],[79.86718,8.51714],[79.86729,8.51733],[79.86741,8.51745],[79.86764,8.51766],[79.86778,8.51781],[79.86786,8.51797],[79.86802,8.51831],[79.86815,8.51861],[79.86827,8.51878],[79.86837,8.51896],[79.86845,8.51915],[79.8685,8.51948],[79.86852,8.51991],[79.86852,8.52022],[79.86848,8.52056],[79.86846,8.52076],[79.86843,8.52109],[79.86838,8.52136],[79.86832,8.52158],[79.86825,8.52176],[79.86818,8.52197],[79.86817,8.52218],[79.86824,8.52241],[79.86839,8.52273],[79.86847,8.52297],[79.86851,8.52317],[79.86855,8.52338],[79.86856,8.52363],[79.86859,8.52387],[79.86863,8.52406],[79.86873,8.52434],[79.86892,8.52477],[79.86903,8.52498],[79.86907,8.52527],[79.86905,8.52548],[79.86907,8.52562],[79.86912,8.52574],[79.8692,8.52584],[79.8693,8.526],[79.86932,8.52606],[79.8693,8.52616],[79.86924,8.52638],[79.86914,8.52663],[79.86904,8.52681],[79.86895,8.52692],[79.86889,8.52697],[79.86883,8.52697],[79.86882,8.52698],[79.86882,8.527],[79.86885,8.52704],[79.86888,8.5271],[79.86888,8.52719],[79.86887,8.52727],[79.86883,8.52732],[79.86877,8.52736],[79.86864,8.5274],[79.86861,8.52744],[79.86861,8.52749],[79.86863,8.52757],[79.86867,8.52773],[79.86872,8.52794],[79.86873,8.5283],[79.86871,8.52863],[79.86872,8.52907],[79.86874,8.52933],[79.86872,8.52946],[79.86869,8.5296],[79.86866,8.5297],[79.86866,8.52975],[79.86866,8.52978],[79.86868,8.52982],[79.86872,8.52986],[79.86878,8.5299],[79.86889,8.52998],[79.86896,8.53006],[79.86902,8.53016],[79.86918,8.53052],[79.86923,8.53063],[79.86933,8.53078],[79.86941,8.53092],[79.86944,8.53106],[79.86948,8.53123],[79.86954,8.53149],[79.86953,8.53163],[79.86955,8.5318],[79.86963,8.53195],[79.86972,8.53209],[79.8698,8.53226],[79.86983,8.5325],[79.86987,8.5328],[79.86989,8.53299],[79.8699,8.53304],[79.8699,8.53312],[79.86987,8.53325],[79.86985,8.53333],[79.86985,8.53339],[79.86985,8.53348],[79.86992,8.53362],[79.87007,8.5338],[79.87012,8.53392],[79.87013,8.53405],[79.8701,8.53417],[79.87011,8.53426],[79.87014,8.53438],[79.87027,8.53463],[79.87037,8.53483],[79.87052,8.53537],[79.87061,8.53564],[79.87067,8.53591],[79.8708,8.53624],[79.8709,8.53645],[79.87104,8.53668],[79.87111,8.53683],[79.87126,8.53711],[79.87142,8.53739],[79.87157,8.53761],[79.87179,8.53787],[79.87212,8.53832],[79.87224,8.53856],[79.87235,8.53884],[79.87239,8.53897],[79.87256,8.53918],[79.87268,8.53937],[79.87274,8.53944],[79.8728,8.53948],[79.87291,8.53951],[79.87295,8.53953],[79.87298,8.53956],[79.87301,8.53957],[79.87303,8.53956],[79.87306,8.53951],[79.87311,8.53948],[79.87316,8.53948],[79.87321,8.53949],[79.87335,8.53955],[79.87353,8.53967],[79.87371,8.53979],[79.8738,8.53987],[79.87386,8.53996],[79.87391,8.54004],[79.87395,8.54007],[79.87409,8.54012],[79.87423,8.54021],[79.87427,8.54024],[79.87431,8.54024],[79.8744,8.54022],[79.87451,8.54022],[79.87455,8.54019],[79.87459,8.54013],[79.87466,8.53997],[79.87469,8.5399],[79.87472,8.53981],[79.87472,8.53972],[79.87474,8.53962],[79.87475,8.53958],[79.8748,8.5395],[79.87491,8.53935],[79.875,8.53919],[79.87506,8.53899],[79.87518,8.5385],[79.87532,8.53799],[79.87545,8.53773],[79.87567,8.53752],[79.87598,8.53731],[79.87609,8.53724],[79.87629,8.53713],[79.87654,8.537],[79.8768,8.53687],[79.87744,8.53666],[79.87874,8.53638],[79.88011,8.53625],[79.88053,8.53625],[79.88152,8.53633],[79.88224,8.5364],[79.8838,8.53676],[79.88408,8.53687],[79.88427,8.53691],[79.88439,8.53687],[79.88453,8.53679],[79.88462,8.53676],[79.88472,8.53674],[79.88491,8.53679],[79.88536,8.53706],[79.88607,8.53741],[79.88685,8.53775],[79.88725,8.53795],[79.88751,8.53803],[79.88758,8.53807],[79.88762,8.53808],[79.88765,8.53807],[79.88767,8.53801],[79.88769,8.53798],[79.88774,8.53792],[79.88791,8.53792],[79.88808,8.53787],[79.88821,8.53783],[79.88839,8.53791],[79.88851,8.53799],[79.88873,8.5381],[79.88893,8.53821],[79.88914,8.53828],[79.88942,8.53843],[79.88968,8.53856],[79.89,8.53874],[79.89057,8.53917],[79.89081,8.53938],[79.89113,8.5397],[79.89122,8.53982],[79.89133,8.53988],[79.89143,8.53996],[79.89155,8.54002],[79.89162,8.54003],[79.89173,8.54005],[79.89189,8.54005],[79.89203,8.54006],[79.8922,8.54005],[79.89225,8.54003],[79.89231,8.54],[79.89237,8.54001],[79.89242,8.54002],[79.89249,8.54005],[79.89253,8.54008],[79.89256,8.5401],[79.89261,8.54011],[79.89267,8.54009],[79.89273,8.54005],[79.89279,8.53998],[79.89285,8.53996],[79.89291,8.53996],[79.89295,8.53996],[79.89299,8.53993],[79.89303,8.53991],[79.89307,8.5399],[79.89309,8.53994],[79.89312,8.53995],[79.89317,8.53996],[79.89323,8.53997],[79.89327,8.53995],[79.89329,8.53993],[79.89335,8.53992],[79.89347,8.53992],[79.8936,8.53995],[79.89371,8.54001],[79.89388,8.54003],[79.89409,8.54009],[79.89431,8.5402],[79.89449,8.54031],[79.8946,8.54043],[79.89477,8.54053],[79.89502,8.54067],[79.89511,8.54074],[79.89526,8.54079],[79.89549,8.5409],[79.89566,8.541],[79.89588,8.54109],[79.896,8.54115],[79.89609,8.54116],[79.89614,8.54114],[79.89621,8.54113],[79.89626,8.54113],[79.89628,8.54118],[79.89631,8.54121],[79.89634,8.54125],[79.8964,8.54128],[79.89646,8.54128],[79.89652,8.54127],[79.8966,8.54129],[79.8967,8.54134],[79.89679,8.54141],[79.89689,8.54146],[79.89703,8.54151],[79.89716,8.54158],[79.89732,8.54171],[79.89754,8.54191],[79.8977,8.54208],[79.89777,8.54219],[79.89786,8.5423],[79.89803,8.5424],[79.89817,8.54252],[79.89833,8.54265],[79.89855,8.54282],[79.89874,8.54297],[79.8989,8.54312],[79.89908,8.54328],[79.89914,8.54336],[79.89918,8.54338],[79.89922,8.54339],[79.89926,8.5434],[79.8993,8.54342],[79.89935,8.54346],[79.8994,8.54349],[79.89948,8.54352],[79.89958,8.5436],[79.89965,8.54367],[79.89984,8.54393],[79.90002,8.54418],[79.90016,8.5443],[79.90032,8.54441],[79.9004,8.54446],[79.90048,8.54453],[79.90058,8.54469],[79.90092,8.54523],[79.90108,8.54553],[79.90113,8.54568],[79.90114,8.54575],[79.90113,8.5458],[79.90117,8.5459],[79.90118,8.54598],[79.90119,8.54603],[79.90126,8.54605],[79.90131,8.54606],[79.90133,8.54606],[79.90134,8.54603],[79.90132,8.54602],[79.90128,8.546],[79.90126,8.54598],[79.90125,8.54597],[79.90126,8.54594],[79.90126,8.54592],[79.90129,8.54591],[79.90133,8.54591],[79.90138,8.54586],[79.90147,8.54582],[79.90149,8.54578],[79.90149,8.5457],[79.9015,8.54562],[79.90153,8.54555],[79.90161,8.54548],[79.90184,8.54547],[79.90213,8.54558],[79.90234,8.54571],[79.90253,8.54586],[79.90272,8.54603],[79.90287,8.5462],[79.90294,8.54631],[79.90301,8.54639],[79.90307,8.54644],[79.90322,8.54655],[79.90333,8.54667],[79.90347,8.54678],[79.90356,8.54686],[79.90366,8.54692],[79.90376,8.54693],[79.90393,8.5469],[79.90406,8.54686],[79.9042,8.54683],[79.9043,8.5468],[79.90444,8.54683],[79.90465,8.54687],[79.90502,8.54693],[79.90521,8.54696],[79.90536,8.54706],[79.90546,8.54717],[79.90566,8.54736],[79.90602,8.54765],[79.90632,8.54792],[79.90662,8.54818],[79.90678,8.54832],[79.90697,8.54836],[79.90726,8.54842],[79.9075,8.54838],[79.90775,8.54832],[79.90807,8.54833],[79.90823,8.54831],[79.90857,8.54822],[79.90869,8.54815],[79.90876,8.54811],[79.90888,8.54809],[79.909,8.54812],[79.90918,8.54816],[79.90931,8.54824],[79.90938,8.54826],[79.90948,8.54823],[79.90961,8.54825],[79.9097,8.5483],[79.90979,8.54837],[79.90989,8.54843],[79.90998,8.54847],[79.91011,8.54847],[79.91023,8.54842],[79.91037,8.54838],[79.91053,8.54835],[79.91069,8.5483],[79.91076,8.54822],[79.91081,8.54815],[79.91091,8.54811],[79.9111,8.5481],[79.91128,8.54811],[79.91142,8.54816],[79.91151,8.54818],[79.91163,8.54816],[79.91177,8.54815],[79.91193,8.54813],[79.91205,8.54812],[79.91211,8.54809],[79.91215,8.54808],[79.91222,8.54802],[79.91229,8.54794],[79.91234,8.54787],[79.91239,8.54782],[79.91251,8.54778],[79.91273,8.54779],[79.91299,8.54784],[79.91345,8.54806],[79.91361,8.54819],[79.91376,8.54834],[79.91379,8.54837],[79.91381,8.54837],[79.91384,8.54836],[79.91385,8.54834],[79.91388,8.54833],[79.91396,8.54834],[79.91403,8.54837],[79.91416,8.54842],[79.91427,8.54848],[79.91431,8.54855],[79.91434,8.54858],[79.91446,8.54865],[79.91454,8.54867],[79.91462,8.54865],[79.9147,8.54862],[79.91484,8.54859],[79.91505,8.54863],[79.91529,8.54881],[79.91551,8.54906],[79.9158,8.54937],[79.91616,8.54978],[79.91654,8.55021],[79.91683,8.55056],[79.91705,8.55085],[79.9172,8.55104],[79.91743,8.55138],[79.91773,8.55186],[79.91793,8.55223],[79.91815,8.55263],[79.91842,8.55318],[79.91884,8.55415],[79.91898,8.5546],[79.91908,8.55488],[79.91916,8.55526],[79.9193,8.55576],[79.91951,8.55665],[79.91971,8.55777],[79.91982,8.55863],[79.91986,8.55899],[79.91989,8.55935],[79.91988,8.5596],[79.91989,8.55978],[79.91989,8.56005],[79.91985,8.56039],[79.91977,8.56074],[79.91969,8.56103],[79.91957,8.56163],[79.9195,8.56224],[79.91943,8.56262],[79.91939,8.56295],[79.9194,8.56307],[79.91953,8.56316],[79.91957,8.56324],[79.91959,8.56338],[79.91957,8.56379],[79.9196,8.56395],[79.91963,8.56427],[79.91965,8.56434],[79.91971,8.56463],[79.91975,8.56495],[79.91977,8.56519],[79.91981,8.56582],[79.91982,8.56623],[79.92271,8.56535],[79.92331,8.56526],[79.9239,8.56553],[79.92457,8.56597],[79.92529,8.5663],[79.9258,8.56633],[79.92663,8.5661],[79.92734,8.56579],[79.92826,8.56513],[79.92897,8.56481],[79.93011,8.56412],[79.93054,8.56359],[79.93068,8.56286],[79.93068,8.56205],[79.93085,8.5611],[79.93109,8.56017],[79.93135,8.55957],[79.93166,8.55912],[79.93248,8.55829],[79.93296,8.55785],[79.93335,8.55769],[79.93386,8.55765],[79.9343,8.55765],[79.9347,8.5576],[79.93503,8.55754],[79.9353,8.55744],[79.93547,8.55729],[79.93557,8.5571],[79.93566,8.55688],[79.93574,8.55669],[79.93589,8.5565],[79.93605,8.55636],[79.93623,8.55627],[79.93647,8.55619],[79.93812,8.55594],[79.93845,8.5559],[79.93873,8.55588],[79.93918,8.55588],[79.9394,8.55596],[79.93955,8.55611],[79.93973,8.55642],[79.93993,8.55669],[79.94033,8.55712],[79.94065,8.55742],[79.94095,8.55766],[79.94116,8.55779],[79.94147,8.5579],[79.94177,8.55799],[79.94206,8.55805],[79.94231,8.55812],[79.94253,8.55811],[79.94274,8.55807],[79.94294,8.558],[79.94338,8.55781],[79.94362,8.55776],[79.94386,8.55777],[79.94456,8.55791],[79.94488,8.55803],[79.94503,8.55813],[79.94513,8.55825],[79.9452,8.55846],[79.94519,8.55864],[79.94516,8.559],[79.94518,8.55919],[79.94525,8.55937],[79.94535,8.55949],[79.94556,8.55966],[79.94576,8.55977],[79.94599,8.55985],[79.9462,8.55993],[79.94638,8.56005],[79.94651,8.56019],[79.94665,8.56032],[79.94687,8.56047],[79.94703,8.56051],[79.94723,8.5605],[79.94756,8.56043],[79.94792,8.56032],[79.94825,8.56021],[79.94851,8.56016],[79.94866,8.5601],[79.94881,8.56002],[79.9489,8.55993],[79.94897,8.55983],[79.94901,8.55971],[79.94902,8.55957],[79.94904,8.55945],[79.94908,8.55924],[79.94913,8.55911],[79.94918,8.55883],[79.94922,8.55847],[79.94928,8.55826],[79.94943,8.55796],[79.94985,8.55731],[79.95011,8.55698],[79.95042,8.55664],[79.95095,8.55621],[79.95152,8.55583],[79.95191,8.55559],[79.95218,8.55538],[79.95236,8.55522],[79.95253,8.55503],[79.9528,8.55473],[79.95301,8.55447],[79.9536,8.55386],[79.95406,8.55337],[79.95461,8.55287],[79.95495,8.55261],[79.9551,8.55248],[79.95526,8.55237],[79.95548,8.55226],[79.95585,8.55215],[79.95628,8.55207],[79.95665,8.55203],[79.95724,8.55204],[79.95802,8.55211],[79.95869,8.55213],[79.95915,8.55208],[79.9595,8.55199],[79.96024,8.55158],[79.96076,8.55139],[79.96146,8.55118],[79.96235,8.5509],[79.96305,8.55075],[79.96345,8.55068],[79.96446,8.55058],[79.96493,8.5505],[79.9656,8.55041],[79.96624,8.5504],[79.96681,8.5504],[79.96726,8.55045],[79.9677,8.55056],[79.96831,8.55077],[79.96875,8.55093],[79.9693,8.55119],[79.96984,8.55149],[79.97026,8.55169],[79.97111,8.55205],[79.97175,8.55223],[79.97234,8.55238],[79.97292,8.55252],[79.97342,8.55263],[79.97383,8.55268],[79.97404,8.55273],[79.97441,8.5528],[79.97487,8.55296],[79.97532,8.55306],[79.97573,8.55304],[79.97594,8.55303],[79.97688,8.55289],[79.97752,8.55277],[79.97802,8.55259],[79.9784,8.55233],[79.97898,8.55197],[79.97953,8.55166],[79.97997,8.55141],[79.98052,8.55098],[79.98101,8.55057],[79.98157,8.55002],[79.98207,8.54956],[79.9826,8.54911],[79.98306,8.54873],[79.98381,8.54804],[79.98435,8.54761],[79.98486,8.54711],[79.98542,8.54651],[79.98574,8.54614],[79.98609,8.54574],[79.98639,8.54548],[79.98687,8.54514],[79.98718,8.54478],[79.98754,8.5444],[79.98802,8.54403],[79.98843,8.54378],[79.9886,8.54369],[79.98924,8.54344],[79.99007,8.5433],[79.99077,8.54339],[79.99163,8.54373],[79.99223,8.5441],[79.99291,8.54452],[79.99339,8.54478],[79.99378,8.54494],[79.99401,8.54516],[79.99422,8.54544],[79.99441,8.54556],[79.99506,8.54585],[79.99563,8.54601],[79.99615,8.54615],[79.99679,8.54624],[79.99724,8.54623],[79.99771,8.54626],[79.9982,8.54624],[79.99875,8.54618],[79.9993,8.54606],[80.00052,8.54557],[80.00111,8.54533],[80.00178,8.54498],[80.00315,8.54429],[80.00405,8.54386],[80.00461,8.54347],[80.00498,8.54311],[80.00518,8.5428],[80.00537,8.54217],[80.00553,8.54178],[80.00593,8.5411],[80.00615,8.54062],[80.00622,8.54024],[80.00631,8.53957],[80.00657,8.53886],[80.00687,8.53821],[80.00709,8.53769],[80.00717,8.5374],[80.00729,8.53699],[80.00741,8.53655],[80.00761,8.5362],[80.00783,8.53593],[80.00792,8.53587],[80.00809,8.53586],[80.00852,8.53602],[80.00883,8.53606],[80.00907,8.53612],[80.0092,8.53624],[80.00935,8.53635],[80.00946,8.53637],[80.00954,8.53632],[80.00958,8.53624],[80.00962,8.5358],[80.0096,8.53559],[80.00958,8.53537],[80.00952,8.53521],[80.00948,8.53502],[80.00952,8.5349],[80.00962,8.53475],[80.00996,8.53451],[80.01029,8.53435],[80.01067,8.53432],[80.011,8.53431],[80.01127,8.53426],[80.01152,8.53417],[80.01181,8.53404],[80.01216,8.53382],[80.01232,8.53375],[80.0125,8.5337],[80.01271,8.53361],[80.01285,8.5335],[80.01298,8.53339],[80.01314,8.53333],[80.0134,8.53333],[80.01372,8.53333],[80.014,8.53337],[80.01428,8.53334],[80.01451,8.5333],[80.01504,8.53312],[80.01537,8.53307],[80.01566,8.53306],[80.01589,8.53306],[80.01614,8.53304],[80.01642,8.533],[80.01674,8.53298],[80.01694,8.533],[80.01769,8.53298],[80.01811,8.5329],[80.01854,8.53274],[80.01891,8.53258],[80.01926,8.5325],[80.01961,8.53246],[80.01998,8.53245],[80.02028,8.53239],[80.02092,8.53213],[80.02132,8.53196],[80.02186,8.53172],[80.02245,8.5314],[80.023,8.53107],[80.02335,8.53088],[80.02355,8.53073],[80.02383,8.53057],[80.02418,8.53035],[80.02446,8.53017],[80.02485,8.52995],[80.02522,8.52978],[80.02554,8.52966],[80.02584,8.52953],[80.02616,8.52936],[80.0264,8.52919],[80.0267,8.52901],[80.02685,8.52895],[80.02713,8.5289],[80.02743,8.52888],[80.02761,8.52886],[80.02785,8.5288],[80.02805,8.52871],[80.02817,8.52862],[80.02839,8.5285],[80.02869,8.52833],[80.02894,8.52826],[80.02922,8.5282],[80.02947,8.52814],[80.02971,8.52807],[80.02998,8.52796],[80.0306,8.52774],[80.03099,8.52759],[80.03142,8.52739],[80.03188,8.52712],[80.0322,8.52694],[80.03233,8.52686],[80.03282,8.52653],[80.03304,8.52637],[80.0334,8.52616],[80.03367,8.526],[80.03382,8.52595],[80.03403,8.5259],[80.0343,8.52592],[80.03466,8.52602],[80.03505,8.52605],[80.03548,8.52612],[80.03585,8.52611],[80.03628,8.52608],[80.03689,8.52603],[80.0373,8.5259],[80.03763,8.52577],[80.03795,8.52567],[80.03824,8.52561],[80.03858,8.52558],[80.03875,8.52553],[80.03951,8.5251],[80.0399,8.52494],[80.04032,8.5248],[80.0407,8.52468],[80.04102,8.52458],[80.04142,8.52445],[80.04168,8.52442],[80.04201,8.52442],[80.04247,8.52447],[80.04275,8.52453],[80.04313,8.52457],[80.04347,8.52466],[80.04384,8.52472],[80.04423,8.52483],[80.0445,8.52496],[80.04507,8.52515],[80.04547,8.52527],[80.04606,8.52537],[80.04641,8.52538],[80.0469,8.52536],[80.04713,8.52531],[80.04741,8.5253],[80.04763,8.52532],[80.04786,8.52537],[80.04809,8.52539],[80.04834,8.52539],[80.04852,8.52535],[80.04875,8.52532],[80.04906,8.52529],[80.04924,8.52526],[80.0495,8.5252],[80.04968,8.52515],[80.04987,8.52506],[80.05004,8.52498],[80.05023,8.52501],[80.05029,8.52509],[80.05018,8.52623],[80.05035,8.52838],[80.05034,8.52953],[80.05029,8.53006],[80.05054,8.53382],[80.0507,8.5355],[80.05067,8.53642],[80.0505,8.53786],[80.05049,8.54028],[80.05056,8.54184],[80.05049,8.54324],[80.05051,8.54457],[80.05043,8.54599],[80.05052,8.54728],[80.05042,8.54941],[80.05052,8.55056],[80.05061,8.55109],[80.0508,8.55164],[80.05108,8.55357],[80.05143,8.55684],[80.05147,8.5583],[80.0516,8.56042],[80.05162,8.56405],[80.05167,8.56494],[80.05213,8.56885],[80.05219,8.56988],[80.05218,8.57213],[80.05226,8.57418],[80.05225,8.57642],[80.05217,8.57759],[80.05188,8.57911],[80.05177,8.58014],[80.05179,8.58294],[80.0519,8.58375],[80.05166,8.58625],[80.05149,8.58714],[80.05145,8.58774],[80.05168,8.5918],[80.05164,8.59265],[80.05168,8.59392],[80.0517,8.59428],[80.05199,8.59585],[80.05208,8.5966],[80.052,8.59837],[80.05212,8.59961],[80.05236,8.6014],[80.05253,8.60226],[80.05264,8.60324],[80.05271,8.60485],[80.05268,8.60567],[80.05394,8.61019],[80.05396,8.61246],[80.05409,8.61426],[80.05493,8.62381],[80.05508,8.62762],[80.05512,8.63133],[80.05531,8.63699],[80.05507,8.63881],[80.05377,8.64239],[80.05306,8.64404],[80.05239,8.64575],[80.05186,8.64766],[80.05168,8.64862],[80.0515,8.64959],[80.05045,8.65314],[80.04998,8.65491],[80.0487,8.65845],[80.04691,8.66421],[80.04504,8.66962],[80.04456,8.67145],[80.04346,8.67473],[80.04366,8.67473],[80.04382,8.67471],[80.04401,8.67467],[80.04422,8.67457],[80.04443,8.67443],[80.04464,8.67431],[80.04493,8.67425],[80.04519,8.67425],[80.04552,8.6743],[80.04583,8.6743],[80.04611,8.67428],[80.0463,8.67424],[80.04648,8.67407],[80.0466,8.67379],[80.04671,8.67362],[80.04689,8.67344],[80.047,8.67339],[80.04731,8.67323],[80.04756,8.6731],[80.04776,8.67295],[80.04794,8.67262],[80.04822,8.67198],[80.04839,8.67161],[80.0485,8.67137],[80.04863,8.67122],[80.04879,8.67112],[80.04901,8.67101],[80.04925,8.67091],[80.04938,8.67076],[80.04946,8.6706],[80.0496,8.6703],[80.04967,8.67013],[80.04982,8.67003],[80.05004,8.67],[80.05025,8.67003],[80.05043,8.67009],[80.0506,8.67019],[80.05081,8.67025],[80.05105,8.67025],[80.05133,8.67023],[80.05165,8.67018],[80.05203,8.67018],[80.05219,8.67021],[80.0524,8.67024],[80.05274,8.67022],[80.05296,8.67018],[80.05325,8.66996],[80.05342,8.66982],[80.05367,8.66971],[80.05386,8.66966],[80.05407,8.66963],[80.05426,8.66956],[80.05446,8.66937],[80.05477,8.66898],[80.05514,8.66866],[80.05547,8.66848],[80.05571,8.66841],[80.05595,8.66842],[80.05614,8.66846],[80.05637,8.66847],[80.05664,8.66843],[80.05699,8.66832],[80.05729,8.66816],[80.05756,8.66795],[80.05779,8.66777],[80.05796,8.66759],[80.05822,8.66748],[80.05851,8.66726],[80.05872,8.66695],[80.05881,8.66671],[80.05891,8.66659],[80.059,8.66654],[80.05918,8.66656],[80.05946,8.66663],[80.05967,8.66665],[80.05985,8.66659],[80.06001,8.66648],[80.06012,8.66633],[80.0602,8.66621],[80.06035,8.66609],[80.06049,8.66602],[80.06068,8.66599],[80.06095,8.66596],[80.06115,8.66589],[80.06129,8.66571],[80.06138,8.66551],[80.06143,8.66526],[80.06149,8.66506],[80.06161,8.66486],[80.06187,8.6646],[80.06206,8.66437],[80.06228,8.66422],[80.06253,8.66405],[80.06275,8.66395],[80.06289,8.66383],[80.06293,8.66369],[80.06287,8.66357],[80.06275,8.66345],[80.06261,8.66333],[80.06256,8.66321],[80.06253,8.66307],[80.06252,8.66292],[80.06246,8.66284],[80.06236,8.66261],[80.06229,8.66243],[80.06229,8.66228],[80.06236,8.66208],[80.06246,8.66198],[80.06261,8.66194],[80.06277,8.66195],[80.06288,8.6621],[80.06294,8.66229],[80.06295,8.6624],[80.06304,8.66252],[80.06312,8.66259],[80.06322,8.66259],[80.06339,8.66253],[80.06348,8.66246],[80.06351,8.66235],[80.0635,8.66221],[80.06344,8.66203],[80.06342,8.66184],[80.06347,8.66167],[80.06356,8.66162],[80.06365,8.66161],[80.06375,8.66162],[80.06386,8.66162],[80.064,8.66165],[80.06414,8.66164],[80.06426,8.6616],[80.06436,8.66149],[80.06446,8.66136],[80.06456,8.66126],[80.06474,8.6612],[80.06487,8.66117],[80.06507,8.66113],[80.0652,8.66112],[80.06533,8.66108],[80.06541,8.661],[80.0655,8.66081],[80.06564,8.66059],[80.06578,8.66043],[80.0659,8.66037],[80.06601,8.66038],[80.06614,8.66044],[80.06629,8.66051],[80.06641,8.66057],[80.06653,8.66059],[80.06668,8.66057],[80.06679,8.66053],[80.06692,8.66048],[80.06699,8.66045],[80.06708,8.66045],[80.0672,8.66053],[80.06729,8.66062],[80.06743,8.6608],[80.06754,8.66099],[80.06767,8.66108],[80.06783,8.66108],[80.06791,8.66104],[80.06797,8.66094],[80.06804,8.66083],[80.06813,8.66074],[80.06821,8.66068],[80.06836,8.66067],[80.06856,8.66068],[80.06879,8.6607],[80.06893,8.66073],[80.06902,8.66078],[80.06909,8.66087],[80.06913,8.66096],[80.06917,8.66109],[80.06922,8.66123],[80.06931,8.66133],[80.06942,8.66141],[80.06957,8.66145],[80.06975,8.66145],[80.0699,8.66138],[80.07004,8.66128],[80.07016,8.66116],[80.07029,8.66102],[80.07054,8.66079],[80.07072,8.66061],[80.07095,8.66047],[80.07115,8.66041],[80.07135,8.66038],[80.07157,8.66034],[80.07181,8.66033],[80.072,8.66029],[80.07224,8.66025],[80.07242,8.66016],[80.07258,8.66001],[80.07273,8.6598],[80.07292,8.65958],[80.07321,8.6593],[80.07346,8.65909],[80.07366,8.65893],[80.07389,8.65883],[80.07411,8.65878],[80.0742,8.65876],[80.07435,8.65868],[80.07448,8.65854],[80.07468,8.65836],[80.07476,8.6583],[80.07487,8.65827],[80.0751,8.65824],[80.07524,8.65816],[80.07539,8.65804],[80.0755,8.65793],[80.07566,8.65788],[80.07581,8.65787],[80.076,8.65787],[80.07621,8.65781],[80.07647,8.65773],[80.0767,8.6576],[80.07676,8.65748],[80.07678,8.65734],[80.07675,8.65704],[80.07672,8.65686],[80.0767,8.65665],[80.07671,8.65652],[80.07679,8.65641],[80.07691,8.65638],[80.07711,8.65638],[80.07727,8.65637],[80.0774,8.65633],[80.07752,8.65625],[80.07757,8.65617],[80.07766,8.6561],[80.07778,8.65608],[80.07789,8.65607],[80.07794,8.65614],[80.07794,8.65623],[80.07793,8.65636],[80.07794,8.65644],[80.07798,8.65651],[80.0781,8.65654],[80.07823,8.65654],[80.07837,8.65653],[80.07853,8.65652],[80.07865,8.65649],[80.07874,8.65641],[80.07881,8.65625],[80.0788,8.65615],[80.07884,8.65605],[80.07891,8.65596],[80.079,8.65583],[80.07902,8.65566],[80.079,8.65547],[80.07909,8.6553],[80.07911,8.65515],[80.07905,8.65495],[80.079,8.65482],[80.07902,8.6547],[80.07915,8.65453],[80.07929,8.65443],[80.0795,8.65438],[80.07978,8.65451],[80.08014,8.65469],[80.08047,8.65477],[80.08067,8.65474],[80.08089,8.65451],[80.08112,8.65436],[80.08149,8.65451],[80.08167,8.65465],[80.08202,8.65472],[80.08219,8.65482],[80.08249,8.65495],[80.08277,8.65497],[80.08308,8.65509],[80.08337,8.6552],[80.08359,8.65536],[80.08384,8.65549],[80.08407,8.65566],[80.08426,8.65586],[80.08444,8.656],[80.08475,8.65625],[80.08496,8.65647],[80.08519,8.65684],[80.08525,8.65699],[80.08537,8.65719],[80.08562,8.65729],[80.08583,8.65722],[80.08611,8.65695],[80.08631,8.65696],[80.08665,8.65681],[80.08717,8.65644],[80.08771,8.65609],[80.08806,8.65601],[80.08855,8.65603],[80.0888,8.65599],[80.08894,8.65597],[80.08912,8.65596],[80.0893,8.65611],[80.08944,8.65625],[80.08984,8.65619],[80.08997,8.65611],[80.09006,8.65599],[80.09017,8.65584],[80.09021,8.6557],[80.09024,8.65553],[80.09023,8.65541],[80.09036,8.65525],[80.09048,8.65502],[80.09055,8.65483],[80.09064,8.65477],[80.09083,8.65476],[80.09104,8.65485],[80.09124,8.65495],[80.09138,8.655],[80.09148,8.65503],[80.09158,8.65504],[80.09168,8.65501],[80.09182,8.65489],[80.09188,8.65473],[80.09193,8.65463],[80.09201,8.65457],[80.09213,8.65453],[80.09225,8.6545],[80.09233,8.65447],[80.09247,8.65434],[80.09254,8.65419],[80.09262,8.65401],[80.09261,8.6539],[80.0926,8.65376],[80.09263,8.65367],[80.09267,8.6536],[80.09281,8.65355],[80.09296,8.65352],[80.09306,8.6535],[80.09327,8.65342],[80.09341,8.65336],[80.09361,8.65329],[80.09381,8.65321],[80.09395,8.65316],[80.09403,8.65309],[80.09415,8.65303],[80.09425,8.65302],[80.09437,8.65308],[80.09448,8.65309],[80.09461,8.65308],[80.09472,8.65302],[80.09479,8.65297],[80.09489,8.65292],[80.09499,8.65292],[80.0951,8.65298],[80.09519,8.65309],[80.09532,8.65331],[80.09541,8.65344],[80.09557,8.65352],[80.09574,8.65353],[80.0959,8.65353],[80.09604,8.65353],[80.09618,8.65355],[80.09628,8.65359],[80.09639,8.65364],[80.09652,8.65368],[80.09667,8.65369],[80.09684,8.65364],[80.09698,8.65359],[80.09711,8.65354],[80.09725,8.6535],[80.09737,8.6535],[80.09747,8.65353],[80.09756,8.65358],[80.09759,8.65365],[80.09761,8.65382],[80.09761,8.65396],[80.09764,8.65406],[80.09775,8.65413],[80.09794,8.65412],[80.098,8.65405],[80.09808,8.65397],[80.09816,8.6539],[80.09826,8.65387],[80.09839,8.65388],[80.09849,8.65394],[80.09864,8.65409],[80.09873,8.65419],[80.09881,8.65425],[80.09891,8.65435],[80.09903,8.65445],[80.09919,8.65447],[80.09927,8.65443],[80.09936,8.65436],[80.09952,8.65427],[80.09961,8.65422],[80.09971,8.65419],[80.09982,8.6542],[80.09988,8.6542],[80.09998,8.65427],[80.10005,8.65434],[80.10012,8.65438],[80.10021,8.65438],[80.10031,8.65437],[80.1004,8.65431],[80.10045,8.65425],[80.1005,8.65418],[80.10056,8.6541],[80.10064,8.65405],[80.10075,8.65402],[80.10087,8.65399],[80.10099,8.65402],[80.10112,8.65409],[80.10125,8.65413],[80.10138,8.65411],[80.1015,8.65407],[80.1016,8.65399],[80.10169,8.65391],[80.1018,8.65375],[80.10185,8.65361],[80.10191,8.65342],[80.10195,8.65327],[80.10196,8.65316],[80.10199,8.65303],[80.10206,8.65294],[80.10217,8.65285],[80.10227,8.65283],[80.1024,8.65279],[80.10257,8.65274],[80.10274,8.65266],[80.10284,8.65261],[80.10301,8.65257],[80.10314,8.65256],[80.10322,8.65257],[80.10328,8.65261],[80.10336,8.65264],[80.10343,8.65264],[80.10352,8.6526],[80.10357,8.65254],[80.10357,8.65248],[80.10353,8.65235],[80.10347,8.65225],[80.10345,8.65215],[80.1035,8.65208],[80.1036,8.65201],[80.10377,8.65197],[80.10388,8.65193],[80.10397,8.65189],[80.10403,8.65184],[80.1041,8.65174],[80.10412,8.65162],[80.10417,8.65151],[80.10422,8.65143],[80.10432,8.65136],[80.10446,8.65138],[80.10459,8.65139],[80.10468,8.65137],[80.10479,8.65132],[80.10489,8.65123],[80.10491,8.65115],[80.10496,8.65104],[80.10501,8.65094],[80.10508,8.65086],[80.10517,8.65081],[80.10529,8.65082],[80.10537,8.65094],[80.10541,8.65105],[80.10548,8.65114],[80.10557,8.6512],[80.10565,8.65122],[80.10576,8.65118],[80.10588,8.65112],[80.10596,8.65106],[80.10604,8.65103],[80.10617,8.65101],[80.10632,8.65104],[80.10648,8.65109],[80.10665,8.65117],[80.10683,8.65128],[80.10694,8.65132],[80.10714,8.65132],[80.10729,8.65125],[80.10748,8.65119],[80.10762,8.65118],[80.10773,8.65117],[80.10783,8.65117],[80.10792,8.65115],[80.10801,8.65109],[80.1081,8.65099],[80.10816,8.6509],[80.10827,8.65083],[80.1084,8.65081],[80.10854,8.65085],[80.10862,8.65095],[80.10863,8.65107],[80.10868,8.65118],[80.10875,8.65127],[80.10885,8.65132],[80.10897,8.65135],[80.10912,8.65134],[80.10921,8.65137],[80.10926,8.65144],[80.1093,8.65157],[80.10936,8.6517],[80.10947,8.65183],[80.10964,8.65192],[80.10983,8.65197],[80.11004,8.65203],[80.11019,8.65205],[80.11033,8.65203],[80.11043,8.65197],[80.11062,8.65179],[80.11078,8.65167],[80.1109,8.65158],[80.11101,8.65148],[80.11117,8.65139],[80.11132,8.65131],[80.11146,8.65121],[80.1115,8.65112],[80.11148,8.65102],[80.11143,8.65089],[80.11143,8.65075],[80.11146,8.65058],[80.11152,8.65044],[80.1116,8.65034],[80.11169,8.65028],[80.11177,8.65025],[80.11185,8.65024],[80.11192,8.65028],[80.112,8.65041],[80.11208,8.65051],[80.11217,8.65057],[80.11231,8.65057],[80.11249,8.65055],[80.11266,8.65054],[80.11282,8.65053],[80.11294,8.65057],[80.11302,8.65059],[80.11309,8.65059],[80.11315,8.65054],[80.11316,8.65048],[80.11317,8.65037],[80.11322,8.65025],[80.1133,8.65018],[80.11344,8.65015],[80.11356,8.65016],[80.11373,8.65013],[80.11381,8.65006],[80.11386,8.64998],[80.11396,8.64991],[80.11409,8.64988],[80.11421,8.64989],[80.11432,8.64987],[80.11439,8.6498],[80.11442,8.64971],[80.11447,8.64964],[80.11455,8.6496],[80.11467,8.64959],[80.11482,8.64963],[80.115,8.64967],[80.11516,8.64966],[80.11572,8.64963],[80.11622,8.64975],[80.11666,8.6499],[80.11759,8.65017],[80.11944,8.65049],[80.1252,8.65178],[80.12701,8.65223],[80.13185,8.65357],[80.13249,8.65375],[80.13448,8.65414],[80.13589,8.6545],[80.13633,8.65461],[80.13987,8.65561],[80.14163,8.65604],[80.14281,8.65641],[80.14349,8.65662],[80.14718,8.65753],[80.14901,8.65805],[80.1507,8.65854],[80.15262,8.65898],[80.15632,8.65976],[80.16178,8.66081],[80.16541,8.66175],[80.1688,8.66288],[80.17259,8.66389],[80.17454,8.66433],[80.17858,8.66504],[80.18204,8.66638],[80.18774,8.66779],[80.19498,8.66978],[80.19671,8.6702],[80.19861,8.6706],[80.20039,8.67091],[80.20226,8.67155],[80.204,8.67209],[80.20587,8.67252],[80.2076,8.67311],[80.20937,8.67364],[80.21668,8.67537],[80.2185,8.67595],[80.22223,8.6768],[80.22604,8.67777],[80.22963,8.6785],[80.23146,8.67901],[80.23328,8.67962],[80.23496,8.68012],[80.23537,8.68028],[80.23536,8.68016]]]},"properties":{"name":"Wilpattu National Park","designation":"National Park","protect_class":"2","osm_id":"relation/15434166","osm_url":"https://www.openstreetmap.org/relation/15434166","source":"OpenStreetMap","source_id":"osm_protected","geometry_quality":"mapped_polygon","marine_or_coastal_basis":"polygon extends beyond the land mask"}}]}