{"type":"FeatureCollection","ghosttrace":{"layer":"protected_osm_odisha_coast","kind":"protected_area","source_id":"osm_protected","regions":["odisha_coast"],"restricted":false,"written":"2026-09-13T13:18:19+00:00"},"features":[{"type":"Feature","geometry":{"type":"Polygon","coordinates":[[[87.13411,20.78404],[87.29985,20.71662],[87.26749,20.63311],[87.00056,20.41591],[86.95198,20.28377],[86.75354,20.32338],[86.78238,20.36008],[86.77912,20.37183],[86.76161,20.3707],[86.74564,20.35686],[86.73397,20.353],[86.72607,20.35396],[86.71766,20.35638],[86.71457,20.36137],[86.71732,20.37504],[86.71904,20.38647],[86.71818,20.39387],[86.73054,20.41093],[86.73225,20.43506],[86.73294,20.45307],[86.73637,20.46465],[86.7429,20.47623],[86.75423,20.49778],[86.76114,20.50337],[86.77208,20.5055],[86.78238,20.53379],[86.79371,20.54601],[87.04262,20.70731],[87.01858,20.70153],[87.00039,20.70249],[87.00245,20.71694],[87.0052,20.72947],[87.00966,20.74006],[87.05738,20.75162],[87.13411,20.78404]]]},"properties":{"name":"Gahirmatha (Marine) WLS","designation":"protected_area","protect_class":"4","osm_id":"way/669652446","osm_url":"https://www.openstreetmap.org/way/669652446","source":"OpenStreetMap","source_id":"osm_protected","geometry_quality":"mapped_polygon","marine_or_coastal_basis":"polygon extends beyond the land mask"}},{"type":"Feature","geometry":{"type":"Polygon","coordinates":[[[86.75912,20.50734],[86.75856,20.5143],[86.75843,20.51695],[86.75779,20.52041],[86.75388,20.52603],[86.74187,20.52816],[86.73775,20.53066],[86.73419,20.53484],[86.73522,20.53966],[86.73564,20.54376],[86.73414,20.54729],[86.72976,20.54983],[86.72496,20.55079],[86.72174,20.55308],[86.7184,20.55494],[86.7159,20.56104],[86.71436,20.5663],[86.71779,20.56851],[86.72067,20.57309],[86.71526,20.57823],[86.71414,20.58197],[86.71565,20.58808],[86.71638,20.59242],[86.72037,20.59326],[86.72406,20.59458],[86.72676,20.59659],[86.72822,20.59937],[86.73079,20.60161],[86.73393,20.60326],[86.73998,20.60559],[86.74539,20.60901],[86.74762,20.61069],[86.75208,20.61254],[86.75599,20.61254],[86.76195,20.61427],[86.76783,20.61796],[86.77122,20.62274],[86.77534,20.63568],[86.77534,20.64339],[86.79852,20.64066],[86.80899,20.63664],[86.81843,20.63375],[86.82409,20.63969],[86.82598,20.64933],[86.82203,20.65817],[86.81517,20.66523],[86.80933,20.67005],[86.80229,20.67085],[86.80899,20.68531],[86.81705,20.70024],[86.82066,20.70715],[86.82364,20.70959],[86.82528,20.70946],[86.8261,20.70895],[86.82802,20.70857],[86.82816,20.70676],[86.82789,20.70625],[86.82775,20.70341],[86.82939,20.70316],[86.82994,20.70213],[86.83131,20.70149],[86.83241,20.70136],[86.83255,20.69878],[86.83227,20.69827],[86.83241,20.69724],[86.83679,20.69647],[86.83666,20.69183],[86.83734,20.69081],[86.83817,20.69068],[86.83899,20.69016],[86.8409,20.68939],[86.84391,20.68862],[86.84419,20.68836],[86.84829,20.68772],[86.84967,20.68438],[86.85295,20.68399],[86.85405,20.68322],[86.85765,20.68091],[86.85823,20.68278],[86.8578,20.68316],[86.85792,20.68414],[86.86001,20.68679],[86.86278,20.68982],[86.86464,20.6909],[86.86849,20.69112],[86.87073,20.69213],[86.87336,20.69581],[86.87606,20.69819],[86.88203,20.69695],[86.88701,20.69478],[86.88941,20.69277],[86.8846,20.68904],[86.87649,20.68133],[86.8809,20.67767],[86.89291,20.67192],[86.8889,20.66857],[86.88666,20.6678],[86.88717,20.66741],[86.88744,20.66612],[86.88881,20.66496],[86.88936,20.66484],[86.89059,20.66355],[86.89059,20.66303],[86.89005,20.66175],[86.88895,20.6602],[86.88895,20.65737],[86.88978,20.65608],[86.88978,20.65531],[86.88937,20.65454],[86.88759,20.6535],[86.88636,20.65054],[86.88417,20.6499],[86.88404,20.64938],[86.88226,20.64796],[86.88089,20.64796],[86.87966,20.64732],[86.87966,20.64603],[86.87761,20.64435],[86.8757,20.64358],[86.87488,20.64358],[86.87378,20.64281],[86.87214,20.64281],[86.86968,20.64216],[86.86899,20.64113],[86.86873,20.63469],[86.86654,20.62851],[86.86613,20.62774],[86.86559,20.62774],[86.86531,20.62671],[86.86477,20.62658],[86.8634,20.62477],[86.86176,20.624],[86.86108,20.6231],[86.86095,20.61666],[86.85685,20.61524],[86.85329,20.61498],[86.85247,20.61459],[86.85179,20.61253],[86.85193,20.61099],[86.85138,20.61098],[86.85111,20.60995],[86.84864,20.61034],[86.84728,20.60995],[86.84523,20.60583],[86.84509,20.6048],[86.84564,20.6048],[86.84578,20.60325],[86.84619,20.60222],[86.84756,20.6021],[86.84893,20.60274],[86.84875,20.59996],[86.84824,20.59914],[86.84784,20.59823],[86.84401,20.59746],[86.84196,20.59604],[86.84141,20.59475],[86.84128,20.58677],[86.83718,20.58625],[86.83691,20.5847],[86.83636,20.5847],[86.83595,20.58264],[86.83363,20.58122],[86.83172,20.58122],[86.83062,20.58148],[86.83021,20.58083],[86.82981,20.578],[86.82926,20.578],[86.82899,20.57697],[86.82844,20.57697],[86.8283,20.57645],[86.82735,20.57555],[86.8268,20.57542],[86.82653,20.57478],[86.82571,20.57478],[86.82462,20.57375],[86.8238,20.57362],[86.82448,20.57104],[86.82503,20.57053],[86.82476,20.5677],[86.82484,20.56661],[86.82289,20.5653],[86.81474,20.55979],[86.81225,20.55808],[86.80994,20.55647],[86.80796,20.55512],[86.80725,20.55465],[86.80631,20.55404],[86.80568,20.55361],[86.805,20.55313],[86.80437,20.5527],[86.80366,20.55218],[86.80276,20.55152],[86.80155,20.55058],[86.80018,20.54952],[86.79905,20.54863],[86.79713,20.54734],[86.79501,20.54586],[86.79367,20.54483],[86.79188,20.54325],[86.79098,20.54228],[86.7899,20.54112],[86.78916,20.54019],[86.78831,20.53952],[86.7874,20.5385],[86.78687,20.53771],[86.78669,20.53749],[86.78645,20.5373],[86.78603,20.5368],[86.78552,20.53605],[86.78501,20.53522],[86.7845,20.53424],[86.7839,20.53299],[86.78359,20.53225],[86.78281,20.53045],[86.78203,20.52826],[86.78156,20.52709],[86.78122,20.52603],[86.78082,20.52487],[86.78055,20.52426],[86.77991,20.52308],[86.77961,20.5222],[86.77947,20.52147],[86.77928,20.52074],[86.77909,20.5204],[86.7789,20.51997],[86.77871,20.51939],[86.77846,20.51861],[86.77832,20.51799],[86.77829,20.5177],[86.77827,20.51737],[86.77826,20.51663],[86.77824,20.51614],[86.77815,20.51572],[86.77801,20.51527],[86.77767,20.51442],[86.77683,20.51269],[86.77606,20.511],[86.77569,20.51023],[86.77508,20.50921],[86.77468,20.50852],[86.77417,20.50791],[86.77362,20.50725],[86.7729,20.50646],[86.7719,20.50566],[86.77027,20.5049],[86.76906,20.50437],[86.76763,20.50373],[86.76751,20.50367],[86.76733,20.50362],[86.76702,20.50365],[86.76657,20.50382],[86.76623,20.50389],[86.76602,20.50391],[86.76577,20.50388],[86.76526,20.50375],[86.76501,20.50374],[86.7642,20.50373],[86.76352,20.50382],[86.76304,20.50382],[86.76262,20.50378],[86.76207,20.50373],[86.76114,20.50337],[86.75912,20.50734]]]},"properties":{"name":"Bhitarkanika WLS","designation":"protected_area","protect_class":"4","osm_id":"way/669656035","osm_url":"https://www.openstreetmap.org/way/669656035","source":"OpenStreetMap","source_id":"osm_protected","geometry_quality":"mapped_polygon","marine_or_coastal_basis":"polygon extends beyond the land mask"}},{"type":"Feature","geometry":{"type":"Polygon","coordinates":[[[85.85852,19.82394],[85.90354,19.84051],[85.91963,19.84723],[85.92269,19.84897],[85.92785,19.8519],[85.93248,19.85567],[85.93831,19.859],[85.9633,19.84822],[85.98278,19.85408],[85.99072,19.85573],[85.99269,19.85404],[85.99853,19.85315],[86.00467,19.85274],[86.0105,19.85077],[86.01587,19.84998],[86.01962,19.8524],[86.02106,19.85509],[86.02391,19.85706],[86.02567,19.85868],[86.02288,19.86156],[86.02282,19.87595],[86.0269,19.87712],[86.03115,19.88007],[86.03784,19.87942],[86.04295,19.87728],[86.04775,19.87615],[86.05145,19.87688],[86.05728,19.88043],[86.06269,19.8833],[86.08252,19.88786],[86.08882,19.88451],[86.09436,19.88217],[86.09749,19.8814],[86.10286,19.881],[86.10818,19.8833],[86.10535,19.88862],[86.1096,19.88939],[86.11346,19.88721],[86.11553,19.88645],[86.11631,19.88675],[86.12719,19.89391],[86.12919,19.8948],[86.13172,19.89569],[86.13507,19.89651],[86.13706,19.89722],[86.14161,19.89896],[86.14815,19.90053],[86.15455,19.90041],[86.1573,19.8996],[86.16157,19.90093],[86.16777,19.90206],[86.17281,19.9059],[86.18114,19.90731],[86.18882,19.90803],[86.19169,19.9042],[86.19431,19.89896],[86.20165,19.89464],[86.20362,19.89387],[86.18199,19.88709],[86.15157,19.87741],[86.12226,19.86925],[86.12071,19.87093],[86.11942,19.87194],[86.11768,19.87196],[86.11689,19.8724],[86.11462,19.87167],[86.1123,19.8699],[86.11155,19.86871],[86.10953,19.86996],[86.10672,19.86812],[86.10806,19.86507],[86.07827,19.85787],[86.07085,19.85745],[86.0682,19.85696],[86.06633,19.85646],[86.05878,19.85353],[86.03353,19.84568],[86.0258,19.84417],[86.01861,19.84342],[85.94278,19.82786],[85.8991,19.81622],[85.86439,19.80678],[85.85852,19.82394]]]},"properties":{"name":"Balukhand Konark WLS","designation":"protected_area","protect_class":"4","osm_id":"way/669780824","osm_url":"https://www.openstreetmap.org/way/669780824","source":"OpenStreetMap","source_id":"osm_protected","geometry_quality":"mapped_polygon","marine_or_coastal_basis":"within ~1 km of the coastline"}},{"type":"Feature","geometry":{"type":"Polygon","coordinates":[[[85.07845,19.37936],[85.0781,19.3795],[85.0779,19.37975],[85.0781,19.37994],[85.07829,19.38043],[85.07815,19.38103],[85.07771,19.38141],[85.07593,19.38109],[85.07495,19.3808],[85.07382,19.38042],[85.0729,19.38073],[85.07287,19.38176],[85.07354,19.3826],[85.07429,19.38314],[85.07579,19.38333],[85.07647,19.38434],[85.07646,19.3857],[85.07709,19.38627],[85.07915,19.38716],[85.08162,19.38945],[85.08294,19.39175],[85.08476,19.39405],[85.08642,19.39633],[85.08732,19.39884],[85.08626,19.40204],[85.08807,19.40446],[85.09052,19.40732],[85.09241,19.40873],[85.09498,19.40872],[85.09749,19.40859],[85.09791,19.40831],[85.09737,19.40797],[85.09641,19.40718],[85.09391,19.40445],[85.09129,19.39975],[85.08963,19.39612],[85.08819,19.39111],[85.08809,19.39075],[85.08798,19.39039],[85.08705,19.38787],[85.087,19.38513],[85.08519,19.38368],[85.08304,19.38199],[85.07874,19.37935],[85.07845,19.37936]]]},"properties":{"name":"Olive Ridley Sea Turtle Reserve (Ganjam)","designation":"nature_reserve","protect_class":null,"osm_id":"way/685778823","osm_url":"https://www.openstreetmap.org/way/685778823","source":"OpenStreetMap","source_id":"osm_protected","geometry_quality":"mapped_polygon","marine_or_coastal_basis":"polygon extends beyond the land mask"}},{"type":"Feature","geometry":{"type":"MultiPolygon","coordinates":[[[[87.01282,20.68735],[87.01218,20.687],[87.01119,20.68656],[87.00964,20.68556],[87.00812,20.68443],[87.00405,20.68165],[87.00128,20.67994],[87.00045,20.67968],[86.9999,20.68007],[86.99963,20.68084],[86.99771,20.68097],[86.99689,20.68122],[86.99607,20.68071],[86.99361,20.67994],[86.99279,20.67929],[86.9921,20.67775],[86.99101,20.67672],[86.99101,20.67491],[86.99195,20.67378],[86.99084,20.67304],[86.98759,20.67118],[86.98677,20.67079],[86.98677,20.67028],[86.98567,20.67041],[86.98376,20.66899],[86.98376,20.66951],[86.98294,20.66938],[86.9802,20.66706],[86.97911,20.66667],[86.97897,20.66616],[86.97613,20.66355],[86.97494,20.66283],[86.97473,20.66358],[86.97254,20.66307],[86.97254,20.66358],[86.96898,20.66268],[86.9657,20.66049],[86.96543,20.65972],[86.96296,20.65933],[86.9616,20.6583],[86.96105,20.65817],[86.96105,20.65766],[86.9605,20.65791],[86.95982,20.65688],[86.95881,20.65349],[86.95585,20.6517],[86.95434,20.65079],[86.95284,20.65109],[86.95202,20.65173],[86.95175,20.6525],[86.94874,20.65225],[86.94888,20.65122],[86.94874,20.65096],[86.94053,20.64877],[86.93534,20.64567],[86.93233,20.6431],[86.93123,20.64323],[86.93069,20.64477],[86.92877,20.64503],[86.92877,20.64348],[86.92959,20.64335],[86.93,20.64297],[86.93014,20.6422],[86.92932,20.64207],[86.92795,20.64078],[86.92631,20.64091],[86.92631,20.64194],[86.91181,20.64515],[86.91017,20.64502],[86.90962,20.64605],[86.9088,20.64618],[86.90825,20.64656],[86.9077,20.64759],[86.90633,20.64811],[86.90606,20.64888],[86.90442,20.64862],[86.90442,20.64759],[86.90305,20.64798],[86.90278,20.64772],[86.90168,20.64785],[86.90155,20.64939],[86.90114,20.64991],[86.89922,20.65042],[86.89922,20.65094],[86.89648,20.65132],[86.89293,20.64913],[86.89115,20.64527],[86.89047,20.64449],[86.88883,20.64372],[86.88869,20.6432],[86.88746,20.64166],[86.88637,20.6414],[86.88623,20.64088],[86.88514,20.63985],[86.88486,20.63908],[86.88294,20.63673],[86.89869,20.62608],[86.89924,20.62596],[86.89924,20.62544],[86.89869,20.6257],[86.89869,20.62518],[86.89787,20.62518],[86.8976,20.62441],[86.89349,20.62325],[86.89021,20.6208],[86.89035,20.62054],[86.89021,20.62003],[86.88994,20.62003],[86.88994,20.6208],[86.88939,20.62054],[86.88898,20.61977],[86.88844,20.61721],[86.88867,20.61652],[86.88857,20.61565],[86.88926,20.61616],[86.88994,20.61758],[86.89021,20.61758],[86.89145,20.61668],[86.89149,20.61651],[86.89131,20.61642],[86.89131,20.61539],[86.8924,20.61578],[86.89292,20.61531],[86.89271,20.61514],[86.89336,20.61436],[86.89323,20.61308],[86.89159,20.61256],[86.89168,20.61299],[86.89213,20.61308],[86.89241,20.61385],[86.89104,20.61423],[86.89049,20.6141],[86.89049,20.61359],[86.89159,20.61333],[86.89104,20.61282],[86.89104,20.61153],[86.88995,20.61101],[86.88967,20.60998],[86.88885,20.60985],[86.88748,20.61011],[86.88721,20.60998],[86.88721,20.60818],[86.88612,20.60792],[86.88602,20.60749],[86.8853,20.60766],[86.8853,20.60818],[86.88448,20.60792],[86.88489,20.60843],[86.88475,20.60895],[86.8853,20.60895],[86.88557,20.61204],[86.88502,20.61178],[86.88489,20.6105],[86.88502,20.61024],[86.88448,20.61024],[86.88407,20.60921],[86.8842,20.60869],[86.88366,20.60869],[86.88256,20.60534],[86.8801,20.60534],[86.8801,20.60586],[86.87819,20.60521],[86.87682,20.60521],[86.876,20.6056],[86.87573,20.60663],[86.87518,20.60663],[86.87531,20.60714],[86.87518,20.6074],[86.87363,20.60723],[86.87354,20.6074],[86.87326,20.6074],[86.87326,20.60714],[86.8745,20.60585],[86.8745,20.60534],[86.87422,20.60508],[86.87422,20.60456],[86.87463,20.60418],[86.87956,20.60341],[86.87997,20.60302],[86.87997,20.60277],[86.87956,20.60225],[86.87792,20.60186],[86.87682,20.60096],[86.87669,20.60045],[86.87546,20.59916],[86.87382,20.59967],[86.87423,20.5989],[86.87409,20.59838],[86.87327,20.59851],[86.86999,20.59774],[86.86944,20.59735],[86.86903,20.59606],[86.86808,20.59503],[86.86753,20.5949],[86.8648,20.59232],[86.86179,20.59116],[86.86188,20.59185],[86.86206,20.59194],[86.86206,20.59219],[86.86179,20.59219],[86.86152,20.59181],[86.8607,20.59168],[86.85919,20.5891],[86.85824,20.58781],[86.85359,20.58678],[86.85373,20.58601],[86.85345,20.58575],[86.85359,20.58536],[86.85332,20.58433],[86.8525,20.58369],[86.85195,20.58266],[86.85059,20.58227],[86.84594,20.57943],[86.84266,20.57737],[86.84184,20.57737],[86.84047,20.57634],[86.83692,20.57505],[86.83555,20.57401],[86.83364,20.57376],[86.83227,20.57272],[86.83145,20.57259],[86.83091,20.57362],[86.82872,20.57233],[86.82648,20.56924],[86.82654,20.56776],[86.82484,20.56661],[86.82476,20.5677],[86.82503,20.57053],[86.82448,20.57104],[86.8238,20.57362],[86.82462,20.57375],[86.82571,20.57478],[86.82653,20.57478],[86.8268,20.57542],[86.82735,20.57555],[86.8283,20.57645],[86.82844,20.57697],[86.82899,20.57697],[86.82926,20.578],[86.82981,20.578],[86.83021,20.58083],[86.83062,20.58148],[86.83172,20.58122],[86.83363,20.58122],[86.83595,20.58264],[86.83636,20.5847],[86.83691,20.5847],[86.83718,20.58625],[86.84128,20.58677],[86.84141,20.59475],[86.84196,20.59604],[86.84401,20.59746],[86.84784,20.59823],[86.84824,20.59914],[86.84875,20.59996],[86.84893,20.60274],[86.84756,20.6021],[86.84619,20.60222],[86.84578,20.60325],[86.84564,20.6048],[86.84509,20.6048],[86.84523,20.60583],[86.84728,20.60995],[86.84864,20.61034],[86.85111,20.60995],[86.85138,20.61098],[86.85193,20.61099],[86.85179,20.61253],[86.85247,20.61459],[86.85329,20.61498],[86.85685,20.61524],[86.86095,20.61666],[86.86108,20.6231],[86.86176,20.624],[86.8634,20.62477],[86.86477,20.62658],[86.86531,20.62671],[86.86559,20.62774],[86.86613,20.62774],[86.86654,20.62851],[86.86873,20.63469],[86.86899,20.64113],[86.86968,20.64216],[86.87214,20.64281],[86.87378,20.64281],[86.87488,20.64358],[86.8757,20.64358],[86.87761,20.64435],[86.87966,20.64603],[86.87966,20.64732],[86.88089,20.64796],[86.88226,20.64796],[86.88404,20.64938],[86.88417,20.6499],[86.88636,20.65054],[86.88759,20.6535],[86.88937,20.65454],[86.88978,20.65531],[86.88978,20.65608],[86.88895,20.65737],[86.88895,20.6602],[86.89005,20.66175],[86.89059,20.66303],[86.89059,20.66355],[86.88936,20.66484],[86.88881,20.66496],[86.88744,20.66612],[86.88717,20.66741],[86.88963,20.66728],[86.88991,20.66638],[86.89209,20.666],[86.89811,20.66639],[86.89948,20.66883],[86.90003,20.66896],[86.9003,20.67025],[86.90112,20.66999],[86.90126,20.66896],[86.90194,20.6678],[86.9066,20.66832],[86.90701,20.66871],[86.90714,20.67257],[86.90659,20.67257],[86.90673,20.67334],[86.90659,20.6736],[86.90468,20.67231],[86.90441,20.67077],[86.90413,20.67077],[86.90413,20.67128],[86.90304,20.67077],[86.90304,20.67128],[86.90194,20.67077],[86.90194,20.67128],[86.90139,20.67128],[86.90194,20.67257],[86.90249,20.6727],[86.90331,20.67373],[86.90386,20.67386],[86.90399,20.67489],[86.90522,20.6754],[86.90604,20.67721],[86.90686,20.67734],[86.90714,20.67618],[86.90905,20.67669],[86.90919,20.67901],[86.90878,20.67953],[86.90686,20.6794],[86.90495,20.67862],[86.90413,20.67785],[86.90166,20.67669],[86.9018,20.67746],[86.90399,20.68004],[86.90563,20.68107],[86.90577,20.68159],[86.90522,20.68146],[86.90221,20.67914],[86.90084,20.67888],[86.90002,20.6781],[86.89948,20.67772],[86.89989,20.67617],[86.89893,20.67489],[86.89811,20.67489],[86.89783,20.67617],[86.89647,20.67656],[86.89346,20.67604],[86.89209,20.67514],[86.89195,20.67437],[86.89264,20.67282],[86.89401,20.67256],[86.89373,20.67205],[86.89291,20.67192],[86.88853,20.67359],[86.88771,20.67565],[86.88726,20.67574],[86.88716,20.67617],[86.88689,20.67617],[86.88689,20.67565],[86.88785,20.67462],[86.88798,20.67411],[86.8809,20.67767],[86.88581,20.6825],[86.8935,20.68937],[86.89911,20.69481],[86.90159,20.6972],[86.9038,20.69884],[86.90801,20.70098],[86.91181,20.70237],[86.91919,20.70552],[86.92404,20.70764],[86.93214,20.71094],[86.9364,20.7118],[86.93985,20.71185],[86.9448,20.71105],[86.94783,20.71045],[86.95659,20.70918],[86.96399,20.70892],[86.96776,20.70882],[86.96994,20.70841],[86.97147,20.708],[86.97347,20.70725],[86.97779,20.70475],[86.97872,20.70439],[86.97964,20.7043],[86.98422,20.7032],[86.9914,20.70197],[86.99505,20.7014],[86.99956,20.70076],[87.00496,20.70027],[87.00703,20.69984],[87.00992,20.69927],[87.01285,20.6987],[87.01538,20.69975],[87.01739,20.70072],[87.01912,20.70158],[87.01972,20.70154],[87.02114,20.70088],[87.02223,20.70058],[87.02284,20.70066],[87.02319,20.7009],[87.0241,20.70145],[87.02481,20.7022],[87.02573,20.70259],[87.02867,20.70399],[87.03027,20.70531],[87.03131,20.70546],[87.03211,20.70548],[87.03392,20.70558],[87.03555,20.70598],[87.03649,20.70647],[87.0369,20.70689],[87.03813,20.70819],[87.03896,20.70872],[87.04234,20.71013],[87.04327,20.7103],[87.04406,20.71042],[87.04555,20.70911],[87.04408,20.70848],[87.04222,20.70751],[87.04063,20.70686],[87.03943,20.7061],[87.03693,20.70473],[87.03584,20.70396],[87.03447,20.70313],[87.03365,20.70262],[87.03289,20.70195],[87.03142,20.70069],[87.03046,20.69977],[87.0294,20.69898],[87.02811,20.69853],[87.02684,20.69772],[87.02542,20.69673],[87.02446,20.69584],[87.02262,20.69454],[87.01975,20.69293],[87.01891,20.69221],[87.01819,20.6913],[87.01668,20.69035],[87.01585,20.68996],[87.01453,20.68893],[87.01325,20.68777],[87.01282,20.68735]]],[[[86.85295,20.68399],[86.84967,20.68438],[86.84829,20.68772],[86.84419,20.68836],[86.84391,20.68862],[86.8409,20.68939],[86.83899,20.69016],[86.83817,20.69068],[86.83734,20.69081],[86.83666,20.69183],[86.83679,20.69647],[86.83241,20.69724],[86.83227,20.69827],[86.83255,20.69878],[86.83241,20.70136],[86.83131,20.70149],[86.82994,20.70213],[86.82939,20.70316],[86.82775,20.70341],[86.82789,20.70625],[86.82816,20.70676],[86.82802,20.70857],[86.8261,20.70895],[86.82528,20.70946],[86.82364,20.70959],[86.82295,20.71114],[86.82295,20.71268],[86.82322,20.71294],[86.82377,20.715],[86.82431,20.7168],[86.82582,20.7177],[86.82691,20.71771],[86.82746,20.71719],[86.82828,20.71719],[86.82856,20.71784],[86.8302,20.7181],[86.83061,20.71964],[86.83143,20.72041],[86.83279,20.72273],[86.83306,20.72505],[86.83265,20.72608],[86.82964,20.72595],[86.82909,20.72621],[86.82827,20.72608],[86.82814,20.72685],[86.82868,20.72737],[86.83005,20.7302],[86.83005,20.73252],[86.83032,20.73277],[86.83141,20.73561],[86.83168,20.74076],[86.83291,20.74269],[86.83483,20.74269],[86.83674,20.74231],[86.83852,20.7472],[86.8392,20.74811],[86.84057,20.74811],[86.84166,20.74759],[86.84399,20.74541],[86.84413,20.74489],[86.84468,20.74476],[86.8455,20.74399],[86.84824,20.74322],[86.85043,20.74335],[86.85166,20.74593],[86.85248,20.74644],[86.85302,20.74773],[86.85521,20.74979],[86.85562,20.7507],[86.85672,20.7507],[86.85809,20.75018],[86.85894,20.74989],[86.8623,20.74822],[86.86288,20.74748],[86.8634,20.74647],[86.86439,20.74594],[86.86533,20.7448],[86.8659,20.74388],[86.86727,20.74028],[86.86741,20.73513],[86.86768,20.73513],[86.86795,20.73976],[86.86823,20.73976],[86.86864,20.73513],[86.86933,20.73422],[86.86974,20.73435],[86.86919,20.73693],[86.86918,20.73976],[86.86822,20.74259],[86.86768,20.74259],[86.86699,20.74362],[86.86603,20.74645],[86.86619,20.74659],[86.86571,20.74692],[86.86521,20.74723],[86.86459,20.74768],[86.86363,20.7486],[86.86274,20.74877],[86.86245,20.74937],[86.86373,20.75024],[86.8652,20.75131],[86.86728,20.75286],[86.86886,20.75271],[86.87026,20.75279],[86.87393,20.7537],[86.87478,20.75349],[86.87561,20.75329],[86.87706,20.75294],[86.88218,20.75303],[86.88245,20.75329],[86.88511,20.7535],[86.89285,20.75484],[86.89532,20.75484],[86.89723,20.75536],[86.89997,20.75536],[86.90408,20.75639],[86.90545,20.7564],[86.90572,20.75665],[86.91037,20.75691],[86.91339,20.7582],[86.9138,20.75807],[86.91531,20.75138],[86.9164,20.75112],[86.91631,20.75095],[86.91585,20.75086],[86.91681,20.74803],[86.91504,20.73309],[86.91422,20.73348],[86.91285,20.73335],[86.91258,20.73206],[86.91395,20.73206],[86.91367,20.73155],[86.91313,20.73155],[86.91367,20.73052],[86.91285,20.73039],[86.91203,20.72975],[86.91203,20.72949],[86.91313,20.72949],[86.91313,20.72872],[86.91395,20.72872],[86.91395,20.72794],[86.91258,20.72794],[86.91258,20.72717],[86.91094,20.72665],[86.9108,20.72614],[86.90971,20.72485],[86.90971,20.72434],[86.91012,20.72369],[86.91258,20.72382],[86.91067,20.72266],[86.9093,20.72266],[86.90738,20.72124],[86.90729,20.72056],[86.90684,20.72047],[86.90643,20.72202],[86.9082,20.72369],[86.90875,20.72382],[86.90875,20.72485],[86.90766,20.72472],[86.90629,20.72408],[86.90642,20.72485],[86.90861,20.7264],[86.90875,20.72717],[86.90656,20.72665],[86.90683,20.72768],[86.90779,20.7282],[86.90765,20.72871],[86.90656,20.7282],[86.90629,20.72742],[86.90574,20.72781],[86.90464,20.72768],[86.90464,20.72588],[86.90382,20.72614],[86.90382,20.72742],[86.89972,20.72562],[86.89821,20.72253],[86.89821,20.7215],[86.89507,20.71763],[86.89452,20.71763],[86.89534,20.71944],[86.89479,20.71944],[86.89383,20.72149],[86.89315,20.72227],[86.89233,20.72201],[86.89274,20.72124],[86.89384,20.72046],[86.8937,20.71969],[86.89178,20.71905],[86.89096,20.71827],[86.89042,20.71814],[86.89001,20.7166],[86.8896,20.71608],[86.88905,20.71595],[86.88576,20.71595],[86.88522,20.71634],[86.88522,20.71685],[86.88467,20.71685],[86.88412,20.71814],[86.88166,20.71878],[86.88111,20.7184],[86.88043,20.71402],[86.88377,20.71205],[86.88555,20.70952],[86.88586,20.70657],[86.883,20.70245],[86.87606,20.69819],[86.87336,20.69581],[86.87073,20.69213],[86.86849,20.69112],[86.86464,20.6909],[86.86278,20.68982],[86.86001,20.68679],[86.85792,20.68414],[86.8578,20.68316],[86.85823,20.68278],[86.85765,20.68091],[86.85405,20.68322],[86.85295,20.68399]]]]},"properties":{"name":"Bhitarkanika National Park","designation":"national_park","protect_class":"2","osm_id":"relation/8815438","osm_url":"https://www.openstreetmap.org/relation/8815438","source":"OpenStreetMap","source_id":"osm_protected","geometry_quality":"mapped_polygon","marine_or_coastal_basis":"polygon extends beyond the land mask"}}]}