{"type":"FeatureCollection","ghosttrace":{"layer":"reef_osm_gulf_of_mannar_palk_bay","kind":"reef","source_id":"osm_reefs","regions":["gulf_of_mannar_palk_bay"],"restricted":false,"written":"2026-09-13T13:31:48+00:00"},"features":[{"type":"Feature","geometry":{"type":"Point","coordinates":[78.2704837,8.9393967]},"properties":{"name":"Vilanguchalli","reef_type":"coral_reef","osm_id":"node/6299016096","source":"OpenStreetMap","source_id":"osm_reefs","geometry_quality":"point","note":"natural=reef in OSM includes rocky and sand reefs, not only coral"}},{"type":"Feature","geometry":{"type":"Polygon","coordinates":[[[79.33358,9.3189],[79.33607,9.31398],[79.33484,9.31325],[79.33277,9.31725],[79.33229,9.31861],[79.33271,9.31908],[79.33358,9.3189]]]},"properties":{"name":null,"reef_type":null,"osm_id":"way/493113385","source":"OpenStreetMap","source_id":"osm_reefs","geometry_quality":"mapped_polygon","note":"natural=reef in OSM includes rocky and sand reefs, not only coral"}},{"type":"Feature","geometry":{"type":"Polygon","coordinates":[[[79.65569,9.06965],[79.65573,9.06961],[79.65575,9.06957],[79.65575,9.06952],[79.65572,9.06947],[79.65565,9.06941],[79.6556,9.06938],[79.6555,9.06939],[79.65545,9.06941],[79.65538,9.0695],[79.65535,9.06956],[79.65534,9.0696],[79.65535,9.06964],[79.65539,9.06964],[79.65545,9.06959],[79.65549,9.06955],[79.65558,9.06955],[79.65562,9.06957],[79.65563,9.0696],[79.65563,9.06963],[79.65565,9.06965],[79.65569,9.06965]]]},"properties":{"name":null,"reef_type":null,"osm_id":"way/1218631673","source":"OpenStreetMap","source_id":"osm_reefs","geometry_quality":"mapped_polygon","note":"natural=reef in OSM includes rocky and sand reefs, not only coral"}},{"type":"Feature","geometry":{"type":"Polygon","coordinates":[[[79.69085,9.07872],[79.6902,9.07862],[79.69,9.07861],[79.68967,9.07871],[79.68934,9.07877],[79.68925,9.07876],[79.6892,9.07869],[79.68918,9.07852],[79.68898,9.07838],[79.68889,9.07836],[79.68878,9.07836],[79.68866,9.07845],[79.68814,9.07871],[79.68808,9.07877],[79.688,9.0789],[79.68793,9.07918],[79.68798,9.07943],[79.68798,9.0795],[79.68796,9.07952],[79.68789,9.07953],[79.68773,9.07929],[79.68747,9.07865],[79.68738,9.07839],[79.68729,9.07793],[79.68693,9.07816],[79.68704,9.07863],[79.6874,9.07962],[79.68795,9.08067],[79.68808,9.08123],[79.68854,9.08189],[79.68952,9.08354],[79.68964,9.08525],[79.68976,9.08704],[79.69008,9.08709],[79.69024,9.08677],[79.69091,9.08564],[79.69148,9.08524],[79.69188,9.08522],[79.69218,9.08421],[79.69241,9.08405],[79.69275,9.08367],[79.69275,9.08303],[79.69262,9.08289],[79.69256,9.0823],[79.69215,9.08094],[79.69172,9.08001],[79.6909,9.07937],[79.69082,9.07888],[79.69085,9.07872]]]},"properties":{"name":null,"reef_type":null,"osm_id":"way/1293753399","source":"OpenStreetMap","source_id":"osm_reefs","geometry_quality":"mapped_polygon","note":"natural=reef in OSM includes rocky and sand reefs, not only coral"}},{"type":"Feature","geometry":{"type":"Polygon","coordinates":[[[79.69591,9.07964],[79.69547,9.07976],[79.69529,9.07995],[79.69514,9.07998],[79.69462,9.08002],[79.69401,9.08],[79.69348,9.07985],[79.69282,9.07959],[79.69221,9.07924],[79.69176,9.0789],[79.69222,9.08005],[79.69334,9.08168],[79.69462,9.08343],[79.6956,9.0835],[79.69658,9.08488],[79.69708,9.08526],[79.69761,9.08602],[79.69791,9.08613],[79.69798,9.08596],[79.69805,9.08586],[79.69813,9.0856],[79.69819,9.0853],[79.69819,9.085],[79.69816,9.08488],[79.69811,9.08493],[79.69796,9.08533],[79.69791,9.0853],[79.69791,9.08523],[79.69799,9.08509],[79.69805,9.0849],[79.698,9.08462],[79.69812,9.08423],[79.69812,9.08368],[79.69814,9.08345],[79.69823,9.08319],[79.69838,9.08267],[79.69845,9.08214],[79.69845,9.08166],[79.69842,9.08143],[79.69829,9.08083],[79.69816,9.08061],[79.698,9.08042],[79.69794,9.0803],[79.69762,9.08007],[79.69734,9.07983],[79.69711,9.07967],[79.69692,9.07958],[79.69667,9.07956],[79.69604,9.07959],[79.69591,9.07964]]]},"properties":{"name":null,"reef_type":null,"osm_id":"relation/17737829","source":"OpenStreetMap","source_id":"osm_reefs","geometry_quality":"mapped_polygon","note":"natural=reef in OSM includes rocky and sand reefs, not only coral"}}]}