{"type":"FeatureCollection","ghosttrace":{"layer":"turtle_nesting_curated_odisha_coast","kind":"turtle_nesting","source_id":"curated_turtle","regions":["odisha_coast"],"restricted":false,"written":"2026-09-13T13:09:44+00:00"},"features":[{"type":"Feature","geometry":{"type":"LineString","coordinates":[[85.08561,19.37826],[85.08624,19.37895],[85.08687,19.37965],[85.08748,19.38036],[85.08802,19.38113],[85.08855,19.38189],[85.08906,19.38268],[85.0895,19.38349],[85.08992,19.38432],[85.09028,19.38517],[85.09062,19.38603],[85.09093,19.3869],[85.09125,19.38777],[85.09157,19.38864],[85.0918,19.38953],[85.09203,19.39042],[85.09225,19.39132],[85.09248,19.39221],[85.09271,19.3931],[85.09293,19.394],[85.09316,19.39489],[85.09338,19.39578],[85.09361,19.39668],[85.09384,19.39757],[85.09406,19.39846],[85.09429,19.39936],[85.09452,19.40025],[85.09474,19.40114],[85.09497,19.40204],[85.0946,19.40208],[85.09381,19.40155],[85.09285,19.40147],[85.09294,19.40211],[85.09332,19.40296],[85.09368,19.40381],[85.09419,19.40459],[85.09479,19.40531],[85.09543,19.406],[85.0961,19.40666],[85.09678,19.40731],[85.09748,19.40795],[85.09823,19.40852],[85.09916,19.40872],[85.09946,19.4094],[85.09982,19.41022],[85.10036,19.41098],[85.10103,19.41165],[85.10176,19.41225],[85.10246,19.41288],[85.10317,19.41351],[85.1039,19.41411],[85.10462,19.41473],[85.10533,19.41534],[85.10605,19.41596],[85.10678,19.41657],[85.10751,19.41717],[85.10823,19.41779],[85.10894,19.4184],[85.10967,19.41901],[85.11042,19.41959]]},"properties":{"name":"Rushikulya olive ridley mass-nesting beach","species":"Lepidochelys olivacea","source":"curated (OpenStreetMap anchor + Pandav et al. 1994)","source_id":"curated_turtle","geometry_quality":"approximate_line","citation":"Pandav B, Choudhury BC, Kar CS (1994). Discovery of a new sea turtle rookery in Orissa, India. Marine Turtle Newsletter 67:15-16. http://www.seaturtle.org/mtn/archives/mtn67/mtn67p15.shtml","construction":"coastline from 1 km to 7 km north-east of the Rushikulya river mouth (end vertex of OSM way/166337299, snapped 1 m to the coast), per the cited extent '6 km from Puruna Bandha village (1 km north of the river mouth) to Kantiagada village'. Village positions were not used."}},{"type":"Feature","geometry":{"type":"Point","coordinates":[86.3785598,19.9683562]},"properties":{"name":"Devi river mouth olive ridley mass-nesting site","species":"Lepidochelys olivacea","source":"curated (OpenStreetMap anchor + NCCR/ICMAM-PD)","source_id":"curated_turtle","geometry_quality":"approximate","citation":"ICMAM Project Directorate / NCCR, Ministry of Earth Sciences. Critical habitat information system: Bhitarkanika and Gahirmatha, section on rookeries: 'Devi river mouth (Jatadhar Muhana to Kadera river mouth)'. https://www.nccr.gov.in/sites/default/files/Gahirmatha.PDF","construction":"seaward end vertex of OSM way/326217880 (Devi River). The rookery's stated extent (Jatadhar Muhana to Kadera river mouth) could not be positioned: neither mouth is named in OSM. Treat as a point marker, not an extent."}},{"type":"Feature","geometry":{"type":"MultiLineString","coordinates":[[[87.0063,20.74376],[87.00685,20.74291],[87.00728,20.74171],[87.00751,20.7407],[87.00686,20.7388],[87.00608,20.73729],[87.00532,20.73488],[87.00451,20.73064],[87.00376,20.72588],[87.00235,20.71949],[87.00192,20.7179],[86.99981,20.71332],[86.99844,20.71131],[86.99769,20.71052],[87.00249,20.70481],[87.007,20.69988],[87.00703,20.69984],[87.00993,20.69926],[87.01285,20.6987],[87.01538,20.69975],[87.01739,20.70072],[87.01912,20.70158],[87.01972,20.70154],[87.02114,20.70088],[87.02223,20.70058],[87.02284,20.70066],[87.02319,20.7009],[87.0241,20.70145],[87.02481,20.7022],[87.02573,20.70259],[87.02867,20.70399],[87.03027,20.70531],[87.03131,20.70546],[87.03211,20.70548],[87.03392,20.70558],[87.03555,20.70598],[87.03649,20.70647],[87.0369,20.70689],[87.03813,20.70819],[87.03896,20.70872],[87.04234,20.71013],[87.04327,20.7103],[87.04406,20.71042],[87.04466,20.7105],[87.04529,20.71086],[87.04656,20.71208],[87.04733,20.71251],[87.04803,20.71277],[87.04908,20.71333],[87.04986,20.71391],[87.05063,20.71447],[87.05146,20.71514],[87.05258,20.71619],[87.05338,20.71708],[87.0539,20.71752],[87.05442,20.71756],[87.05482,20.71733],[87.0548,20.71708],[87.05447,20.71682],[87.05433,20.71652],[87.05436,20.71621],[87.05468,20.71613],[87.05518,20.71641],[87.05564,20.7167],[87.0564,20.71657],[87.05719,20.71655],[87.05767,20.71679],[87.05786,20.71709],[87.05807,20.7173],[87.0584,20.71729],[87.05889,20.71726],[87.06002,20.71783],[87.06131,20.7184],[87.06197,20.71885],[87.06237,20.71939],[87.06295,20.72003],[87.06391,20.72057],[87.06419,20.7211],[87.06403,20.72169],[87.0641,20.72253],[87.06515,20.7232],[87.06682,20.72349],[87.06839,20.72307],[87.06913,20.72288],[87.0694,20.72253],[87.06904,20.72161],[87.06879,20.72092],[87.06786,20.7204],[87.06664,20.71988],[87.0655,20.71915],[87.06429,20.71816],[87.06276,20.71756],[87.05993,20.71654],[87.05794,20.71564],[87.05626,20.71498],[87.05519,20.71442],[87.05386,20.71359],[87.05239,20.71291],[87.05115,20.7124],[87.04965,20.71162],[87.04848,20.71113],[87.04781,20.71069],[87.04738,20.71017],[87.04555,20.70911],[87.04408,20.70848],[87.04222,20.70751],[87.04063,20.70686],[87.03943,20.7061],[87.03693,20.70473],[87.03584,20.70396],[87.03447,20.70313],[87.03365,20.70262],[87.03289,20.70195],[87.03142,20.70069],[87.03046,20.69977],[87.0294,20.69898],[87.02811,20.69853],[87.02684,20.69772],[87.02542,20.69673],[87.02446,20.69584],[87.02262,20.69454],[87.01975,20.69293],[87.01891,20.69221],[87.01819,20.6913],[87.01668,20.69035],[87.01585,20.68996],[87.01453,20.68893],[87.01325,20.68777],[87.01282,20.68735],[87.01218,20.687],[87.01119,20.68656],[87.00964,20.68556],[87.00812,20.68443],[87.00405,20.68165],[87.00128,20.67994],[86.99986,20.67889],[86.99326,20.67463],[86.99195,20.67378],[86.99084,20.67304],[86.98917,20.67179],[86.98799,20.67085],[86.98479,20.66872],[86.98318,20.66754],[86.98175,20.66675],[86.98083,20.66626],[86.97852,20.66487],[86.97613,20.66355],[86.97494,20.66283],[86.97415,20.66235],[86.9719,20.66113],[86.97082,20.66046],[86.96773,20.65867],[86.96708,20.6583],[86.96579,20.65758],[86.96447,20.65681],[86.96338,20.65613],[86.96107,20.65484],[86.95881,20.65349],[86.95585,20.6517],[86.95434,20.65079],[86.95296,20.64988],[86.9524,20.64948],[86.95162,20.64886],[86.95069,20.64812],[86.94988,20.64759],[86.94881,20.6469],[86.94814,20.64644],[86.94737,20.6459],[86.94655,20.64534],[86.94567,20.64475],[86.9445,20.64404],[86.9439,20.6437],[86.94366,20.64356],[86.94354,20.64346],[86.94345,20.64341],[86.94334,20.64335],[86.9432,20.64327],[86.94302,20.64314],[86.94232,20.64275],[86.94121,20.64207],[86.94014,20.64145],[86.93806,20.64029],[86.93484,20.63837],[86.93172,20.63658],[86.9299,20.63548],[86.92826,20.63453],[86.92631,20.63335],[86.92159,20.6305],[86.92031,20.62976],[86.91874,20.62877],[86.91666,20.62754],[86.91545,20.62676],[86.91167,20.62446],[86.91022,20.6236],[86.9086,20.62257],[86.90588,20.62082],[86.90424,20.61978],[86.89995,20.617],[86.89792,20.61564],[86.89399,20.61306],[86.8907,20.61094],[86.88857,20.60947],[86.88525,20.60716],[86.88239,20.60512],[86.88063,20.60365],[86.877,20.60135],[86.87467,20.5998],[86.8732,20.59885],[86.87068,20.59729],[86.86857,20.59587],[86.86425,20.59291],[86.86041,20.59037],[86.85864,20.58902],[86.85821,20.58871],[86.85777,20.5884],[86.85683,20.58774],[86.85588,20.58706],[86.85497,20.5865],[86.85295,20.58503],[86.85207,20.58414],[86.85043,20.58289],[86.84696,20.58052],[86.84432,20.57876],[86.84319,20.57807],[86.84212,20.57743],[86.84107,20.57685],[86.84019,20.57642],[86.83929,20.57596],[86.83826,20.57536],[86.83672,20.57439],[86.83579,20.57367],[86.83352,20.57215],[86.83265,20.57156],[86.83188,20.5711],[86.83044,20.57024],[86.828,20.56872],[86.82654,20.56776],[86.82508,20.56678],[86.82484,20.56661],[86.82289,20.5653],[86.81474,20.55979],[86.81225,20.55808],[86.80994,20.55647],[86.80796,20.55512],[86.80725,20.55465],[86.80631,20.55404],[86.80568,20.55361],[86.805,20.55313],[86.80437,20.5527],[86.80366,20.55218],[86.80276,20.55152],[86.80155,20.55058],[86.80018,20.54952],[86.79905,20.54863],[86.79713,20.54734],[86.79501,20.54586],[86.79367,20.54483],[86.79188,20.54325],[86.79098,20.54228],[86.7899,20.54112],[86.78916,20.54019],[86.78831,20.53952],[86.7874,20.5385],[86.78687,20.53771],[86.78669,20.53749],[86.78645,20.5373],[86.78603,20.5368],[86.78552,20.53605],[86.78501,20.53522],[86.7845,20.53424],[86.7839,20.53299],[86.78359,20.53225],[86.78281,20.53045],[86.78254,20.52971],[86.78203,20.52826],[86.78156,20.52709],[86.78122,20.52603],[86.78082,20.52487],[86.78055,20.52426],[86.77991,20.52308],[86.77961,20.5222],[86.77947,20.52147],[86.77928,20.52074],[86.77909,20.5204],[86.7789,20.51997],[86.77871,20.51939],[86.77846,20.51861],[86.77832,20.51799],[86.77829,20.5177],[86.77827,20.51737],[86.77826,20.51663],[86.77824,20.51614],[86.77815,20.51572],[86.77801,20.51527],[86.77767,20.51442],[86.77683,20.51269],[86.77606,20.511],[86.77569,20.51023],[86.77508,20.50921],[86.77468,20.50852],[86.77417,20.50791],[86.77362,20.50725],[86.7729,20.50646],[86.7719,20.50566],[86.77027,20.5049],[86.76906,20.50437],[86.76763,20.50373],[86.76751,20.50367],[86.76733,20.50362],[86.76702,20.50365],[86.76657,20.50382],[86.76623,20.50389],[86.76602,20.50391],[86.76577,20.50388],[86.76526,20.50375],[86.76501,20.50374],[86.7642,20.50373],[86.76352,20.50382],[86.76304,20.50382],[86.76262,20.50378],[86.76207,20.50373],[86.76132,20.50377],[86.75842,20.50202],[86.75575,20.50034],[86.7554,20.4996],[86.75486,20.49883],[86.75434,20.49802],[86.75389,20.49733],[86.75352,20.49677],[86.75321,20.49621],[86.75312,20.49575],[86.75295,20.49512],[86.75274,20.49453],[86.75257,20.49394],[86.75228,20.49274],[86.75186,20.49165],[86.75114,20.48995],[86.75091,20.4894],[86.75077,20.48892],[86.75062,20.48827],[86.75054,20.48793],[86.7505,20.48757],[86.75048,20.48721],[86.75039,20.48693],[86.75024,20.48639],[86.74979,20.48456],[86.74842,20.48021],[86.74682,20.47591],[86.74656,20.47524],[86.746,20.47389],[86.74576,20.47339],[86.74495,20.47143],[86.74467,20.47088],[86.74421,20.47033],[86.74378,20.4698],[86.74315,20.4692],[86.74254,20.46901],[86.7422,20.46898],[86.74144,20.46919],[86.73801,20.4681],[86.73772,20.46674],[86.737,20.46479],[86.73607,20.46269],[86.73579,20.4613],[86.73486,20.45976],[86.73435,20.45849],[86.73355,20.45679],[86.73276,20.45462],[86.7325,20.45269],[86.73249,20.45082],[86.7327,20.45029],[86.73278,20.44994],[86.73279,20.44927],[86.73267,20.44833],[86.73232,20.44631],[86.73219,20.44452],[86.73218,20.44328],[86.732,20.44212],[86.73223,20.44167],[86.7323,20.44117],[86.73222,20.44051],[86.73213,20.4398],[86.73195,20.43894],[86.7318,20.43796],[86.73187,20.43706],[86.73196,20.43614],[86.732,20.43559],[86.73194,20.43481],[86.732,20.43412],[86.73188,20.43326],[86.73186,20.43219],[86.73197,20.43146],[86.73201,20.43098],[86.7318,20.43021],[86.73164,20.4297],[86.73158,20.42922],[86.73166,20.42869],[86.73182,20.42791],[86.73196,20.42722],[86.73199,20.42695],[86.73209,20.42658],[86.73231,20.42633],[86.73258,20.42623],[86.73274,20.42611],[86.73282,20.42594],[86.73294,20.42544],[86.73314,20.42461],[86.73327,20.42394],[86.73327,20.42333],[86.73338,20.4231],[86.73355,20.42283],[86.73373,20.42258],[86.73385,20.42225],[86.73402,20.42207],[86.73421,20.42175],[86.73431,20.42145],[86.73451,20.4206],[86.73498,20.4181],[86.73498,20.4169],[86.73481,20.4151],[86.73452,20.41344],[86.73434,20.41287],[86.73408,20.41232],[86.73352,20.41148],[86.7324,20.4099],[86.73082,20.40756],[86.72987,20.40605],[86.72928,20.40499],[86.73104,20.40399],[86.73282,20.40299],[86.73305,20.40317],[86.73355,20.40327],[86.73414,20.40336],[86.7348,20.40343],[86.73542,20.4036],[86.73605,20.40382],[86.73672,20.40395],[86.73752,20.40407],[86.73837,20.40415],[86.7392,20.40423],[86.73973,20.40429],[86.74046,20.40443],[86.74128,20.40462],[86.74236,20.4048],[86.74317,20.40485],[86.74403,20.40482],[86.74463,20.40471],[86.74562,20.40457],[86.74603,20.40447],[86.74689,20.40443],[86.74767,20.40436],[86.74854,20.40406],[86.74869,20.40387],[86.74881,20.40375],[86.74896,20.40363],[86.74912,20.40354],[86.74936,20.40347],[86.74964,20.40343],[86.75008,20.40327],[86.75073,20.4028],[86.75123,20.40178],[86.75158,20.4009],[86.75191,20.39974],[86.75223,20.39903],[86.75271,20.39828],[86.75342,20.39758],[86.75448,20.3979],[86.75561,20.39842],[86.75626,20.39868],[86.75652,20.39857],[86.75666,20.39735],[86.75713,20.39614],[86.75723,20.39588],[86.75741,20.39577],[86.75771,20.39574],[86.758,20.39585],[86.75831,20.39622],[86.75844,20.39651],[86.75849,20.39659],[86.75853,20.39663],[86.75858,20.39666],[86.75862,20.39664],[86.75863,20.39662],[86.75864,20.39656],[86.75863,20.39637],[86.75871,20.39619],[86.75889,20.39605],[86.75917,20.39596],[86.75927,20.39567],[86.75999,20.39612],[86.76306,20.39716],[86.76494,20.39753],[86.76646,20.39752],[86.76797,20.39729],[86.77016,20.39679],[86.77155,20.39646],[86.77309,20.39587],[86.77379,20.39556],[86.77573,20.39464],[86.77697,20.39379],[86.77848,20.39257],[86.77997,20.39065],[86.7806,20.38958],[86.78118,20.38836],[86.78178,20.38652],[86.78193,20.38426],[86.78194,20.38231],[86.78185,20.38125],[86.78255,20.37975],[86.78335,20.37801],[86.78406,20.37822],[86.78463,20.37838],[86.78697,20.37902],[86.78955,20.37972],[86.79234,20.37999],[86.79254,20.38001],[86.79366,20.37998],[86.79493,20.37975],[86.79565,20.37933],[86.79621,20.37871],[86.79677,20.37794],[86.79751,20.37678],[86.79788,20.37599],[86.79733,20.3739],[86.79718,20.37335],[86.79658,20.37161],[86.7959,20.37058],[86.79282,20.36601],[86.79197,20.36269],[86.79176,20.36239],[86.7897,20.35928],[86.78866,20.35786],[86.78753,20.35624],[86.78622,20.35469],[86.78476,20.35332],[86.78342,20.35118],[86.78255,20.34979],[86.78087,20.34686],[86.78037,20.34605],[86.77962,20.34503],[86.77896,20.34443],[86.7782,20.34366],[86.77797,20.34324],[86.77789,20.34259],[86.77787,20.34241],[86.77794,20.34175],[86.77802,20.34151],[86.77807,20.34135],[86.77808,20.34085],[86.778,20.3405],[86.77795,20.34025],[86.77757,20.33962],[86.77707,20.33877],[86.77667,20.33786],[86.77678,20.33766],[86.77696,20.33763],[86.77782,20.3383],[86.77864,20.33895],[86.78042,20.34026],[86.78126,20.34095],[86.78174,20.3414],[86.78299,20.34235],[86.78485,20.34368],[86.78607,20.34467],[86.78664,20.34514],[86.78724,20.3457],[86.78751,20.34633],[86.78753,20.34716],[86.78796,20.34831],[86.7892,20.35036],[86.7898,20.35105],[86.79051,20.35175],[86.7918,20.35271],[86.79236,20.35295],[86.79322,20.35332],[86.79385,20.35374],[86.7944,20.35422],[86.79559,20.35537],[86.7961,20.35607],[86.7964,20.35646],[86.79642,20.357],[86.79648,20.35744],[86.79676,20.35769],[86.798,20.35781],[86.79893,20.35818],[86.79985,20.3592],[86.80124,20.36119],[86.80232,20.36298],[86.80321,20.36458],[86.80463,20.3668],[86.80564,20.36913],[86.80683,20.37129],[86.80804,20.37394],[86.80891,20.37645],[86.80891,20.37778],[86.80866,20.37868],[86.80822,20.37891],[86.80795,20.37896],[86.80751,20.37877],[86.80724,20.37749],[86.80715,20.37537],[86.80657,20.3741],[86.80613,20.37348],[86.80522,20.37249],[86.80449,20.372],[86.80377,20.3717],[86.80357,20.37188],[86.80353,20.37234],[86.80375,20.37298],[86.80423,20.3738],[86.80421,20.37564],[86.80422,20.37587],[86.80436,20.3761],[86.80422,20.37701],[86.80439,20.37793],[86.80405,20.3786],[86.80451,20.37927],[86.80549,20.38049],[86.80609,20.38147],[86.80629,20.38238],[86.80627,20.38308],[86.80615,20.38486],[86.80628,20.38532],[86.80639,20.38567],[86.80643,20.38626],[86.8064,20.38818],[86.80629,20.38914],[86.80619,20.38994],[86.80617,20.39017],[86.80617,20.39062],[86.80596,20.39076],[86.80575,20.39074],[86.80539,20.39047],[86.80501,20.39],[86.80419,20.38877],[86.80328,20.38736],[86.80265,20.38651],[86.80225,20.38611],[86.80191,20.38594],[86.80178,20.38609],[86.80199,20.38647],[86.80222,20.38693],[86.80241,20.38734],[86.80291,20.38827],[86.80379,20.38953],[86.80484,20.39129],[86.8058,20.39269],[86.80634,20.39381],[86.80679,20.39458],[86.80763,20.39743],[86.80779,20.40015],[86.80746,20.40236],[86.80691,20.40433],[86.80641,20.406],[86.80504,20.40761],[86.80348,20.40865],[86.80227,20.40917],[86.80205,20.40933],[86.80202,20.40956],[86.80214,20.40988],[86.80225,20.41008],[86.80235,20.41014],[86.8024,20.41018],[86.8024,20.41022],[86.80234,20.41031],[86.80158,20.41053],[86.80118,20.41081],[86.80098,20.41126],[86.80107,20.4115],[86.80149,20.41182],[86.80176,20.412],[86.80216,20.4121],[86.8023,20.41204],[86.80251,20.41188],[86.80284,20.41179],[86.8032,20.41173],[86.80368,20.41169],[86.80408,20.41162],[86.80463,20.41151],[86.80489,20.41144],[86.80519,20.41129],[86.80538,20.41104],[86.80552,20.4108],[86.80591,20.41028],[86.80634,20.40991],[86.80658,20.40937],[86.80681,20.40881],[86.80761,20.40735],[86.80825,20.40628],[86.80853,20.40558],[86.8087,20.40481],[86.80872,20.40392],[86.8086,20.40328],[86.80874,20.40268],[86.80888,20.40237],[86.80917,20.40241],[86.80922,20.40263],[86.80929,20.40296],[86.80952,20.40316],[86.80992,20.40293],[86.81017,20.40269],[86.81054,20.40276],[86.81096,20.40316],[86.81125,20.40347],[86.81144,20.40374],[86.81196,20.40422],[86.81258,20.40485],[86.81261,20.40555],[86.81255,20.40609],[86.8124,20.40677],[86.81227,20.40779],[86.8112,20.40932],[86.80993,20.4099],[86.80879,20.41091],[86.80768,20.41223],[86.80723,20.41344],[86.80671,20.41436],[86.80551,20.41537],[86.80437,20.41565],[86.80379,20.41613],[86.80347,20.41665],[86.80349,20.41808],[86.80299,20.41905],[86.80228,20.41966],[86.80129,20.42023],[86.80078,20.42044],[86.79963,20.42103],[86.79897,20.42172],[86.799,20.42223],[86.79928,20.42254],[86.79961,20.42263],[86.80003,20.42277],[86.80038,20.42284],[86.80073,20.42288],[86.80156,20.42281],[86.80199,20.4227],[86.80234,20.4223],[86.80262,20.42205],[86.803,20.4219],[86.80319,20.42184],[86.80461,20.42091],[86.80493,20.42099],[86.8052,20.42111],[86.8053,20.42124],[86.80525,20.42148],[86.8052,20.42161],[86.80527,20.42175],[86.80543,20.42185],[86.80556,20.42206],[86.80589,20.42246],[86.80617,20.42275],[86.80643,20.42314],[86.80656,20.4235],[86.80656,20.42379],[86.80645,20.42412],[86.80623,20.42426],[86.80582,20.42436],[86.80538,20.42445],[86.80489,20.42449],[86.80465,20.42446],[86.8046,20.42462],[86.80465,20.42482],[86.80507,20.42562],[86.80504,20.42614],[86.80458,20.42749],[86.80447,20.42876],[86.80439,20.42944],[86.80407,20.42998],[86.80391,20.43031],[86.80395,20.43058],[86.80413,20.43063],[86.80461,20.43055],[86.80473,20.43065],[86.80463,20.43143],[86.80423,20.432],[86.80394,20.43222],[86.80326,20.43223],[86.80267,20.43238],[86.80212,20.43266],[86.8017,20.43276],[86.80164,20.43296],[86.80216,20.43344],[86.80338,20.43376],[86.80429,20.43381],[86.80746,20.43331],[86.80901,20.43276],[86.80974,20.43313],[86.80763,20.43646],[86.80824,20.43835],[86.80738,20.44028],[86.80641,20.44109],[86.80639,20.44207],[86.80673,20.44264],[86.80746,20.44276],[86.80897,20.44071],[86.81012,20.4387],[86.81226,20.43319],[86.81407,20.43078],[86.8155,20.42813],[86.81611,20.42641],[86.8168,20.42487],[86.81714,20.42355],[86.81719,20.42216],[86.81787,20.41901],[86.81795,20.41606],[86.81778,20.41281],[86.81808,20.41169],[86.81797,20.41073],[86.81811,20.40956],[86.81846,20.40809],[86.81808,20.40622],[86.81802,20.40381],[86.81796,20.40278],[86.81807,20.40207],[86.8179,20.40112],[86.81797,20.40039],[86.81753,20.39907],[86.8172,20.39808],[86.81681,20.39741],[86.81632,20.39605],[86.81585,20.39412],[86.81505,20.39254],[86.81479,20.39118],[86.81422,20.38931],[86.81328,20.38616],[86.81229,20.38351],[86.81135,20.38081],[86.80993,20.37637],[86.80907,20.37368],[86.8085,20.37203],[86.80785,20.3705],[86.80669,20.3683],[86.80447,20.36452],[86.8036,20.36307],[86.80266,20.36162],[86.80071,20.35889],[86.79902,20.35674],[86.79718,20.3545],[86.79535,20.35234],[86.79475,20.35159],[86.79408,20.35099],[86.79322,20.35018],[86.79194,20.34877],[86.78854,20.34576],[86.78641,20.34375],[86.77912,20.33761],[86.7758,20.33519],[86.77497,20.3347],[86.7741,20.33421],[86.7724,20.3331],[86.77083,20.33212],[86.76959,20.3314],[86.76488,20.32887],[86.75946,20.3257],[86.75558,20.32424],[86.75365,20.32284],[86.75194,20.32143],[86.75132,20.32041],[86.75036,20.31952]],[[86.79274,20.38446],[86.79085,20.38524],[86.7906,20.38643],[86.79264,20.38786],[86.79431,20.38812],[86.79476,20.38707],[86.79463,20.385],[86.7942,20.38383],[86.79274,20.38446]],[[86.78906,20.40327],[86.78795,20.40475],[86.78824,20.40576],[86.78943,20.40699],[86.78985,20.4079],[86.79046,20.40932],[86.79095,20.41142],[86.7911,20.41342],[86.79043,20.41672],[86.79126,20.41973],[86.79165,20.42211],[86.79159,20.42304],[86.79165,20.42345],[86.79173,20.42372],[86.79178,20.42387],[86.79189,20.42397],[86.79199,20.424],[86.79211,20.424],[86.79234,20.42386],[86.79286,20.42331],[86.79327,20.4215],[86.79332,20.42073],[86.79371,20.41986],[86.79394,20.41868],[86.79412,20.41617],[86.79442,20.41365],[86.79484,20.41267],[86.79494,20.41174],[86.79462,20.41107],[86.7931,20.408],[86.79264,20.40481],[86.79283,20.40259],[86.79343,20.40094],[86.79402,20.3987],[86.79451,20.3972],[86.79516,20.39576],[86.79553,20.39426],[86.79525,20.39273],[86.79432,20.39024],[86.79196,20.38857],[86.79013,20.38784],[86.78956,20.38766],[86.78902,20.38777],[86.78902,20.3886],[86.78933,20.39027],[86.78922,20.39261],[86.78933,20.39348],[86.78966,20.39465],[86.79,20.39585],[86.79002,20.39744],[86.7898,20.40154],[86.78906,20.40327]],[[86.79924,20.51637],[86.79918,20.5171],[86.79937,20.51753],[86.80086,20.51803],[86.80141,20.51831],[86.80168,20.51893],[86.8022,20.519],[86.80302,20.51792],[86.80449,20.51266],[86.80474,20.51145],[86.80493,20.50989],[86.8048,20.50832],[86.80449,20.50635],[86.80369,20.50288],[86.80298,20.50248],[86.80315,20.50493],[86.80291,20.50596],[86.80221,20.50821],[86.80154,20.50982],[86.80068,20.51213],[86.80036,20.51378],[86.79995,20.51528],[86.79924,20.51637]],[[87.00865,20.71993],[87.00848,20.71891],[87.00741,20.71688],[87.00552,20.71343],[87.00442,20.71198],[87.00281,20.71084],[87.00228,20.71048],[87.00264,20.71154],[87.00378,20.71329],[87.00503,20.71541],[87.00756,20.7196],[87.00865,20.71993]],[[87.06237,20.73546],[87.06203,20.73586],[87.06198,20.73603],[87.06249,20.73626],[87.06313,20.73655],[87.06383,20.73676],[87.06406,20.73675],[87.06417,20.73665],[87.06373,20.73649],[87.06378,20.73641],[87.06404,20.73619],[87.0643,20.73596],[87.06449,20.73584],[87.06532,20.73562],[87.06557,20.73556],[87.06603,20.7358],[87.06649,20.73588],[87.067,20.73608],[87.06782,20.73651],[87.06824,20.73695],[87.06857,20.73745],[87.06871,20.73761],[87.06869,20.73783],[87.06862,20.73802],[87.06854,20.73823],[87.0684,20.73833],[87.06847,20.73845],[87.06857,20.73847],[87.06868,20.73848],[87.06898,20.73864],[87.06927,20.73891],[87.06941,20.73918],[87.06953,20.73989],[87.06954,20.74028],[87.06972,20.74075],[87.06987,20.74096],[87.07003,20.74194],[87.07002,20.74252],[87.07012,20.7434],[87.07027,20.74389],[87.07048,20.74484],[87.07055,20.7457],[87.07073,20.74645],[87.07086,20.74668],[87.07109,20.74714],[87.07134,20.74739],[87.07168,20.7474],[87.07189,20.74734],[87.072,20.74717],[87.07201,20.74703],[87.07183,20.74696],[87.07156,20.74689],[87.07142,20.74668],[87.07149,20.74638],[87.07169,20.74574],[87.07208,20.74498],[87.07209,20.74472],[87.072,20.74445],[87.07184,20.74432],[87.07166,20.74393],[87.07155,20.74366],[87.07153,20.74318],[87.07156,20.74293],[87.07148,20.74245],[87.07134,20.74204],[87.07098,20.74102],[87.07079,20.74049],[87.07057,20.73968],[87.07044,20.73931],[87.07022,20.73906],[87.06997,20.73863],[87.0699,20.73815],[87.06999,20.7375],[87.07028,20.73678],[87.07075,20.73628],[87.07153,20.73633],[87.0736,20.73674],[87.07532,20.73718],[87.07546,20.73738],[87.0755,20.73781],[87.07535,20.73836],[87.07549,20.73856],[87.07582,20.73847],[87.07619,20.73816],[87.0768,20.73776],[87.0771,20.73756],[87.07851,20.7377],[87.07966,20.73795],[87.07991,20.73783],[87.08003,20.73769],[87.0799,20.73757],[87.07934,20.73738],[87.07594,20.73679],[87.07068,20.73555],[87.0695,20.73514],[87.06875,20.73476],[87.06807,20.73442],[87.06728,20.73469],[87.06596,20.73488],[87.06517,20.73495],[87.06388,20.73488],[87.06293,20.73518],[87.06237,20.73546]],[[87.07593,20.74272],[87.07602,20.7421],[87.07608,20.74159],[87.07593,20.741],[87.076,20.74043],[87.07582,20.74015],[87.07563,20.73981],[87.07537,20.73955],[87.07524,20.73928],[87.075,20.73931],[87.07471,20.73947],[87.07476,20.73983],[87.07528,20.74074],[87.07536,20.74111],[87.07537,20.74162],[87.07565,20.74223],[87.07559,20.74292],[87.0756,20.74389],[87.07557,20.74459],[87.07522,20.74519],[87.07473,20.74571],[87.07432,20.74592],[87.07402,20.74616],[87.0741,20.74642],[87.07433,20.74644],[87.07473,20.74637],[87.07519,20.74593],[87.07556,20.74527],[87.07582,20.74453],[87.07593,20.74272]],[[87.04999,20.74325],[87.05065,20.74359],[87.05198,20.74399],[87.05272,20.74417],[87.05338,20.74454],[87.05452,20.74472],[87.05654,20.74441],[87.05695,20.74427],[87.05745,20.7442],[87.05818,20.74391],[87.05873,20.74354],[87.05907,20.74329],[87.05883,20.7433],[87.0586,20.74339],[87.05729,20.74393],[87.05641,20.74426],[87.05534,20.74417],[87.05291,20.74375],[87.05175,20.74351],[87.05055,20.74309],[87.05024,20.74291],[87.0498,20.74278],[87.04952,20.74291],[87.04999,20.74325]],[[87.08039,20.76172],[87.08092,20.76184],[87.08153,20.76203],[87.08187,20.76219],[87.0822,20.7624],[87.08248,20.76274],[87.08255,20.76294],[87.08243,20.76314],[87.08239,20.76324],[87.08265,20.76356],[87.08294,20.76384],[87.08349,20.76419],[87.08388,20.7643],[87.08451,20.76437],[87.08479,20.76446],[87.08529,20.76453],[87.08552,20.76451],[87.08571,20.76445],[87.08597,20.76429],[87.0863,20.76385],[87.08677,20.76265],[87.08757,20.7612],[87.08787,20.76073],[87.08809,20.76024],[87.08849,20.75972],[87.08877,20.75944],[87.08888,20.75915],[87.08937,20.75842],[87.09,20.75779],[87.0905,20.75729],[87.09086,20.75686],[87.09146,20.75639],[87.09215,20.75585],[87.09303,20.75541],[87.09327,20.75525],[87.09338,20.75515],[87.09346,20.75496],[87.09348,20.75454],[87.09349,20.75399],[87.09324,20.75315],[87.09313,20.75255],[87.09306,20.75199],[87.09301,20.75146],[87.0929,20.7508],[87.09286,20.75033],[87.09287,20.74977],[87.09305,20.74895],[87.09319,20.74866],[87.09313,20.74853],[87.09297,20.74856],[87.09289,20.74892],[87.0927,20.74956],[87.09259,20.74996],[87.09248,20.75014],[87.09233,20.75021],[87.09162,20.75025],[87.09081,20.75022],[87.08921,20.74967],[87.08812,20.74898],[87.08671,20.74815],[87.08547,20.74761],[87.08479,20.74733],[87.08445,20.74722],[87.08423,20.74729],[87.08428,20.74752],[87.08447,20.74768],[87.08473,20.74783],[87.0849,20.74804],[87.08555,20.74837],[87.08595,20.74836],[87.08657,20.74857],[87.08689,20.7488],[87.08729,20.74904],[87.08744,20.74936],[87.08746,20.74986],[87.08737,20.75038],[87.08731,20.75098],[87.08735,20.75167],[87.08746,20.75182],[87.08764,20.75192],[87.08773,20.75181],[87.08779,20.75143],[87.08801,20.75106],[87.08837,20.75092],[87.08943,20.7516],[87.09007,20.75211],[87.09031,20.75241],[87.09025,20.75269],[87.09,20.75289],[87.08946,20.75284],[87.08914,20.75272],[87.0888,20.75259],[87.08859,20.7526],[87.08825,20.75264],[87.08781,20.75269],[87.08769,20.75266],[87.08766,20.75257],[87.08775,20.7524],[87.08752,20.75229],[87.0871,20.75232],[87.08676,20.75247],[87.08643,20.75258],[87.08616,20.75274],[87.0855,20.75325],[87.08528,20.75329],[87.08496,20.75325],[87.08481,20.75325],[87.08439,20.75342],[87.08312,20.75384],[87.0824,20.75396],[87.08189,20.75391],[87.08094,20.75382],[87.08019,20.75371],[87.07866,20.75343],[87.07757,20.75308],[87.07722,20.75306],[87.0767,20.75295],[87.07635,20.75294],[87.07588,20.75287],[87.07453,20.753],[87.0741,20.75309],[87.0735,20.7533],[87.07317,20.75356],[87.073,20.75385],[87.07296,20.75393],[87.07293,20.75401],[87.07286,20.75427],[87.0729,20.75494],[87.07302,20.75532],[87.07307,20.75537],[87.07339,20.75548],[87.07372,20.7556],[87.07429,20.75588],[87.07509,20.75608],[87.07554,20.75633],[87.07637,20.75661],[87.07801,20.7573],[87.07863,20.7576],[87.0792,20.75803],[87.07964,20.75854],[87.08005,20.75887],[87.079,20.75919],[87.07867,20.75952],[87.07844,20.75993],[87.07853,20.76037],[87.07883,20.76076],[87.07928,20.76108],[87.07965,20.76122],[87.07995,20.7616],[87.08039,20.76172]]]},"properties":{"name":"Gahirmatha olive ridley mass-nesting coast","species":"Lepidochelys olivacea","source":"curated (OpenStreetMap sanctuary polygon + NCCR/ICMAM-PD)","source_id":"curated_turtle","geometry_quality":"approximate_line","citation":"ICMAM Project Directorate / NCCR, Ministry of Earth Sciences. Gahirmatha critical habitat document: rookery on 35-40 km of coastline from the Maipura river to the Hansua river mouth; mass nesting on Nasi island from 1990. https://www.nccr.gov.in/sites/default/files/Gahirmatha.PDF","construction":"land-mask coastline within ~500 m of OSM way/669652446 'Gahirmatha (Marine) WLS'. The sanctuary coast is longer than the active nesting beach, and the barrier islands shift; this over-covers rather than misses the rookery."}}]}